{
"type": "FeatureCollection",
"name": "aeroports_ourairports",
"crs": { "type": "name", "properties": { "name": "urn:ogc:def:crs:OGC:1.3:CRS84" } },
"xy_coordinate_resolution": 1e-06,
"features": [
{ "type": "Feature", "properties": { "tg_type": "INF.AEROPORT", "nom": "Campo Airport", "source_id": "ourairports/318387", "source": "OURAIRPORTS_2026-10-04", "statut": "IMPORTE", "date_source": null, "ident": "CM-0001", "type_ourairports": "small_airport", "elevation_ft": null, "municipality": "Campo", "iso_region": "CM-SW", "scheduled_service": "no", "icao_code": null, "iata_code": null, "gps_code": null, "osm_correspondant": null }, "geometry": { "type": "Point", "coordinates": [ 9.847089, 2.341137 ] } },
{ "type": "Feature", "properties": { "tg_type": "INF.AEROPORT", "nom": "Touboro Airport", "source_id": "ourairports/319202", "source": "OURAIRPORTS_2026-10-04", "statut": "IMPORTE", "date_source": null, "ident": "CM-0002", "type_ourairports": "small_airport", "elevation_ft": null, "municipality": "Touboro", "iso_region": "CM-NO", "scheduled_service": "no", "icao_code": null, "iata_code": null, "gps_code": null, "osm_correspondant": null }, "geometry": { "type": "Point", "coordinates": [ 15.317976, 7.765747 ] } },
{ "type": "Feature", "properties": { "tg_type": "INF.AEROPORT", "nom": "Djoum Airport", "source_id": "ourairports/322282", "source": "OURAIRPORTS_2026-10-04", "statut": "IMPORTE", "date_source": null, "ident": "CM-0003", "type_ourairports": "small_airport", "elevation_ft": null, "municipality": "Djoum", "iso_region": "CM-SU", "scheduled_service": "no", "icao_code": null, "iata_code": null, "gps_code": null, "osm_correspondant": null }, "geometry": { "type": "Point", "coordinates": [ 12.666755, 2.666859 ] } },
{ "type": "Feature", "properties": { "tg_type": "INF.AEROPORT", "nom": "Sangmélima Airport", "source_id": "ourairports/322283", "source": "OURAIRPORTS_2026-10-04", "statut": "IMPORTE", "date_source": null, "ident": "CM-0004", "type_ourairports": "small_airport", "elevation_ft": null, "municipality": "Sangmélima", "iso_region": "CM-SU", "scheduled_service": "no", "icao_code": null, "iata_code": null, "gps_code": null, "osm_correspondant": null }, "geometry": { "type": "Point", "coordinates": [ 12.002311, 2.946602 ] } },
{ "type": "Feature", "properties": { "tg_type": "INF.AEROPORT", "nom": "Lokomo Airport", "source_id": "ourairports/322285", "source": "OURAIRPORTS_2026-10-04", "statut": "IMPORTE", "date_source": null, "ident": "CM-0005", "type_ourairports": "small_airport", "elevation_ft": null, "municipality": "Lokomo", "iso_region": "CM-ES", "scheduled_service": "no", "icao_code": null, "iata_code": null, "gps_code": null, "osm_correspondant": null }, "geometry": { "type": "Point", "coordinates": [ 15.460837, 2.683971 ] } },
{ "type": "Feature", "properties": { "tg_type": "INF.AEROPORT", "nom": "Masea Airport", "source_id": "ourairports/322286", "source": "OURAIRPORTS_2026-10-04", "statut": "IMPORTE", "date_source": null, "ident": "CM-0006", "type_ourairports": "small_airport", "elevation_ft": null, "municipality": "Masea", "iso_region": "CM-ES", "scheduled_service": "no", "icao_code": null, "iata_code": null, "gps_code": null, "osm_correspondant": null }, "geometry": { "type": "Point", "coordinates": [ 14.970657, 3.118743 ] } },
{ "type": "Feature", "properties": { "tg_type": "INF.AEROPORT", "nom": "Ngola Airport", "source_id": "ourairports/322311", "source": "OURAIRPORTS_2026-10-04", "statut": "IMPORTE", "date_source": null, "ident": "CM-0007", "type_ourairports": "small_airport", "elevation_ft": null, "municipality": "Ngola", "iso_region": "CM-ES", "scheduled_service": "no", "icao_code": null, "iata_code": null, "gps_code": null, "osm_correspondant": null }, "geometry": { "type": "Point", "coordinates": [ 15.332236, 3.494501 ] } },
{ "type": "Feature", "properties": { "tg_type": "INF.AEROPORT", "nom": "Gribi Airport", "source_id": "ourairports/322312", "source": "OURAIRPORTS_2026-10-04", "statut": "IMPORTE", "date_source": null, "ident": "CM-0008", "type_ourairports": "small_airport", "elevation_ft": null, "municipality": "Gribi", "iso_region": "CM-ES", "scheduled_service": "no", "icao_code": null, "iata_code": null, "gps_code": null, "osm_correspondant": "way/315023044" }, "geometry": { "type": "Point", "coordinates": [ 14.984021, 3.787821 ] } },
{ "type": "Feature", "properties": { "tg_type": "INF.AEROPORT", "nom": "Mindourou Airport", "source_id": "ourairports/322313", "source": "OURAIRPORTS_2026-10-04", "statut": "IMPORTE", "date_source": null, "ident": "CM-0009", "type_ourairports": "small_airport", "elevation_ft": null, "municipality": "Mindourou", "iso_region": "CM-ES", "scheduled_service": "no", "icao_code": null, "iata_code": null, "gps_code": null, "osm_correspondant": null }, "geometry": { "type": "Point", "coordinates": [ 14.541415, 4.122123 ] } },
{ "type": "Feature", "properties": { "tg_type": "INF.AEROPORT", "nom": "Limbé Military Heliport", "source_id": "ourairports/340293", "source": "OURAIRPORTS_2026-10-04", "statut": "IMPORTE", "date_source": null, "ident": "CM-0010", "type_ourairports": "heliport", "elevation_ft": null, "municipality": "Limbé", "iso_region": "CM-SW", "scheduled_service": "no", "icao_code": null, "iata_code": null, "gps_code": null, "osm_correspondant": null }, "geometry": { "type": "Point", "coordinates": [ 9.22321, 3.96893 ] } },
{ "type": "Feature", "properties": { "tg_type": "INF.AEROPORT", "nom": "Lobe Airfield", "source_id": "ourairports/340294", "source": "OURAIRPORTS_2026-10-04", "statut": "IMPORTE", "date_source": null, "ident": "CM-0011", "type_ourairports": "small_airport", "elevation_ft": null, "municipality": "Ekondo-Titi", "iso_region": "CM-SW", "scheduled_service": "no", "icao_code": null, "iata_code": null, "gps_code": null, "osm_correspondant": null }, "geometry": { "type": "Point", "coordinates": [ 9.067273, 4.597263 ] } },
{ "type": "Feature", "properties": { "tg_type": "INF.AEROPORT", "nom": "Malinkam Northwest Airport", "source_id": "ourairports/352948", "source": "OURAIRPORTS_2026-10-04", "statut": "IMPORTE", "date_source": null, "ident": "CM-0012", "type_ourairports": "small_airport", "elevation_ft": 492.0, "municipality": "Malinkam", "iso_region": "CM-LT", "scheduled_service": "no", "icao_code": null, "iata_code": null, "gps_code": null, "osm_correspondant": null }, "geometry": { "type": "Point", "coordinates": [ 9.6242, 4.61748 ] } },
{ "type": "Feature", "properties": { "tg_type": "INF.AEROPORT", "nom": "Limbé Airport", "source_id": "ourairports/340292", "source": "OURAIRPORTS_2026-10-04", "statut": "IMPORTE", "date_source": null, "ident": "CM-0013", "type_ourairports": "closed", "elevation_ft": -3.0, "municipality": "Limbé", "iso_region": "CM-SW", "scheduled_service": "no", "icao_code": null, "iata_code": null, "gps_code": null, "osm_correspondant": null }, "geometry": { "type": "Point", "coordinates": [ 9.19999, 4.01583 ] } },
{ "type": "Feature", "properties": { "tg_type": "INF.AEROPORT", "nom": "Nkongsamba Airport", "source_id": "ourairports/32034", "source": "OURAIRPORTS_2026-10-04", "statut": "IMPORTE", "date_source": null, "ident": "CM-0014", "type_ourairports": "closed", "elevation_ft": 2641.0, "municipality": "Nkongsamba", "iso_region": "CM-LT", "scheduled_service": "no", "icao_code": null, "iata_code": null, "gps_code": null, "osm_correspondant": null }, "geometry": { "type": "Point", "coordinates": [ 9.933, 4.95 ] } },
{ "type": "Feature", "properties": { "tg_type": "INF.AEROPORT", "nom": "Mai ag field", "source_id": "ourairports/600251", "source": "OURAIRPORTS_2026-10-04", "statut": "IMPORTE", "date_source": null, "ident": "CM-0015", "type_ourairports": "small_airport", "elevation_ft": 1800.0, "municipality": null, "iso_region": "CM-CE", "scheduled_service": "no", "icao_code": null, "iata_code": null, "gps_code": null, "osm_correspondant": null }, "geometry": { "type": "Point", "coordinates": [ 12.05125, 4.46636 ] } },
{ "type": "Feature", "properties": { "tg_type": "INF.AEROPORT", "nom": "Boko ag field", "source_id": "ourairports/600252", "source": "OURAIRPORTS_2026-10-04", "statut": "IMPORTE", "date_source": null, "ident": "CM-0016", "type_ourairports": "small_airport", "elevation_ft": null, "municipality": null, "iso_region": "CM-CE", "scheduled_service": "no", "icao_code": null, "iata_code": null, "gps_code": null, "osm_correspondant": null }, "geometry": { "type": "Point", "coordinates": [ 12.13107, 4.47372 ] } },
{ "type": "Feature", "properties": { "tg_type": "INF.AEROPORT", "nom": "Mvan ag field", "source_id": "ourairports/600493", "source": "OURAIRPORTS_2026-10-04", "statut": "IMPORTE", "date_source": null, "ident": "CM-0017", "type_ourairports": "small_airport", "elevation_ft": null, "municipality": null, "iso_region": "CM-CE", "scheduled_service": "no", "icao_code": null, "iata_code": null, "gps_code": null, "osm_correspondant": null }, "geometry": { "type": "Point", "coordinates": [ 12.157288, 4.53403 ] } },
{ "type": "Feature", "properties": { "tg_type": "INF.AEROPORT", "nom": "Ebo ag field", "source_id": "ourairports/600496", "source": "OURAIRPORTS_2026-10-04", "statut": "IMPORTE", "date_source": null, "ident": "CM-0018", "type_ourairports": "small_airport", "elevation_ft": null, "municipality": null, "iso_region": "CM-CE", "scheduled_service": "no", "icao_code": null, "iata_code": null, "gps_code": null, "osm_correspondant": null }, "geometry": { "type": "Point", "coordinates": [ 12.072701, 4.374297 ] } },
{ "type": "Feature", "properties": { "tg_type": "INF.AEROPORT", "nom": "Evan ag field", "source_id": "ourairports/600497", "source": "OURAIRPORTS_2026-10-04", "statut": "IMPORTE", "date_source": null, "ident": "CM-0019", "type_ourairports": "small_airport", "elevation_ft": null, "municipality": null, "iso_region": "CM-CE", "scheduled_service": "no", "icao_code": null, "iata_code": null, "gps_code": null, "osm_correspondant": null }, "geometry": { "type": "Point", "coordinates": [ 11.989167, 4.434351 ] } },
{ "type": "Feature", "properties": { "tg_type": "INF.AEROPORT", "nom": "Mg ag field", "source_id": "ourairports/600638", "source": "OURAIRPORTS_2026-10-04", "statut": "IMPORTE", "date_source": null, "ident": "CM-0020", "type_ourairports": "small_airport", "elevation_ft": null, "municipality": null, "iso_region": "CM-CE", "scheduled_service": "no", "icao_code": null, "iata_code": null, "gps_code": null, "osm_correspondant": null }, "geometry": { "type": "Point", "coordinates": [ 12.076954, 4.324557 ] } },
{ "type": "Feature", "properties": { "tg_type": "INF.AEROPORT", "nom": "N6 ag field", "source_id": "ourairports/601372", "source": "OURAIRPORTS_2026-10-04", "statut": "IMPORTE", "date_source": null, "ident": "CM-0021", "type_ourairports": "small_airport", "elevation_ft": null, "municipality": null, "iso_region": "CM-CE", "scheduled_service": "no", "icao_code": null, "iata_code": null, "gps_code": null, "osm_correspondant": null }, "geometry": { "type": "Point", "coordinates": [ 11.927165, 4.384812 ] } },
{ "type": "Feature", "properties": { "tg_type": "INF.AEROPORT", "nom": "Banyo Airport", "source_id": "ourairports/31130", "source": "OURAIRPORTS_2026-10-04", "statut": "IMPORTE", "date_source": null, "ident": "FKAB", "type_ourairports": "small_airport", "elevation_ft": 3642.0, "municipality": "Banyo", "iso_region": "CM-AD", "scheduled_service": "no", "icao_code": "FKAB", "iata_code": null, "gps_code": "FKAB", "osm_correspondant": "node/1042036808" }, "geometry": { "type": "Point", "coordinates": [ 11.807, 6.77499 ] } },
{ "type": "Feature", "properties": { "tg_type": "INF.AEROPORT", "nom": "Bafia Airport", "source_id": "ourairports/31131", "source": "OURAIRPORTS_2026-10-04", "statut": "IMPORTE", "date_source": null, "ident": "FKAF", "type_ourairports": "small_airport", "elevation_ft": 1591.0, "municipality": "Bafia", "iso_region": "CM-CE", "scheduled_service": "no", "icao_code": null, "iata_code": null, "gps_code": "FKAF", "osm_correspondant": null }, "geometry": { "type": "Point", "coordinates": [ 11.217, 4.767 ] } },
{ "type": "Feature", "properties": { "tg_type": "INF.AEROPORT", "nom": "Abong M'bang Airport", "source_id": "ourairports/31132", "source": "OURAIRPORTS_2026-10-04", "statut": "IMPORTE", "date_source": null, "ident": "FKAG", "type_ourairports": "small_airport", "elevation_ft": 2297.0, "municipality": "Abong M'bang", "iso_region": "CM-ES", "scheduled_service": "no", "icao_code": null, "iata_code": null, "gps_code": "FKAG", "osm_correspondant": null }, "geometry": { "type": "Point", "coordinates": [ 13.2, 3.967 ] } },
{ "type": "Feature", "properties": { "tg_type": "INF.AEROPORT", "nom": "Bétaré Oya Airport", "source_id": "ourairports/31133", "source": "OURAIRPORTS_2026-10-04", "statut": "IMPORTE", "date_source": null, "ident": "FKAO", "type_ourairports": "small_airport", "elevation_ft": 3002.0, "municipality": "Bétaré Oya", "iso_region": "CM-ES", "scheduled_service": "no", "icao_code": null, "iata_code": null, "gps_code": "FKAO", "osm_correspondant": "node/1042036821" }, "geometry": { "type": "Point", "coordinates": [ 14.0983, 5.50417 ] } },
{ "type": "Feature", "properties": { "tg_type": "INF.AEROPORT", "nom": "M'Bandjock Airport", "source_id": "ourairports/342880", "source": "OURAIRPORTS_2026-10-04", "statut": "IMPORTE", "date_source": null, "ident": "FKBJ", "type_ourairports": "small_airport", "elevation_ft": 1640.0, "municipality": "M'Bandjock", "iso_region": "CM-CE", "scheduled_service": "no", "icao_code": null, "iata_code": null, "gps_code": "FKBJ", "osm_correspondant": null }, "geometry": { "type": "Point", "coordinates": [ 11.925884, 4.435338 ] } },
{ "type": "Feature", "properties": { "tg_type": "INF.AEROPORT", "nom": "Kribi Airport", "source_id": "ourairports/31725", "source": "OURAIRPORTS_2026-10-04", "statut": "IMPORTE", "date_source": null, "ident": "FKKB", "type_ourairports": "small_airport", "elevation_ft": 148.0, "municipality": "Kribi", "iso_region": "CM-SU", "scheduled_service": "no", "icao_code": "FKKB", "iata_code": "KBI", "gps_code": "FKKB", "osm_correspondant": "node/1042036823" }, "geometry": { "type": "Point", "coordinates": [ 9.97778, 2.87389 ] } },
{ "type": "Feature", "properties": { "tg_type": "INF.AEROPORT", "nom": "Tiko Airport", "source_id": "ourairports/2881", "source": "OURAIRPORTS_2026-10-04", "statut": "IMPORTE", "date_source": null, "ident": "FKKC", "type_ourairports": "medium_airport", "elevation_ft": 151.0, "municipality": "Tiko", "iso_region": "CM-SW", "scheduled_service": "no", "icao_code": "FKKC", "iata_code": "TKC", "gps_code": "FKKC", "osm_correspondant": "way/312639841" }, "geometry": { "type": "Point", "coordinates": [ 9.36053, 4.08919 ] } },
{ "type": "Feature", "properties": { "tg_type": "INF.AEROPORT", "nom": "Douala International Airport", "source_id": "ourairports/2882", "source": "OURAIRPORTS_2026-10-04", "statut": "IMPORTE", "date_source": null, "ident": "FKKD", "type_ourairports": "large_airport", "elevation_ft": 33.0, "municipality": "Douala", "iso_region": "CM-LT", "scheduled_service": "yes", "icao_code": "FKKD", "iata_code": "DLA", "gps_code": "FKKD", "osm_correspondant": "way/274896463" }, "geometry": { "type": "Point", "coordinates": [ 9.71948, 4.00608 ] } },
{ "type": "Feature", "properties": { "tg_type": "INF.AEROPORT", "nom": "Eseka Airport", "source_id": "ourairports/31134", "source": "OURAIRPORTS_2026-10-04", "statut": "IMPORTE", "date_source": null, "ident": "FKKE", "type_ourairports": "small_airport", "elevation_ft": 738.0, "municipality": "Eseka", "iso_region": "CM-CE", "scheduled_service": "no", "icao_code": "FKKE", "iata_code": null, "gps_code": "FKKE", "osm_correspondant": null }, "geometry": { "type": "Point", "coordinates": [ 10.79093, 3.642129 ] } },
{ "type": "Feature", "properties": { "tg_type": "INF.AEROPORT", "nom": "Mamfe Airport", "source_id": "ourairports/31921", "source": "OURAIRPORTS_2026-10-04", "statut": "IMPORTE", "date_source": null, "ident": "FKKF", "type_ourairports": "small_airport", "elevation_ft": 413.0, "municipality": "Mamfe", "iso_region": "CM-SW", "scheduled_service": "no", "icao_code": "FKKF", "iata_code": "MMF", "gps_code": "FKKF", "osm_correspondant": "node/1042036836" }, "geometry": { "type": "Point", "coordinates": [ 9.30639, 5.70417 ] } },
{ "type": "Feature", "properties": { "tg_type": "INF.AEROPORT", "nom": "Bali Airport", "source_id": "ourairports/302411", "source": "OURAIRPORTS_2026-10-04", "statut": "IMPORTE", "date_source": null, "ident": "FKKG", "type_ourairports": "small_airport", "elevation_ft": 4465.0, "municipality": "Bali", "iso_region": "CM-NW", "scheduled_service": "no", "icao_code": "FKKG", "iata_code": "BLC", "gps_code": "FKKG", "osm_correspondant": "node/3184897120" }, "geometry": { "type": "Point", "coordinates": [ 10.033889, 5.895278 ] } },
{ "type": "Feature", "properties": { "tg_type": "INF.AEROPORT", "nom": "Kaélé Airport", "source_id": "ourairports/31757", "source": "OURAIRPORTS_2026-10-04", "statut": "IMPORTE", "date_source": null, "ident": "FKKH", "type_ourairports": "small_airport", "elevation_ft": 1276.0, "municipality": "Kaélé", "iso_region": "CM-EN", "scheduled_service": "no", "icao_code": "FKKH", "iata_code": "KLE", "gps_code": "FKKH", "osm_correspondant": "node/1042036839" }, "geometry": { "type": "Point", "coordinates": [ 14.4456, 10.0925 ] } },
{ "type": "Feature", "properties": { "tg_type": "INF.AEROPORT", "nom": "Batouri Airport", "source_id": "ourairports/32133", "source": "OURAIRPORTS_2026-10-04", "statut": "IMPORTE", "date_source": null, "ident": "FKKI", "type_ourairports": "small_airport", "elevation_ft": 2152.0, "municipality": "Batouri", "iso_region": "CM-ES", "scheduled_service": "no", "icao_code": "FKKI", "iata_code": "OUR", "gps_code": "FKKI", "osm_correspondant": "node/1042036842" }, "geometry": { "type": "Point", "coordinates": [ 14.3625, 4.475 ] } },
{ "type": "Feature", "properties": { "tg_type": "INF.AEROPORT", "nom": "Yagoua Airport", "source_id": "ourairports/31561", "source": "OURAIRPORTS_2026-10-04", "statut": "IMPORTE", "date_source": null, "ident": "FKKJ", "type_ourairports": "small_airport", "elevation_ft": 1070.0, "municipality": "Yagoua", "iso_region": "CM-EN", "scheduled_service": "no", "icao_code": "FKKJ", "iata_code": "GXX", "gps_code": "FKKJ", "osm_correspondant": "node/1042036843" }, "geometry": { "type": "Point", "coordinates": [ 15.2372, 10.3561 ] } },
{ "type": "Feature", "properties": { "tg_type": "INF.AEROPORT", "nom": "Salak Airport", "source_id": "ourairports/2883", "source": "OURAIRPORTS_2026-10-04", "statut": "IMPORTE", "date_source": null, "ident": "FKKL", "type_ourairports": "medium_airport", "elevation_ft": 1390.0, "municipality": "Maroua", "iso_region": "CM-EN", "scheduled_service": "yes", "icao_code": "FKKL", "iata_code": "MVR", "gps_code": "FKKL", "osm_correspondant": "way/273387961" }, "geometry": { "type": "Point", "coordinates": [ 14.2574, 10.4514 ] } },
{ "type": "Feature", "properties": { "tg_type": "INF.AEROPORT", "nom": "Foumban Nkounja Airport", "source_id": "ourairports/2884", "source": "OURAIRPORTS_2026-10-04", "statut": "IMPORTE", "date_source": null, "ident": "FKKM", "type_ourairports": "medium_airport", "elevation_ft": 3963.0, "municipality": "Foumban", "iso_region": "CM-OU", "scheduled_service": "no", "icao_code": "FKKM", "iata_code": "FOM", "gps_code": "FKKM", "osm_correspondant": "way/312631310" }, "geometry": { "type": "Point", "coordinates": [ 10.7508, 5.63692 ] } },
{ "type": "Feature", "properties": { "tg_type": "INF.AEROPORT", "nom": "N'Gaoundéré Airport", "source_id": "ourairports/2885", "source": "OURAIRPORTS_2026-10-04", "statut": "IMPORTE", "date_source": null, "ident": "FKKN", "type_ourairports": "medium_airport", "elevation_ft": 3655.0, "municipality": "N'Gaoundéré", "iso_region": "CM-AD", "scheduled_service": "yes", "icao_code": "FKKN", "iata_code": "NGE", "gps_code": "FKKN", "osm_correspondant": "way/613899263" }, "geometry": { "type": "Point", "coordinates": [ 13.5592, 7.35701 ] } },
{ "type": "Feature", "properties": { "tg_type": "INF.AEROPORT", "nom": "Bertoua Airport", "source_id": "ourairports/30797", "source": "OURAIRPORTS_2026-10-04", "statut": "IMPORTE", "date_source": null, "ident": "FKKO", "type_ourairports": "small_airport", "elevation_ft": 2133.0, "municipality": "Bertoua", "iso_region": "CM-ES", "scheduled_service": "no", "icao_code": "FKKO", "iata_code": "BTA", "gps_code": "FKKO", "osm_correspondant": "way/312620525" }, "geometry": { "type": "Point", "coordinates": [ 13.7261, 4.54861 ] } },
{ "type": "Feature", "properties": { "tg_type": "INF.AEROPORT", "nom": "Garoua International Airport", "source_id": "ourairports/2886", "source": "OURAIRPORTS_2026-10-04", "statut": "IMPORTE", "date_source": null, "ident": "FKKR", "type_ourairports": "large_airport", "elevation_ft": 794.0, "municipality": "Garoua", "iso_region": "CM-NO", "scheduled_service": "yes", "icao_code": "FKKR", "iata_code": "GOU", "gps_code": "FKKR", "osm_correspondant": "way/254696306" }, "geometry": { "type": "Point", "coordinates": [ 13.372129, 9.334785 ] } },
{ "type": "Feature", "properties": { "tg_type": "INF.AEROPORT", "nom": "Dschang Airport", "source_id": "ourairports/30947", "source": "OURAIRPORTS_2026-10-04", "statut": "IMPORTE", "date_source": null, "ident": "FKKS", "type_ourairports": "small_airport", "elevation_ft": 4593.0, "municipality": "Dschang", "iso_region": "CM-OU", "scheduled_service": "no", "icao_code": "FKKS", "iata_code": "DSC", "gps_code": "FKKS", "osm_correspondant": null }, "geometry": { "type": "Point", "coordinates": [ 10.067, 5.45 ] } },
{ "type": "Feature", "properties": { "tg_type": "INF.AEROPORT", "nom": "Tibati Airport", "source_id": "ourairports/31135", "source": "OURAIRPORTS_2026-10-04", "statut": "IMPORTE", "date_source": null, "ident": "FKKT", "type_ourairports": "small_airport", "elevation_ft": 2854.0, "municipality": "Tibati", "iso_region": "CM-AD", "scheduled_service": "no", "icao_code": null, "iata_code": null, "gps_code": "FKKT", "osm_correspondant": null }, "geometry": { "type": "Point", "coordinates": [ 12.633, 6.483 ] } },
{ "type": "Feature", "properties": { "tg_type": "INF.AEROPORT", "nom": "Bafoussam Airport", "source_id": "ourairports/2887", "source": "OURAIRPORTS_2026-10-04", "statut": "IMPORTE", "date_source": null, "ident": "FKKU", "type_ourairports": "medium_airport", "elevation_ft": 4347.0, "municipality": "Bafoussam", "iso_region": "CM-OU", "scheduled_service": "no", "icao_code": "FKKU", "iata_code": "BFX", "gps_code": "FKKU", "osm_correspondant": "way/312616734" }, "geometry": { "type": "Point", "coordinates": [ 10.3546, 5.53692 ] } },
{ "type": "Feature", "properties": { "tg_type": "INF.AEROPORT", "nom": "Bamenda Airport", "source_id": "ourairports/2888", "source": "OURAIRPORTS_2026-10-04", "statut": "IMPORTE", "date_source": null, "ident": "FKKV", "type_ourairports": "medium_airport", "elevation_ft": 4065.0, "municipality": "Bamenda", "iso_region": "CM-NW", "scheduled_service": "no", "icao_code": "FKKV", "iata_code": "BPC", "gps_code": "FKKV", "osm_correspondant": "way/254699259" }, "geometry": { "type": "Point", "coordinates": [ 10.1226, 6.03924 ] } },
{ "type": "Feature", "properties": { "tg_type": "INF.AEROPORT", "nom": "Ebolowa Airport", "source_id": "ourairports/30978", "source": "OURAIRPORTS_2026-10-04", "statut": "IMPORTE", "date_source": null, "ident": "FKKW", "type_ourairports": "small_airport", "elevation_ft": 1975.0, "municipality": "Ebolowa", "iso_region": "CM-SU", "scheduled_service": "no", "icao_code": "FKKW", "iata_code": "EBW", "gps_code": "FKKW", "osm_correspondant": null }, "geometry": { "type": "Point", "coordinates": [ 11.185, 2.876 ] } },
{ "type": "Feature", "properties": { "tg_type": "INF.AEROPORT", "nom": "Yaoundé Ville Airport", "source_id": "ourairports/2889", "source": "OURAIRPORTS_2026-10-04", "statut": "IMPORTE", "date_source": null, "ident": "FKKY", "type_ourairports": "medium_airport", "elevation_ft": 2464.0, "municipality": "Yaoundé", "iso_region": "CM-CE", "scheduled_service": "no", "icao_code": "FKKY", "iata_code": "YAO", "gps_code": "FKKY", "osm_correspondant": "way/223035940" }, "geometry": { "type": "Point", "coordinates": [ 11.5235, 3.83604 ] } },
{ "type": "Feature", "properties": { "tg_type": "INF.AEROPORT", "nom": "Yaoundé Nsimalen International Airport", "source_id": "ourairports/2890", "source": "OURAIRPORTS_2026-10-04", "statut": "IMPORTE", "date_source": null, "ident": "FKYS", "type_ourairports": "large_airport", "elevation_ft": 2278.0, "municipality": "Yaoundé", "iso_region": "CM-CE", "scheduled_service": "yes", "icao_code": "FKYS", "iata_code": "NSI", "gps_code": "FKYS", "osm_correspondant": "relation/15715843" }, "geometry": { "type": "Point", "coordinates": [ 11.5533, 3.72256 ] } }
]
}
