{
"type": "FeatureCollection",
"name": "aerodromes_osm",
"crs": { "type": "name", "properties": { "name": "urn:ogc:def:crs:OGC:1.3:CRS84" } },
"xy_coordinate_resolution": 1e-06,
"features": [
{ "type": "Feature", "properties": { "tg_type": "INF.AEROPORT", "nom": "Aéroport de Banyo", "source_id": "node/1042036808", "source": "OSM_OSMFR_2026-10-03", "statut": "IMPORTE", "date_source": "2026-10-03", "geometrie_source": "Point", "aeroway": "aerodrome", "aerodrome": null, "aerodrome_type": null, "icao": "FKAB", "iata": null, "ele": "1110", "operator": null }, "geometry": { "type": "Point", "coordinates": [ 11.807, 6.77499 ] } },
{ "type": "Feature", "properties": { "tg_type": "INF.AEROPORT", "nom": "Bétaré Oya Airport", "source_id": "node/1042036821", "source": "OSM_OSMFR_2026-10-03", "statut": "IMPORTE", "date_source": "2026-10-03", "geometrie_source": "Point", "aeroway": "aerodrome", "aerodrome": null, "aerodrome_type": null, "icao": null, "iata": null, "ele": null, "operator": null }, "geometry": { "type": "Point", "coordinates": [ 14.0983, 5.50417 ] } },
{ "type": "Feature", "properties": { "tg_type": "INF.AEROPORT", "nom": "Aéroport de Kribi", "source_id": "node/1042036823", "source": "OSM_OSMFR_2026-10-03", "statut": "IMPORTE", "date_source": "2026-10-03", "geometrie_source": "Point", "aeroway": "aerodrome", "aerodrome": null, "aerodrome_type": null, "icao": "FKKB", "iata": "KBI", "ele": "45", "operator": null }, "geometry": { "type": "Point", "coordinates": [ 9.977107, 2.874284 ] } },
{ "type": "Feature", "properties": { "tg_type": "INF.AEROPORT", "nom": "Aéroport de Mamfé", "source_id": "node/1042036836", "source": "OSM_OSMFR_2026-10-03", "statut": "IMPORTE", "date_source": "2026-10-03", "geometrie_source": "Point", "aeroway": "aerodrome", "aerodrome": null, "aerodrome_type": null, "icao": "FKKF", "iata": "MMF", "ele": "126", "operator": null }, "geometry": { "type": "Point", "coordinates": [ 9.306369, 5.704909 ] } },
{ "type": "Feature", "properties": { "tg_type": "INF.AEROPORT", "nom": "Aéroport de Kaélé", "source_id": "node/1042036839", "source": "OSM_OSMFR_2026-10-03", "statut": "IMPORTE", "date_source": "2026-10-03", "geometrie_source": "Point", "aeroway": "aerodrome", "aerodrome": null, "aerodrome_type": null, "icao": "FKKH", "iata": "KLE", "ele": "389", "operator": null }, "geometry": { "type": "Point", "coordinates": [ 14.445565, 10.092668 ] } },
{ "type": "Feature", "properties": { "tg_type": "INF.AEROPORT", "nom": "Aéroport de Batouri", "source_id": "node/1042036842", "source": "OSM_OSMFR_2026-10-03", "statut": "IMPORTE", "date_source": "2026-10-03", "geometrie_source": "Point", "aeroway": "aerodrome", "aerodrome": null, "aerodrome_type": null, "icao": "FKKI", "iata": "OUR", "ele": "656", "operator": null }, "geometry": { "type": "Point", "coordinates": [ 14.362234, 4.473897 ] } },
{ "type": "Feature", "properties": { "tg_type": "INF.AEROPORT", "nom": "Aéroport de Yagoua", "source_id": "node/1042036843", "source": "OSM_OSMFR_2026-10-03", "statut": "IMPORTE", "date_source": "2026-10-03", "geometrie_source": "Point", "aeroway": "aerodrome", "aerodrome": null, "aerodrome_type": null, "icao": "FKKJ", "iata": "GXX", "ele": "326", "operator": null }, "geometry": { "type": "Point", "coordinates": [ 15.237859, 10.356376 ] } },
{ "type": "Feature", "properties": { "tg_type": "INF.AEROPORT", "nom": "", "source_id": "node/2172282943", "source": "OSM_OSMFR_2026-10-03", "statut": "IMPORTE", "date_source": "2026-10-03", "geometrie_source": "Point", "aeroway": "aerodrome", "aerodrome": null, "aerodrome_type": null, "icao": null, "iata": null, "ele": null, "operator": null }, "geometry": { "type": "Point", "coordinates": [ 10.614624, 6.457578 ] } },
{ "type": "Feature", "properties": { "tg_type": "INF.AEROPORT", "nom": "", "source_id": "node/2343205182", "source": "OSM_OSMFR_2026-10-03", "statut": "IMPORTE", "date_source": "2026-10-03", "geometrie_source": "Point", "aeroway": "aerodrome", "aerodrome": null, "aerodrome_type": null, "icao": null, "iata": null, "ele": null, "operator": null }, "geometry": { "type": "Point", "coordinates": [ 9.519552, 6.342109 ] } },
{ "type": "Feature", "properties": { "tg_type": "INF.AEROPORT", "nom": "", "source_id": "node/3037751637", "source": "OSM_OSMFR_2026-10-03", "statut": "IMPORTE", "date_source": "2026-10-03", "geometrie_source": "Point", "aeroway": "aerodrome", "aerodrome": null, "aerodrome_type": null, "icao": null, "iata": null, "ele": null, "operator": null }, "geometry": { "type": "Point", "coordinates": [ 13.283947, 6.467994 ] } },
{ "type": "Feature", "properties": { "tg_type": "INF.AEROPORT", "nom": "Bali Airport", "source_id": "node/3184897120", "source": "OSM_OSMFR_2026-10-03", "statut": "IMPORTE", "date_source": "2026-10-03", "geometrie_source": "Point", "aeroway": "aerodrome", "aerodrome": null, "aerodrome_type": null, "icao": "FKKG", "iata": "BLC", "ele": null, "operator": null }, "geometry": { "type": "Point", "coordinates": [ 10.033967, 5.895292 ] } },
{ "type": "Feature", "properties": { "tg_type": "INF.AEROPORT", "nom": "Libongo", "source_id": "node/3225032480", "source": "OSM_OSMFR_2026-10-03", "statut": "IMPORTE", "date_source": "2026-10-03", "geometrie_source": "Point", "aeroway": "aerodrome", "aerodrome": null, "aerodrome_type": null, "icao": null, "iata": null, "ele": null, "operator": null }, "geometry": { "type": "Point", "coordinates": [ 16.037255, 2.62476 ] } },
{ "type": "Feature", "properties": { "tg_type": "INF.AEROPORT", "nom": "Kika", "source_id": "node/4785750117", "source": "OSM_OSMFR_2026-10-03", "statut": "IMPORTE", "date_source": "2026-10-03", "geometrie_source": "Point", "aeroway": "aerodrome", "aerodrome": null, "aerodrome_type": null, "icao": null, "iata": null, "ele": null, "operator": null }, "geometry": { "type": "Point", "coordinates": [ 15.632706, 1.944198 ] } },
{ "type": "Feature", "properties": { "tg_type": "INF.AEROPORT", "nom": "Base Aérienne 101 de Yaoundé", "source_id": "way/223035940", "source": "OSM_OSMFR_2026-10-03", "statut": "IMPORTE", "date_source": "2026-10-03", "geometrie_source": "Polygon", "aeroway": "aerodrome", "aerodrome": null, "aerodrome_type": "public/military", "icao": "FKKY", "iata": "YAO", "ele": "751", "operator": "Cameroon Air Force" }, "geometry": { "type": "Point", "coordinates": [ 11.521791, 3.836096 ] } },
{ "type": "Feature", "properties": { "tg_type": "INF.AEROPORT", "nom": "", "source_id": "way/227928656", "source": "OSM_OSMFR_2026-10-03", "statut": "IMPORTE", "date_source": "2026-10-03", "geometrie_source": "Polygon", "aeroway": "aerodrome", "aerodrome": null, "aerodrome_type": null, "icao": null, "iata": null, "ele": null, "operator": null }, "geometry": { "type": "Point", "coordinates": [ 10.627956, 5.636841 ] } },
{ "type": "Feature", "properties": { "tg_type": "INF.AEROPORT", "nom": "Aéroport International de Garoua", "source_id": "way/254696306", "source": "OSM_OSMFR_2026-10-03", "statut": "IMPORTE", "date_source": "2026-10-03", "geometrie_source": "Polygon", "aeroway": "aerodrome", "aerodrome": null, "aerodrome_type": "international", "icao": "FKKR", "iata": "GOU", "ele": "242", "operator": null }, "geometry": { "type": "Point", "coordinates": [ 13.377202, 9.337222 ] } },
{ "type": "Feature", "properties": { "tg_type": "INF.AEROPORT", "nom": "Bamenda Airport", "source_id": "way/254699259", "source": "OSM_OSMFR_2026-10-03", "statut": "IMPORTE", "date_source": "2026-10-03", "geometrie_source": "Polygon", "aeroway": "aerodrome", "aerodrome": null, "aerodrome_type": null, "icao": "FKKV", "iata": "BPC", "ele": "1239", "operator": null }, "geometry": { "type": "Point", "coordinates": [ 10.122593, 6.039177 ] } },
{ "type": "Feature", "properties": { "tg_type": "INF.AEROPORT", "nom": "Aéroport International de Maroua Salak", "source_id": "way/273387961", "source": "OSM_OSMFR_2026-10-03", "statut": "IMPORTE", "date_source": "2026-10-03", "geometrie_source": "Polygon", "aeroway": "aerodrome", "aerodrome": null, "aerodrome_type": "military/public", "icao": "FKKL", "iata": "MVR", "ele": "425", "operator": null }, "geometry": { "type": "Point", "coordinates": [ 14.258238, 10.451397 ] } },
{ "type": "Feature", "properties": { "tg_type": "INF.AEROPORT", "nom": "Aéroport international de Douala", "source_id": "way/274896463", "source": "OSM_OSMFR_2026-10-03", "statut": "IMPORTE", "date_source": "2026-10-03", "geometrie_source": "Polygon", "aeroway": "aerodrome", "aerodrome": null, "aerodrome_type": "international", "icao": "FKKD", "iata": "DLA", "ele": "10", "operator": "Aéroports du Cameroun" }, "geometry": { "type": "Point", "coordinates": [ 9.716149, 4.012955 ] } },
{ "type": "Feature", "properties": { "tg_type": "INF.AEROPORT", "nom": "Aéroport de Bélabo", "source_id": "way/312485529", "source": "OSM_OSMFR_2026-10-03", "statut": "IMPORTE", "date_source": "2026-10-03", "geometrie_source": "Polygon", "aeroway": "aerodrome", "aerodrome": null, "aerodrome_type": null, "icao": null, "iata": null, "ele": null, "operator": "COTCO" }, "geometry": { "type": "Point", "coordinates": [ 13.277056, 4.90762 ] } },
{ "type": "Feature", "properties": { "tg_type": "INF.AEROPORT", "nom": "Aéroport de Bafoussam", "source_id": "way/312616734", "source": "OSM_OSMFR_2026-10-03", "statut": "IMPORTE", "date_source": "2026-10-03", "geometrie_source": "Polygon", "aeroway": "aerodrome", "aerodrome": null, "aerodrome_type": null, "icao": "FKKU", "iata": "BFX", "ele": "1325", "operator": "Civil Government" }, "geometry": { "type": "Point", "coordinates": [ 10.354064, 5.53778 ] } },
{ "type": "Feature", "properties": { "tg_type": "INF.AEROPORT", "nom": "Aéroport de Bertoua", "source_id": "way/312620525", "source": "OSM_OSMFR_2026-10-03", "statut": "IMPORTE", "date_source": "2026-10-03", "geometrie_source": "Polygon", "aeroway": "aerodrome", "aerodrome": null, "aerodrome_type": null, "icao": "FKKO", "iata": "BTA", "ele": null, "operator": null }, "geometry": { "type": "Point", "coordinates": [ 13.725936, 4.549698 ] } },
{ "type": "Feature", "properties": { "tg_type": "INF.AEROPORT", "nom": "Aéroport de Foumban Nkounja (Koutaba)", "source_id": "way/312631310", "source": "OSM_OSMFR_2026-10-03", "statut": "IMPORTE", "date_source": "2026-10-03", "geometrie_source": "Polygon", "aeroway": "aerodrome", "aerodrome": null, "aerodrome_type": null, "icao": "FKKM", "iata": "FOM", "ele": null, "operator": null }, "geometry": { "type": "Point", "coordinates": [ 10.751243, 5.637523 ] } },
{ "type": "Feature", "properties": { "tg_type": "INF.AEROPORT", "nom": "Tiko Airport", "source_id": "way/312639841", "source": "OSM_OSMFR_2026-10-03", "statut": "IMPORTE", "date_source": "2026-10-03", "geometrie_source": "Polygon", "aeroway": "aerodrome", "aerodrome": null, "aerodrome_type": null, "icao": "FKKC", "iata": "TKC", "ele": "46", "operator": "Civil" }, "geometry": { "type": "Point", "coordinates": [ 9.360406, 4.090042 ] } },
{ "type": "Feature", "properties": { "tg_type": "INF.AEROPORT", "nom": "", "source_id": "way/315023044", "source": "OSM_OSMFR_2026-10-03", "statut": "IMPORTE", "date_source": "2026-10-03", "geometrie_source": "Polygon", "aeroway": "aerodrome", "aerodrome": null, "aerodrome_type": null, "icao": null, "iata": null, "ele": null, "operator": null }, "geometry": { "type": "Point", "coordinates": [ 14.982289, 3.788183 ] } },
{ "type": "Feature", "properties": { "tg_type": "INF.AEROPORT", "nom": "Aéroport de Ngaoundéré", "source_id": "way/613899263", "source": "OSM_OSMFR_2026-10-03", "statut": "IMPORTE", "date_source": "2026-10-03", "geometrie_source": "Polygon", "aeroway": "aerodrome", "aerodrome": null, "aerodrome_type": null, "icao": "FKKN", "iata": "NGE", "ele": "1114", "operator": null }, "geometry": { "type": "Point", "coordinates": [ 13.558886, 7.35617 ] } },
{ "type": "Feature", "properties": { "tg_type": "INF.AEROPORT", "nom": "Mvomeka'a", "source_id": "way/1083232211", "source": "OSM_OSMFR_2026-10-03", "statut": "IMPORTE", "date_source": "2026-10-03", "geometrie_source": "Polygon", "aeroway": "aerodrome", "aerodrome": null, "aerodrome_type": null, "icao": null, "iata": null, "ele": null, "operator": null }, "geometry": { "type": "Point", "coordinates": [ 12.286963, 3.116914 ] } },
{ "type": "Feature", "properties": { "tg_type": "INF.AEROPORT", "nom": "Aéroport International de Yaoundé-Nsimalen", "source_id": "relation/15715843", "source": "OSM_OSMFR_2026-10-03", "statut": "IMPORTE", "date_source": "2026-10-03", "geometrie_source": "MultiPolygon", "aeroway": "aerodrome", "aerodrome": null, "aerodrome_type": "international", "icao": "FKYS", "iata": "NSI", "ele": "694", "operator": "Aéroports du Cameroun SA (ADC)" }, "geometry": { "type": "Point", "coordinates": [ 11.552144, 3.725011 ] } },
{ "type": "Feature", "properties": { "tg_type": "INF.AEROPORT", "nom": "Aérodrome de Dompta", "source_id": "way/1110812582", "source": "OSM_OSMFR_2026-10-03", "statut": "IMPORTE", "date_source": "2026-10-03", "geometrie_source": "Polygon", "aeroway": "aerodrome", "aerodrome": null, "aerodrome_type": "airfield", "icao": null, "iata": null, "ele": null, "operator": "COTCO" }, "geometry": { "type": "Point", "coordinates": [ 15.113345, 7.264629 ] } },
{ "type": "Feature", "properties": { "tg_type": "INF.AEROPORT", "nom": "African Union Base", "source_id": "way/1188136799", "source": "OSM_OSMFR_2026-10-03", "statut": "IMPORTE", "date_source": "2026-10-03", "geometrie_source": "Polygon", "aeroway": "aerodrome", "aerodrome": null, "aerodrome_type": null, "icao": null, "iata": null, "ele": null, "operator": null }, "geometry": { "type": "Point", "coordinates": [ 9.713648, 4.02182 ] } }
]
}
