{
"type": "FeatureCollection",
"name": "barrages",
"crs": { "type": "name", "properties": { "name": "urn:ogc:def:crs:OGC:1.3:CRS84" } },
"xy_coordinate_resolution": 1e-06,
"features": [
{ "type": "Feature", "properties": { "tg_type": "INF.EAU.BARRAGE", "nom": "barrage 3", "source_id": "node/3933838791", "source": "OSM_OSMFR_2026-10-03", "statut": "IMPORTE", "date_source": "2026-10-03", "geometrie_source": "Point", "waterway": "dam", "operator": null, "height": null, "start_date": null }, "geometry": { "type": "Point", "coordinates": [ 14.420728, 10.097419 ] } },
{ "type": "Feature", "properties": { "tg_type": "INF.EAU.BARRAGE", "nom": "Intake weir", "source_id": "node/4172071833", "source": "OSM_OSMFR_2026-10-03", "statut": "IMPORTE", "date_source": "2026-10-03", "geometrie_source": "Point", "waterway": "dam", "operator": null, "height": null, "start_date": null }, "geometry": { "type": "Point", "coordinates": [ 9.597664, 5.975262 ] } },
{ "type": "Feature", "properties": { "tg_type": "INF.EAU.BARRAGE", "nom": "Intake weir", "source_id": "node/4213728442", "source": "OSM_OSMFR_2026-10-03", "statut": "IMPORTE", "date_source": "2026-10-03", "geometrie_source": "Point", "waterway": "dam", "operator": null, "height": null, "start_date": null }, "geometry": { "type": "Point", "coordinates": [ 9.606309, 5.871818 ] } },
{ "type": "Feature", "properties": { "tg_type": "INF.EAU.BARRAGE", "nom": "Intake weir", "source_id": "node/4284129060", "source": "OSM_OSMFR_2026-10-03", "statut": "IMPORTE", "date_source": "2026-10-03", "geometrie_source": "Point", "waterway": "dam", "operator": null, "height": null, "start_date": null }, "geometry": { "type": "Point", "coordinates": [ 9.584407, 5.832303 ] } },
{ "type": "Feature", "properties": { "tg_type": "INF.EAU.BARRAGE", "nom": "Intake weir", "source_id": "node/4298691373", "source": "OSM_OSMFR_2026-10-03", "statut": "IMPORTE", "date_source": "2026-10-03", "geometrie_source": "Point", "waterway": "dam", "operator": null, "height": null, "start_date": null }, "geometry": { "type": "Point", "coordinates": [ 9.563864, 5.884916 ] } },
{ "type": "Feature", "properties": { "tg_type": "INF.EAU.BARRAGE", "nom": "Intake weir", "source_id": "node/4298742897", "source": "OSM_OSMFR_2026-10-03", "statut": "IMPORTE", "date_source": "2026-10-03", "geometrie_source": "Point", "waterway": "dam", "operator": null, "height": null, "start_date": null }, "geometry": { "type": "Point", "coordinates": [ 9.61635, 5.928626 ] } },
{ "type": "Feature", "properties": { "tg_type": "INF.EAU.BARRAGE", "nom": "barrage retenue4", "source_id": "node/4301800110", "source": "OSM_OSMFR_2026-10-03", "statut": "IMPORTE", "date_source": "2026-10-03", "geometrie_source": "Point", "waterway": "dam", "operator": null, "height": null, "start_date": null }, "geometry": { "type": "Point", "coordinates": [ 14.422279, 10.105317 ] } },
{ "type": "Feature", "properties": { "tg_type": "INF.EAU.BARRAGE", "nom": "barrage 1", "source_id": "node/4302429945", "source": "OSM_OSMFR_2026-10-03", "statut": "IMPORTE", "date_source": "2026-10-03", "geometrie_source": "Point", "waterway": "dam", "operator": null, "height": null, "start_date": null }, "geometry": { "type": "Point", "coordinates": [ 14.526705, 10.147145 ] } },
{ "type": "Feature", "properties": { "tg_type": "INF.EAU.BARRAGE", "nom": "barrage 2", "source_id": "node/4302429946", "source": "OSM_OSMFR_2026-10-03", "statut": "IMPORTE", "date_source": "2026-10-03", "geometrie_source": "Point", "waterway": "dam", "operator": null, "height": null, "start_date": null }, "geometry": { "type": "Point", "coordinates": [ 14.422978, 10.114432 ] } },
{ "type": "Feature", "properties": { "tg_type": "INF.EAU.BARRAGE", "nom": "barrage 5", "source_id": "node/4302435291", "source": "OSM_OSMFR_2026-10-03", "statut": "IMPORTE", "date_source": "2026-10-03", "geometrie_source": "Point", "waterway": "dam", "operator": null, "height": null, "start_date": null }, "geometry": { "type": "Point", "coordinates": [ 14.44081, 10.063499 ] } },
{ "type": "Feature", "properties": { "tg_type": "INF.EAU.BARRAGE", "nom": "barrage 6", "source_id": "node/4302451031", "source": "OSM_OSMFR_2026-10-03", "statut": "IMPORTE", "date_source": "2026-10-03", "geometrie_source": "Point", "waterway": "dam", "operator": null, "height": null, "start_date": null }, "geometry": { "type": "Point", "coordinates": [ 14.47169, 10.041331 ] } },
{ "type": "Feature", "properties": { "tg_type": "INF.EAU.BARRAGE", "nom": "barrage 6", "source_id": "node/4302720380", "source": "OSM_OSMFR_2026-10-03", "statut": "IMPORTE", "date_source": "2026-10-03", "geometrie_source": "Point", "waterway": "dam", "operator": null, "height": null, "start_date": null }, "geometry": { "type": "Point", "coordinates": [ 14.411126, 10.122519 ] } },
{ "type": "Feature", "properties": { "tg_type": "INF.EAU.BARRAGE", "nom": "Intake weir", "source_id": "node/4316063832", "source": "OSM_OSMFR_2026-10-03", "statut": "IMPORTE", "date_source": "2026-10-03", "geometrie_source": "Point", "waterway": "dam", "operator": null, "height": null, "start_date": null }, "geometry": { "type": "Point", "coordinates": [ 9.608132, 5.94694 ] } },
{ "type": "Feature", "properties": { "tg_type": "INF.EAU.BARRAGE", "nom": "Intake weir", "source_id": "node/4316188764", "source": "OSM_OSMFR_2026-10-03", "statut": "IMPORTE", "date_source": "2026-10-03", "geometrie_source": "Point", "waterway": "dam", "operator": null, "height": null, "start_date": null }, "geometry": { "type": "Point", "coordinates": [ 9.618897, 5.871909 ] } },
{ "type": "Feature", "properties": { "tg_type": "INF.EAU.BARRAGE", "nom": "Intake weir", "source_id": "node/4316207059", "source": "OSM_OSMFR_2026-10-03", "statut": "IMPORTE", "date_source": "2026-10-03", "geometrie_source": "Point", "waterway": "dam", "operator": null, "height": null, "start_date": null }, "geometry": { "type": "Point", "coordinates": [ 9.64516, 5.844853 ] } },
{ "type": "Feature", "properties": { "tg_type": "INF.EAU.BARRAGE", "nom": "Intake weir", "source_id": "node/4316213282", "source": "OSM_OSMFR_2026-10-03", "statut": "IMPORTE", "date_source": "2026-10-03", "geometrie_source": "Point", "waterway": "dam", "operator": null, "height": null, "start_date": null }, "geometry": { "type": "Point", "coordinates": [ 9.654222, 5.83486 ] } },
{ "type": "Feature", "properties": { "tg_type": "INF.EAU.BARRAGE", "nom": "Intake weir", "source_id": "node/4316217807", "source": "OSM_OSMFR_2026-10-03", "statut": "IMPORTE", "date_source": "2026-10-03", "geometrie_source": "Point", "waterway": "dam", "operator": null, "height": null, "start_date": null }, "geometry": { "type": "Point", "coordinates": [ 9.671957, 5.841425 ] } },
{ "type": "Feature", "properties": { "tg_type": "INF.EAU.BARRAGE", "nom": "Intake weir", "source_id": "node/4316226615", "source": "OSM_OSMFR_2026-10-03", "statut": "IMPORTE", "date_source": "2026-10-03", "geometrie_source": "Point", "waterway": "dam", "operator": null, "height": null, "start_date": null }, "geometry": { "type": "Point", "coordinates": [ 9.722554, 5.837072 ] } },
{ "type": "Feature", "properties": { "tg_type": "INF.EAU.BARRAGE", "nom": "Intake weir", "source_id": "node/4326047249", "source": "OSM_OSMFR_2026-10-03", "statut": "IMPORTE", "date_source": "2026-10-03", "geometrie_source": "Point", "waterway": "dam", "operator": null, "height": null, "start_date": null }, "geometry": { "type": "Point", "coordinates": [ 9.704282, 5.800123 ] } },
{ "type": "Feature", "properties": { "tg_type": "INF.EAU.BARRAGE", "nom": "Intake weir", "source_id": "node/4326047250", "source": "OSM_OSMFR_2026-10-03", "statut": "IMPORTE", "date_source": "2026-10-03", "geometrie_source": "Point", "waterway": "dam", "operator": null, "height": null, "start_date": null }, "geometry": { "type": "Point", "coordinates": [ 9.713989, 5.819866 ] } },
{ "type": "Feature", "properties": { "tg_type": "INF.EAU.BARRAGE", "nom": "Pong", "source_id": "node/4442370298", "source": "OSM_OSMFR_2026-10-03", "statut": "IMPORTE", "date_source": "2026-10-03", "geometrie_source": "Point", "waterway": "dam", "operator": null, "height": null, "start_date": null }, "geometry": { "type": "Point", "coordinates": [ 9.665053, 4.075238 ] } },
{ "type": "Feature", "properties": { "tg_type": "INF.EAU.BARRAGE", "nom": "Pong de Bonamatoumbe", "source_id": "node/4443408483", "source": "OSM_OSMFR_2026-10-03", "statut": "IMPORTE", "date_source": "2026-10-03", "geometrie_source": "Point", "waterway": "dam", "operator": null, "height": null, "start_date": null }, "geometry": { "type": "Point", "coordinates": [ 9.666004, 4.092525 ] } },
{ "type": "Feature", "properties": { "tg_type": "INF.EAU.BARRAGE", "nom": "Barrage de la Méfou", "source_id": "way/220116403", "source": "OSM_OSMFR_2026-10-03", "statut": "IMPORTE", "date_source": "2026-10-03", "geometrie_source": "Polygon", "waterway": "dam", "operator": null, "height": null, "start_date": null }, "geometry": { "type": "Point", "coordinates": [ 11.428847, 3.880585 ] } },
{ "type": "Feature", "properties": { "tg_type": "INF.EAU.BARRAGE", "nom": "Barrage de Lagdo", "source_id": "way/255606476", "source": "OSM_OSMFR_2026-10-03", "statut": "IMPORTE", "date_source": "2026-10-03", "geometrie_source": "Polygon", "waterway": "dam", "operator": null, "height": null, "start_date": null }, "geometry": { "type": "Point", "coordinates": [ 13.68954, 9.060282 ] } },
{ "type": "Feature", "properties": { "tg_type": "INF.EAU.BARRAGE", "nom": "", "source_id": "way/255606495", "source": "OSM_OSMFR_2026-10-03", "statut": "IMPORTE", "date_source": "2026-10-03", "geometrie_source": "Polygon", "waterway": "dam", "operator": null, "height": null, "start_date": null }, "geometry": { "type": "Point", "coordinates": [ 13.709642, 9.05668 ] } },
{ "type": "Feature", "properties": { "tg_type": "INF.EAU.BARRAGE", "nom": "", "source_id": "way/255709330", "source": "OSM_OSMFR_2026-10-03", "statut": "IMPORTE", "date_source": "2026-10-03", "geometrie_source": "LineString", "waterway": "dam", "operator": null, "height": null, "start_date": null }, "geometry": { "type": "Point", "coordinates": [ 13.65387, 9.0487 ] } },
{ "type": "Feature", "properties": { "tg_type": "INF.EAU.BARRAGE", "nom": "Barrage de Song Loulou", "source_id": "way/320679326", "source": "OSM_OSMFR_2026-10-03", "statut": "IMPORTE", "date_source": "2026-10-03", "geometrie_source": "Polygon", "waterway": "dam", "operator": null, "height": null, "start_date": null }, "geometry": { "type": "Point", "coordinates": [ 10.464648, 4.077911 ] } },
{ "type": "Feature", "properties": { "tg_type": "INF.EAU.BARRAGE", "nom": "", "source_id": "way/323039051", "source": "OSM_OSMFR_2026-10-03", "statut": "IMPORTE", "date_source": "2026-10-03", "geometrie_source": "LineString", "waterway": "dam", "operator": null, "height": null, "start_date": null }, "geometry": { "type": "Point", "coordinates": [ 10.135736, 5.921815 ] } },
{ "type": "Feature", "properties": { "tg_type": "INF.EAU.BARRAGE", "nom": "", "source_id": "way/327160548", "source": "OSM_OSMFR_2026-10-03", "statut": "IMPORTE", "date_source": "2026-10-03", "geometrie_source": "LineString", "waterway": "dam", "operator": null, "height": null, "start_date": null }, "geometry": { "type": "Point", "coordinates": [ 13.507249, 7.100486 ] } },
{ "type": "Feature", "properties": { "tg_type": "INF.EAU.BARRAGE", "nom": "", "source_id": "way/327161843", "source": "OSM_OSMFR_2026-10-03", "statut": "IMPORTE", "date_source": "2026-10-03", "geometrie_source": "LineString", "waterway": "dam", "operator": null, "height": null, "start_date": null }, "geometry": { "type": "Point", "coordinates": [ 13.602822, 7.175165 ] } },
{ "type": "Feature", "properties": { "tg_type": "INF.EAU.BARRAGE", "nom": "", "source_id": "way/327164983", "source": "OSM_OSMFR_2026-10-03", "statut": "IMPORTE", "date_source": "2026-10-03", "geometrie_source": "LineString", "waterway": "dam", "operator": null, "height": null, "start_date": null }, "geometry": { "type": "Point", "coordinates": [ 13.596656, 7.099861 ] } },
{ "type": "Feature", "properties": { "tg_type": "INF.EAU.BARRAGE", "nom": "", "source_id": "way/327329517", "source": "OSM_OSMFR_2026-10-03", "statut": "IMPORTE", "date_source": "2026-10-03", "geometrie_source": "LineString", "waterway": "dam", "operator": null, "height": null, "start_date": null }, "geometry": { "type": "Point", "coordinates": [ 13.388576, 7.02969 ] } },
{ "type": "Feature", "properties": { "tg_type": "INF.EAU.BARRAGE", "nom": "", "source_id": "way/327333021", "source": "OSM_OSMFR_2026-10-03", "statut": "IMPORTE", "date_source": "2026-10-03", "geometrie_source": "LineString", "waterway": "dam", "operator": null, "height": null, "start_date": null }, "geometry": { "type": "Point", "coordinates": [ 13.403913, 7.044833 ] } },
{ "type": "Feature", "properties": { "tg_type": "INF.EAU.BARRAGE", "nom": "", "source_id": "way/329870712", "source": "OSM_OSMFR_2026-10-03", "statut": "IMPORTE", "date_source": "2026-10-03", "geometrie_source": "LineString", "waterway": "dam", "operator": null, "height": null, "start_date": null }, "geometry": { "type": "Point", "coordinates": [ 12.76167, 6.371721 ] } },
{ "type": "Feature", "properties": { "tg_type": "INF.EAU.BARRAGE", "nom": "Barrage de Lom Pangar", "source_id": "way/358205328", "source": "OSM_OSMFR_2026-10-03", "statut": "IMPORTE", "date_source": "2026-10-03", "geometrie_source": "Polygon", "waterway": "dam", "operator": null, "height": null, "start_date": null }, "geometry": { "type": "Point", "coordinates": [ 13.50177, 5.381867 ] } },
{ "type": "Feature", "properties": { "tg_type": "INF.EAU.BARRAGE", "nom": "Barrage hydroélectrique d'Édéa", "source_id": "way/477145794", "source": "OSM_OSMFR_2026-10-03", "statut": "IMPORTE", "date_source": "2026-10-03", "geometrie_source": "Polygon", "waterway": "dam", "operator": null, "height": null, "start_date": null }, "geometry": { "type": "Point", "coordinates": [ 10.127679, 3.813296 ] } },
{ "type": "Feature", "properties": { "tg_type": "INF.EAU.BARRAGE", "nom": "Mape", "source_id": "way/506144352", "source": "OSM_OSMFR_2026-10-03", "statut": "IMPORTE", "date_source": "2026-10-03", "geometrie_source": "Polygon", "waterway": "dam", "operator": null, "height": "34.0", "start_date": null }, "geometry": { "type": "Point", "coordinates": [ 11.301794, 6.037537 ] } },
{ "type": "Feature", "properties": { "tg_type": "INF.EAU.BARRAGE", "nom": "Barrage de Bamendjing", "source_id": "way/506144353", "source": "OSM_OSMFR_2026-10-03", "statut": "IMPORTE", "date_source": "2026-10-03", "geometrie_source": "Polygon", "waterway": "dam", "operator": null, "height": "17.0", "start_date": null }, "geometry": { "type": "Point", "coordinates": [ 10.501772, 5.699266 ] } },
{ "type": "Feature", "properties": { "tg_type": "INF.EAU.BARRAGE", "nom": "Mbakaou Dam", "source_id": "way/506144354", "source": "OSM_OSMFR_2026-10-03", "statut": "IMPORTE", "date_source": "2026-10-03", "geometrie_source": "Polygon", "waterway": "dam", "operator": null, "height": "30.0", "start_date": null }, "geometry": { "type": "Point", "coordinates": [ 12.80844, 6.304887 ] } },
{ "type": "Feature", "properties": { "tg_type": "INF.EAU.BARRAGE", "nom": "", "source_id": "way/540204359", "source": "OSM_OSMFR_2026-10-03", "statut": "IMPORTE", "date_source": "2026-10-03", "geometrie_source": "LineString", "waterway": "dam", "operator": null, "height": null, "start_date": null }, "geometry": { "type": "Point", "coordinates": [ 14.814594, 10.382432 ] } },
{ "type": "Feature", "properties": { "tg_type": "INF.EAU.BARRAGE", "nom": "", "source_id": "way/540204363", "source": "OSM_OSMFR_2026-10-03", "statut": "IMPORTE", "date_source": "2026-10-03", "geometrie_source": "LineString", "waterway": "dam", "operator": null, "height": null, "start_date": null }, "geometry": { "type": "Point", "coordinates": [ 14.799202, 10.356869 ] } },
{ "type": "Feature", "properties": { "tg_type": "INF.EAU.BARRAGE", "nom": "", "source_id": "way/577791228", "source": "OSM_OSMFR_2026-10-03", "statut": "IMPORTE", "date_source": "2026-10-03", "geometrie_source": "Polygon", "waterway": "dam", "operator": null, "height": null, "start_date": null }, "geometry": { "type": "Point", "coordinates": [ 13.958928, 10.761223 ] } },
{ "type": "Feature", "properties": { "tg_type": "INF.EAU.BARRAGE", "nom": "", "source_id": "way/582365245", "source": "OSM_OSMFR_2026-10-03", "statut": "IMPORTE", "date_source": "2026-10-03", "geometrie_source": "Polygon", "waterway": "dam", "operator": null, "height": null, "start_date": null }, "geometry": { "type": "Point", "coordinates": [ 14.082362, 10.900499 ] } },
{ "type": "Feature", "properties": { "tg_type": "INF.EAU.BARRAGE", "nom": "", "source_id": "way/588429300", "source": "OSM_OSMFR_2026-10-03", "statut": "IMPORTE", "date_source": "2026-10-03", "geometrie_source": "Polygon", "waterway": "dam", "operator": null, "height": null, "start_date": null }, "geometry": { "type": "Point", "coordinates": [ 14.098483, 10.998576 ] } },
{ "type": "Feature", "properties": { "tg_type": "INF.EAU.BARRAGE", "nom": "", "source_id": "way/588429301", "source": "OSM_OSMFR_2026-10-03", "statut": "IMPORTE", "date_source": "2026-10-03", "geometrie_source": "LineString", "waterway": "dam", "operator": null, "height": null, "start_date": null }, "geometry": { "type": "Point", "coordinates": [ 14.098197, 11.00252 ] } },
{ "type": "Feature", "properties": { "tg_type": "INF.EAU.BARRAGE", "nom": "", "source_id": "way/588455333", "source": "OSM_OSMFR_2026-10-03", "statut": "IMPORTE", "date_source": "2026-10-03", "geometrie_source": "LineString", "waterway": "dam", "operator": null, "height": null, "start_date": null }, "geometry": { "type": "Point", "coordinates": [ 14.07074, 10.975309 ] } },
{ "type": "Feature", "properties": { "tg_type": "INF.EAU.BARRAGE", "nom": "", "source_id": "way/601090818", "source": "OSM_OSMFR_2026-10-03", "statut": "IMPORTE", "date_source": "2026-10-03", "geometrie_source": "Polygon", "waterway": "dam", "operator": null, "height": null, "start_date": null }, "geometry": { "type": "Point", "coordinates": [ 10.132962, 3.819072 ] } },
{ "type": "Feature", "properties": { "tg_type": "INF.EAU.BARRAGE", "nom": "", "source_id": "way/737862311", "source": "OSM_OSMFR_2026-10-03", "statut": "IMPORTE", "date_source": "2026-10-03", "geometrie_source": "Polygon", "waterway": "dam", "operator": null, "height": null, "start_date": null }, "geometry": { "type": "Point", "coordinates": [ 13.874867, 10.807737 ] } },
{ "type": "Feature", "properties": { "tg_type": "INF.EAU.BARRAGE", "nom": "", "source_id": "way/741910533", "source": "OSM_OSMFR_2026-10-03", "statut": "IMPORTE", "date_source": "2026-10-03", "geometrie_source": "Polygon", "waterway": "dam", "operator": null, "height": null, "start_date": null }, "geometry": { "type": "Point", "coordinates": [ 14.101634, 10.671029 ] } },
{ "type": "Feature", "properties": { "tg_type": "INF.EAU.BARRAGE", "nom": "", "source_id": "way/742422514", "source": "OSM_OSMFR_2026-10-03", "statut": "IMPORTE", "date_source": "2026-10-03", "geometrie_source": "LineString", "waterway": "dam", "operator": null, "height": null, "start_date": null }, "geometry": { "type": "Point", "coordinates": [ 13.873819, 10.842057 ] } },
{ "type": "Feature", "properties": { "tg_type": "INF.EAU.BARRAGE", "nom": "", "source_id": "way/759608844", "source": "OSM_OSMFR_2026-10-03", "statut": "IMPORTE", "date_source": "2026-10-03", "geometrie_source": "LineString", "waterway": "dam", "operator": null, "height": null, "start_date": null }, "geometry": { "type": "Point", "coordinates": [ 15.062517, 10.839411 ] } },
{ "type": "Feature", "properties": { "tg_type": "INF.EAU.BARRAGE", "nom": "", "source_id": "way/759619447", "source": "OSM_OSMFR_2026-10-03", "statut": "IMPORTE", "date_source": "2026-10-03", "geometrie_source": "LineString", "waterway": "dam", "operator": null, "height": null, "start_date": null }, "geometry": { "type": "Point", "coordinates": [ 15.002896, 10.829238 ] } },
{ "type": "Feature", "properties": { "tg_type": "INF.EAU.BARRAGE", "nom": "", "source_id": "way/759828414", "source": "OSM_OSMFR_2026-10-03", "statut": "IMPORTE", "date_source": "2026-10-03", "geometrie_source": "LineString", "waterway": "dam", "operator": null, "height": null, "start_date": null }, "geometry": { "type": "Point", "coordinates": [ 14.958068, 10.832935 ] } },
{ "type": "Feature", "properties": { "tg_type": "INF.EAU.BARRAGE", "nom": "Barrage de Lom Pangar", "source_id": "way/790462607", "source": "OSM_OSMFR_2026-10-03", "statut": "IMPORTE", "date_source": "2026-10-03", "geometrie_source": "Polygon", "waterway": "dam", "operator": null, "height": null, "start_date": null }, "geometry": { "type": "Point", "coordinates": [ 13.511104, 5.389136 ] } },
{ "type": "Feature", "properties": { "tg_type": "INF.EAU.BARRAGE", "nom": "", "source_id": "way/818555773", "source": "OSM_OSMFR_2026-10-03", "statut": "IMPORTE", "date_source": "2026-10-03", "geometrie_source": "Polygon", "waterway": "dam", "operator": null, "height": null, "start_date": null }, "geometry": { "type": "Point", "coordinates": [ 10.050607, 4.08144 ] } },
{ "type": "Feature", "properties": { "tg_type": "INF.EAU.BARRAGE", "nom": "", "source_id": "relation/11498149", "source": "OSM_OSMFR_2026-10-03", "statut": "IMPORTE", "date_source": "2026-10-03", "geometrie_source": "MultiPolygon", "waterway": "dam", "operator": null, "height": null, "start_date": null }, "geometry": { "type": "Point", "coordinates": [ 10.379762, 2.396084 ] } },
{ "type": "Feature", "properties": { "tg_type": "INF.EAU.BARRAGE", "nom": "Barrage hydroélectrique de Memve'ele", "source_id": "relation/11499595", "source": "OSM_OSMFR_2026-10-03", "statut": "IMPORTE", "date_source": "2026-10-03", "geometrie_source": "MultiPolygon", "waterway": "dam", "operator": null, "height": null, "start_date": null }, "geometry": { "type": "Point", "coordinates": [ 10.379745, 2.403051 ] } },
{ "type": "Feature", "properties": { "tg_type": "INF.EAU.BARRAGE", "nom": "", "source_id": "way/867292070", "source": "OSM_OSMFR_2026-10-03", "statut": "IMPORTE", "date_source": "2026-10-03", "geometrie_source": "Polygon", "waterway": "dam", "operator": null, "height": null, "start_date": null }, "geometry": { "type": "Point", "coordinates": [ 10.351549, 2.376698 ] } },
{ "type": "Feature", "properties": { "tg_type": "INF.EAU.BARRAGE", "nom": "", "source_id": "way/944841136", "source": "OSM_OSMFR_2026-10-03", "statut": "IMPORTE", "date_source": "2026-10-03", "geometrie_source": "Polygon", "waterway": "dam", "operator": null, "height": null, "start_date": null }, "geometry": { "type": "Point", "coordinates": [ 11.7371, 4.40678 ] } },
{ "type": "Feature", "properties": { "tg_type": "INF.EAU.BARRAGE", "nom": "", "source_id": "way/986724163", "source": "OSM_OSMFR_2026-10-03", "statut": "IMPORTE", "date_source": "2026-10-03", "geometrie_source": "LineString", "waterway": "dam", "operator": null, "height": null, "start_date": null }, "geometry": { "type": "Point", "coordinates": [ 13.542752, 9.334701 ] } },
{ "type": "Feature", "properties": { "tg_type": "INF.EAU.BARRAGE", "nom": "", "source_id": "way/1001802848", "source": "OSM_OSMFR_2026-10-03", "statut": "IMPORTE", "date_source": "2026-10-03", "geometrie_source": "LineString", "waterway": "dam", "operator": null, "height": null, "start_date": null }, "geometry": { "type": "Point", "coordinates": [ 13.796017, 10.786278 ] } },
{ "type": "Feature", "properties": { "tg_type": "INF.EAU.BARRAGE", "nom": "", "source_id": "way/1001802854", "source": "OSM_OSMFR_2026-10-03", "statut": "IMPORTE", "date_source": "2026-10-03", "geometrie_source": "LineString", "waterway": "dam", "operator": null, "height": null, "start_date": null }, "geometry": { "type": "Point", "coordinates": [ 14.13146, 10.781941 ] } },
{ "type": "Feature", "properties": { "tg_type": "INF.EAU.BARRAGE", "nom": "Barrage hydroélectrique de Mékin", "source_id": "relation/12590036", "source": "OSM_OSMFR_2026-10-03", "statut": "IMPORTE", "date_source": "2026-10-03", "geometrie_source": "MultiPolygon", "waterway": "dam", "operator": null, "height": null, "start_date": null }, "geometry": { "type": "Point", "coordinates": [ 12.42246, 3.258189 ] } },
{ "type": "Feature", "properties": { "tg_type": "INF.EAU.BARRAGE", "nom": "Barrage de Nachtigal", "source_id": "way/1208119742", "source": "OSM_OSMFR_2026-10-03", "statut": "IMPORTE", "date_source": "2026-10-03", "geometrie_source": "LineString", "waterway": "dam", "operator": null, "height": null, "start_date": null }, "geometry": { "type": "Point", "coordinates": [ 11.738337, 4.398866 ] } },
{ "type": "Feature", "properties": { "tg_type": "INF.EAU.BARRAGE", "nom": "", "source_id": "way/1301600844", "source": "OSM_OSMFR_2026-10-03", "statut": "IMPORTE", "date_source": "2026-10-03", "geometrie_source": "LineString", "waterway": "dam", "operator": null, "height": null, "start_date": null }, "geometry": { "type": "Point", "coordinates": [ 12.088437, 2.963956 ] } },
{ "type": "Feature", "properties": { "tg_type": "INF.EAU.BARRAGE", "nom": "", "source_id": "way/1311111061", "source": "OSM_OSMFR_2026-10-03", "statut": "IMPORTE", "date_source": "2026-10-03", "geometrie_source": "LineString", "waterway": "dam", "operator": null, "height": null, "start_date": null }, "geometry": { "type": "Point", "coordinates": [ 9.559414, 4.800613 ] } },
{ "type": "Feature", "properties": { "tg_type": "INF.EAU.BARRAGE", "nom": "", "source_id": "way/1426297637", "source": "OSM_OSMFR_2026-10-03", "statut": "IMPORTE", "date_source": "2026-10-03", "geometrie_source": "Polygon", "waterway": "dam", "operator": null, "height": null, "start_date": null }, "geometry": { "type": "Point", "coordinates": [ 14.674709, 4.390057 ] } },
{ "type": "Feature", "properties": { "tg_type": "INF.EAU.BARRAGE", "nom": "", "source_id": "way/1512085862", "source": "OSM_OSMFR_2026-10-03", "statut": "IMPORTE", "date_source": "2026-10-03", "geometrie_source": "Polygon", "waterway": "dam", "operator": null, "height": null, "start_date": null }, "geometry": { "type": "Point", "coordinates": [ 11.740818, 4.400762 ] } }
]
}
