{
"type": "FeatureCollection",
"name": "centrales_electriques",
"crs": { "type": "name", "properties": { "name": "urn:ogc:def:crs:OGC:1.3:CRS84" } },
"xy_coordinate_resolution": 1e-06,
"features": [
{ "type": "Feature", "properties": { "tg_type": "INF.ENERGIE.CENTRALE", "nom": "Mini Centrale Hydro de Mbakaou", "source_id": "node/6208644727", "source": "OSM_OSMFR_2026-10-03", "statut": "IMPORTE", "date_source": "2026-10-03", "geometrie_source": "Point", "plant_source": "hydro", "plant_method": null, "plant_output_electricity": "1.4 MW", "operator": null, "start_date": "2019" }, "geometry": { "type": "Point", "coordinates": [ 12.80853, 6.304729 ] } },
{ "type": "Feature", "properties": { "tg_type": "INF.ENERGIE.CENTRALE", "nom": "Centrale Diesel MBH", "source_id": "way/223594792", "source": "OSM_OSMFR_2026-10-03", "statut": "IMPORTE", "date_source": "2026-10-03", "geometrie_source": "Polygon", "plant_source": "diesel", "plant_method": "combustion", "plant_output_electricity": "15 MW", "operator": "TCHADELEC", "start_date": null }, "geometry": { "type": "Point", "coordinates": [ 15.033221, 12.111696 ] } },
{ "type": "Feature", "properties": { "tg_type": "INF.ENERGIE.CENTRALE", "nom": "Centrale diesel CATER", "source_id": "way/223594837", "source": "OSM_OSMFR_2026-10-03", "statut": "IMPORTE", "date_source": "2026-10-03", "geometrie_source": "Polygon", "plant_source": "diesel", "plant_method": "combustion", "plant_output_electricity": "10 MW", "operator": "TCHADELEC", "start_date": null }, "geometry": { "type": "Point", "coordinates": [ 15.033669, 12.111494 ] } },
{ "type": "Feature", "properties": { "tg_type": "INF.ENERGIE.CENTRALE", "nom": "Centrale hydroélectrique de Lagdo", "source_id": "way/255606494", "source": "OSM_OSMFR_2026-10-03", "statut": "IMPORTE", "date_source": "2026-10-03", "geometrie_source": "Polygon", "plant_source": "hydro", "plant_method": "water-storage", "plant_output_electricity": "72 MW", "operator": null, "start_date": null }, "geometry": { "type": "Point", "coordinates": [ 13.686964, 9.060762 ] } },
{ "type": "Feature", "properties": { "tg_type": "INF.ENERGIE.CENTRALE", "nom": "Mepibua I Micro-hydropower Plant", "source_id": "way/305094997", "source": "OSM_OSMFR_2026-10-03", "statut": "IMPORTE", "date_source": "2026-10-03", "geometrie_source": "Polygon", "plant_source": "hydro", "plant_method": "run-of-the-river", "plant_output_electricity": "25 kW", "operator": "ACREST", "start_date": null }, "geometry": { "type": "Point", "coordinates": [ 10.153159, 5.541764 ] } },
{ "type": "Feature", "properties": { "tg_type": "INF.ENERGIE.CENTRALE", "nom": "Centrale hydroélectrique de Song Loulou", "source_id": "way/320679323", "source": "OSM_OSMFR_2026-10-03", "statut": "IMPORTE", "date_source": "2026-10-03", "geometrie_source": "Polygon", "plant_source": "hydro", "plant_method": "run-of-the-river", "plant_output_electricity": "384 MW", "operator": "Societé Nationale d'Electricité du Cameroun", "start_date": "1981" }, "geometry": { "type": "Point", "coordinates": [ 10.464956, 4.078494 ] } },
{ "type": "Feature", "properties": { "tg_type": "INF.ENERGIE.CENTRALE", "nom": "Centrale Electrique de Mindourou", "source_id": "way/334876428", "source": "OSM_OSMFR_2026-10-03", "statut": "IMPORTE", "date_source": "2026-10-03", "geometrie_source": "Polygon", "plant_source": null, "plant_method": null, "plant_output_electricity": null, "operator": null, "start_date": null }, "geometry": { "type": "Point", "coordinates": [ 13.408095, 3.558566 ] } },
{ "type": "Feature", "properties": { "tg_type": "INF.ENERGIE.CENTRALE", "nom": "Camp SONEL", "source_id": "way/354337479", "source": "OSM_OSMFR_2026-10-03", "statut": "IMPORTE", "date_source": "2026-10-03", "geometrie_source": "Polygon", "plant_source": null, "plant_method": null, "plant_output_electricity": null, "operator": null, "start_date": null }, "geometry": { "type": "Point", "coordinates": [ 12.317584, 5.542604 ] } },
{ "type": "Feature", "properties": { "tg_type": "INF.ENERGIE.CENTRALE", "nom": "Centrale thermique de Yassa-Dibamba", "source_id": "way/454407399", "source": "OSM_OSMFR_2026-10-03", "statut": "IMPORTE", "date_source": "2026-10-03", "geometrie_source": "Polygon", "plant_source": "oil", "plant_method": "combustion", "plant_output_electricity": "86 MW", "operator": "Globeleq", "start_date": "2009" }, "geometry": { "type": "Point", "coordinates": [ 9.819719, 3.996281 ] } },
{ "type": "Feature", "properties": { "tg_type": "INF.ENERGIE.CENTRALE", "nom": "Barrage hydroélectrique d'Édéa", "source_id": "way/477145794", "source": "OSM_OSMFR_2026-10-03", "statut": "IMPORTE", "date_source": "2026-10-03", "geometrie_source": "Polygon", "plant_source": "hydro", "plant_method": "run-of-the-river", "plant_output_electricity": "276 MW", "operator": null, "start_date": null }, "geometry": { "type": "Point", "coordinates": [ 10.127679, 3.813296 ] } },
{ "type": "Feature", "properties": { "tg_type": "INF.ENERGIE.CENTRALE", "nom": "Centrale Thermique de Mokolo 4", "source_id": "way/479560652", "source": "OSM_OSMFR_2026-10-03", "statut": "IMPORTE", "date_source": "2026-10-03", "geometrie_source": "Polygon", "plant_source": null, "plant_method": null, "plant_output_electricity": null, "operator": "Eneo", "start_date": null }, "geometry": { "type": "Point", "coordinates": [ 13.673641, 4.614363 ] } },
{ "type": "Feature", "properties": { "tg_type": "INF.ENERGIE.CENTRALE", "nom": "Ancien site Sonel", "source_id": "way/647168950", "source": "OSM_OSMFR_2026-10-03", "statut": "IMPORTE", "date_source": "2026-10-03", "geometrie_source": "Polygon", "plant_source": null, "plant_method": null, "plant_output_electricity": null, "operator": "Sonel", "start_date": null }, "geometry": { "type": "Point", "coordinates": [ 10.454145, 3.697493 ] } },
{ "type": "Feature", "properties": { "tg_type": "INF.ENERGIE.CENTRALE", "nom": "Centrale thermique de Maroua", "source_id": "way/840712264", "source": "OSM_OSMFR_2026-10-03", "statut": "IMPORTE", "date_source": "2026-10-03", "geometrie_source": "Polygon", "plant_source": "oil", "plant_method": "combustion", "plant_output_electricity": "10 MW", "operator": "Aggreko", "start_date": "2017" }, "geometry": { "type": "Point", "coordinates": [ 14.337225, 10.6265 ] } },
{ "type": "Feature", "properties": { "tg_type": "INF.ENERGIE.CENTRALE", "nom": "Centrale thermique de Kribi", "source_id": "way/840713203", "source": "OSM_OSMFR_2026-10-03", "statut": "IMPORTE", "date_source": "2026-10-03", "geometrie_source": "Polygon", "plant_source": "gas", "plant_method": "combustion", "plant_output_electricity": "216 MW", "operator": "Globeleq", "start_date": "2013" }, "geometry": { "type": "Point", "coordinates": [ 9.97691, 3.025444 ] } },
{ "type": "Feature", "properties": { "tg_type": "INF.ENERGIE.CENTRALE", "nom": "Centrale thermique de Limbé", "source_id": "way/840715514", "source": "OSM_OSMFR_2026-10-03", "statut": "IMPORTE", "date_source": "2026-10-03", "geometrie_source": "Polygon", "plant_source": "oil", "plant_method": "combustion", "plant_output_electricity": "85 MW", "operator": "Eneo", "start_date": null }, "geometry": { "type": "Point", "coordinates": [ 9.124229, 4.007771 ] } },
{ "type": "Feature", "properties": { "tg_type": "INF.ENERGIE.CENTRALE", "nom": "Centrale hydroélectrique de Memve'ele", "source_id": "way/840719533", "source": "OSM_OSMFR_2026-10-03", "statut": "IMPORTE", "date_source": "2026-10-03", "geometrie_source": "Polygon", "plant_source": "hydro", "plant_method": null, "plant_output_electricity": "211 MW", "operator": null, "start_date": null }, "geometry": { "type": "Point", "coordinates": [ 10.348743, 2.373393 ] } },
{ "type": "Feature", "properties": { "tg_type": "INF.ENERGIE.CENTRALE", "nom": "Centrale thermique de Logbaba", "source_id": "way/840726196", "source": "OSM_OSMFR_2026-10-03", "statut": "IMPORTE", "date_source": "2026-10-03", "geometrie_source": "Polygon", "plant_source": "gas", "plant_method": "combustion", "plant_output_electricity": "30 MW", "operator": null, "start_date": null }, "geometry": { "type": "Point", "coordinates": [ 9.761221, 4.035876 ] } },
{ "type": "Feature", "properties": { "tg_type": "INF.ENERGIE.CENTRALE", "nom": "Centrale thermique de Logbaba II", "source_id": "way/840726197", "source": "OSM_OSMFR_2026-10-03", "statut": "IMPORTE", "date_source": "2026-10-03", "geometrie_source": "Polygon", "plant_source": null, "plant_method": "combustion", "plant_output_electricity": "yes", "operator": null, "start_date": null }, "geometry": { "type": "Point", "coordinates": [ 9.762539, 4.034964 ] } },
{ "type": "Feature", "properties": { "tg_type": "INF.ENERGIE.CENTRALE", "nom": "Centrale hydroélectrique de Mékin", "source_id": "relation/12590035", "source": "OSM_OSMFR_2026-10-03", "statut": "IMPORTE", "date_source": "2026-10-03", "geometrie_source": "MultiPolygon", "plant_source": "hydro", "plant_method": null, "plant_output_electricity": "15 MW", "operator": null, "start_date": null }, "geometry": { "type": "Point", "coordinates": [ 12.421798, 3.258896 ] } },
{ "type": "Feature", "properties": { "tg_type": "INF.ENERGIE.CENTRALE", "nom": "Douala International Airport", "source_id": "way/936493148", "source": "OSM_OSMFR_2026-10-03", "statut": "IMPORTE", "date_source": "2026-10-03", "geometrie_source": "Polygon", "plant_source": "solar", "plant_method": "photovoltaic", "plant_output_electricity": "1.2MW", "operator": null, "start_date": null }, "geometry": { "type": "Point", "coordinates": [ 9.715316, 4.015916 ] } },
{ "type": "Feature", "properties": { "tg_type": "INF.ENERGIE.CENTRALE", "nom": "Barrage Hydroélectrique de Nachtigal", "source_id": "way/944841134", "source": "OSM_OSMFR_2026-10-03", "statut": "IMPORTE", "date_source": "2026-10-03", "geometrie_source": "Polygon", "plant_source": "hydro", "plant_method": null, "plant_output_electricity": "420MW", "operator": null, "start_date": null }, "geometry": { "type": "Point", "coordinates": [ 11.716567, 4.379976 ] } },
{ "type": "Feature", "properties": { "tg_type": "INF.ENERGIE.CENTRALE", "nom": "", "source_id": "way/962982893", "source": "OSM_OSMFR_2026-10-03", "statut": "IMPORTE", "date_source": "2026-10-03", "geometrie_source": "Polygon", "plant_source": "solar", "plant_method": null, "plant_output_electricity": null, "operator": null, "start_date": null }, "geometry": { "type": "Point", "coordinates": [ 13.349556, 2.734032 ] } },
{ "type": "Feature", "properties": { "tg_type": "INF.ENERGIE.CENTRALE", "nom": "", "source_id": "way/969327904", "source": "OSM_OSMFR_2026-10-03", "statut": "IMPORTE", "date_source": "2026-10-03", "geometrie_source": "Polygon", "plant_source": "solar", "plant_method": "photovoltaic", "plant_output_electricity": "yes", "operator": null, "start_date": null }, "geometry": { "type": "Point", "coordinates": [ 13.719142, 4.558529 ] } },
{ "type": "Feature", "properties": { "tg_type": "INF.ENERGIE.CENTRALE", "nom": "", "source_id": "way/1006930158", "source": "OSM_OSMFR_2026-10-03", "statut": "IMPORTE", "date_source": "2026-10-03", "geometrie_source": "Polygon", "plant_source": "solar", "plant_method": null, "plant_output_electricity": "yes", "operator": null, "start_date": null }, "geometry": { "type": "Point", "coordinates": [ 12.272016, 3.120228 ] } },
{ "type": "Feature", "properties": { "tg_type": "INF.ENERGIE.CENTRALE", "nom": "", "source_id": "way/1056055961", "source": "OSM_OSMFR_2026-10-03", "statut": "IMPORTE", "date_source": "2026-10-03", "geometrie_source": "Polygon", "plant_source": "solar", "plant_method": null, "plant_output_electricity": "yes", "operator": null, "start_date": null }, "geometry": { "type": "Point", "coordinates": [ 9.550884, 3.81615 ] } },
{ "type": "Feature", "properties": { "tg_type": "INF.ENERGIE.CENTRALE", "nom": "Centrale Thermique", "source_id": "way/1068549095", "source": "OSM_OSMFR_2026-10-03", "statut": "IMPORTE", "date_source": "2026-10-03", "geometrie_source": "Polygon", "plant_source": null, "plant_method": null, "plant_output_electricity": null, "operator": null, "start_date": null }, "geometry": { "type": "Point", "coordinates": [ 9.839532, 2.378164 ] } },
{ "type": "Feature", "properties": { "tg_type": "INF.ENERGIE.CENTRALE", "nom": "", "source_id": "way/1068817277", "source": "OSM_OSMFR_2026-10-03", "statut": "IMPORTE", "date_source": "2026-10-03", "geometrie_source": "Polygon", "plant_source": null, "plant_method": null, "plant_output_electricity": null, "operator": null, "start_date": null }, "geometry": { "type": "Point", "coordinates": [ 11.164048, 2.812777 ] } },
{ "type": "Feature", "properties": { "tg_type": "INF.ENERGIE.CENTRALE", "nom": "", "source_id": "way/1116226675", "source": "OSM_OSMFR_2026-10-03", "statut": "IMPORTE", "date_source": "2026-10-03", "geometrie_source": "Polygon", "plant_source": "waste", "plant_method": "combustion", "plant_output_electricity": null, "operator": null, "start_date": null }, "geometry": { "type": "Point", "coordinates": [ 11.592425, 3.974144 ] } },
{ "type": "Feature", "properties": { "tg_type": "INF.ENERGIE.CENTRALE", "nom": "Centrale Solaire de Guider", "source_id": "way/1153466956", "source": "OSM_OSMFR_2026-10-03", "statut": "IMPORTE", "date_source": "2026-10-03", "geometrie_source": "Polygon", "plant_source": "solar", "plant_method": "photovoltaic", "plant_output_electricity": "18 MW", "operator": null, "start_date": null }, "geometry": { "type": "Point", "coordinates": [ 13.923227, 9.880019 ] } },
{ "type": "Feature", "properties": { "tg_type": "INF.ENERGIE.CENTRALE", "nom": "Centrale Solaire de Maroua", "source_id": "way/1284665738", "source": "OSM_OSMFR_2026-10-03", "statut": "IMPORTE", "date_source": "2026-10-03", "geometrie_source": "Polygon", "plant_source": "solar", "plant_method": "photovoltaic", "plant_output_electricity": "18MW", "operator": "Scatec", "start_date": null }, "geometry": { "type": "Point", "coordinates": [ 14.346658, 10.645335 ] } },
{ "type": "Feature", "properties": { "tg_type": "INF.ENERGIE.CENTRALE", "nom": "Centrale Thermique Aggreko de Guider", "source_id": "way/1284667345", "source": "OSM_OSMFR_2026-10-03", "statut": "IMPORTE", "date_source": "2026-10-03", "geometrie_source": "Polygon", "plant_source": "diesel", "plant_method": null, "plant_output_electricity": "10 MW", "operator": null, "start_date": null }, "geometry": { "type": "Point", "coordinates": [ 13.925674, 9.879935 ] } },
{ "type": "Feature", "properties": { "tg_type": "INF.ENERGIE.CENTRALE", "nom": "", "source_id": "way/1378357766", "source": "OSM_OSMFR_2026-10-03", "statut": "IMPORTE", "date_source": "2026-10-03", "geometrie_source": "Polygon", "plant_source": "solar", "plant_method": "photovoltaic", "plant_output_electricity": "yes", "operator": null, "start_date": null }, "geometry": { "type": "Point", "coordinates": [ 10.708348, 3.235105 ] } },
{ "type": "Feature", "properties": { "tg_type": "INF.ENERGIE.CENTRALE", "nom": "", "source_id": "way/1424431610", "source": "OSM_OSMFR_2026-10-03", "statut": "IMPORTE", "date_source": "2026-10-03", "geometrie_source": "Polygon", "plant_source": "solar", "plant_method": null, "plant_output_electricity": null, "operator": null, "start_date": null }, "geometry": { "type": "Point", "coordinates": [ 14.542751, 5.87423 ] } },
{ "type": "Feature", "properties": { "tg_type": "INF.ENERGIE.CENTRALE", "nom": "", "source_id": "way/1527661782", "source": "OSM_OSMFR_2026-10-03", "statut": "IMPORTE", "date_source": "2026-10-03", "geometrie_source": "Polygon", "plant_source": "solar", "plant_method": "photovoltaic", "plant_output_electricity": "yes", "operator": null, "start_date": null }, "geometry": { "type": "Point", "coordinates": [ 14.103512, 9.866331 ] } }
]
}
