{
"type": "FeatureCollection",
"name": "gares",
"crs": { "type": "name", "properties": { "name": "urn:ogc:def:crs:OGC:1.3:CRS84" } },
"xy_coordinate_resolution": 1e-06,
"features": [
{ "type": "Feature", "properties": { "tg_type": "INF.GARE", "nom": "Binguela", "source_id": "node/2184008042", "source": "OSM_OSMFR_2026-10-03", "statut": "IMPORTE", "date_source": "2026-10-03", "geometrie_source": "Point", "railway": "station", "public_transport": "stop_position", "operator": "CAMRAIL", "uic_ref": null }, "geometry": { "type": "Point", "coordinates": [ 11.404966, 3.751395 ] } },
{ "type": "Feature", "properties": { "tg_type": "INF.GARE", "nom": "Ngaoundéré", "source_id": "node/2604857312", "source": "OSM_OSMFR_2026-10-03", "statut": "IMPORTE", "date_source": "2026-10-03", "geometrie_source": "Point", "railway": "station", "public_transport": "stop_position", "operator": "CAMRAIL", "uic_ref": null }, "geometry": { "type": "Point", "coordinates": [ 13.589727, 7.338647 ] } },
{ "type": "Feature", "properties": { "tg_type": "INF.GARE", "nom": "Makak", "source_id": "node/2608563940", "source": "OSM_OSMFR_2026-10-03", "statut": "IMPORTE", "date_source": "2026-10-03", "geometrie_source": "Point", "railway": null, "public_transport": "station", "operator": "CAMRAIL", "uic_ref": null }, "geometry": { "type": "Point", "coordinates": [ 11.033136, 3.547768 ] } },
{ "type": "Feature", "properties": { "tg_type": "INF.GARE", "nom": "Gare d'Obala", "source_id": "node/2815347915", "source": "OSM_OSMFR_2026-10-03", "statut": "IMPORTE", "date_source": "2026-10-03", "geometrie_source": "Point", "railway": "station", "public_transport": "station", "operator": null, "uic_ref": null }, "geometry": { "type": "Point", "coordinates": [ 11.546121, 4.153603 ] } },
{ "type": "Feature", "properties": { "tg_type": "INF.GARE", "nom": "Nanga Eboko", "source_id": "node/3273008473", "source": "OSM_OSMFR_2026-10-03", "statut": "IMPORTE", "date_source": "2026-10-03", "geometrie_source": "Point", "railway": "station", "public_transport": null, "operator": "CAMRAIL", "uic_ref": null }, "geometry": { "type": "Point", "coordinates": [ 12.380707, 4.694985 ] } },
{ "type": "Feature", "properties": { "tg_type": "INF.GARE", "nom": "Gare de Kumba", "source_id": "node/3439943248", "source": "OSM_OSMFR_2026-10-03", "statut": "IMPORTE", "date_source": "2026-10-03", "geometrie_source": "Point", "railway": "station", "public_transport": null, "operator": null, "uic_ref": null }, "geometry": { "type": "Point", "coordinates": [ 9.463698, 4.634059 ] } },
{ "type": "Feature", "properties": { "tg_type": "INF.GARE", "nom": "Mbandjock", "source_id": "node/3611234680", "source": "OSM_OSMFR_2026-10-03", "statut": "IMPORTE", "date_source": "2026-10-03", "geometrie_source": "Point", "railway": "station", "public_transport": "station", "operator": "CAMRAIL", "uic_ref": null }, "geometry": { "type": "Point", "coordinates": [ 11.90259, 4.45768 ] } },
{ "type": "Feature", "properties": { "tg_type": "INF.GARE", "nom": "Eséka", "source_id": "node/3778197766", "source": "OSM_OSMFR_2026-10-03", "statut": "IMPORTE", "date_source": "2026-10-03", "geometrie_source": "Point", "railway": "station", "public_transport": null, "operator": null, "uic_ref": null }, "geometry": { "type": "Point", "coordinates": [ 10.772829, 3.642667 ] } },
{ "type": "Feature", "properties": { "tg_type": "INF.GARE", "nom": "Edéa voyageurs", "source_id": "node/3778612277", "source": "OSM_OSMFR_2026-10-03", "statut": "IMPORTE", "date_source": "2026-10-03", "geometrie_source": "Point", "railway": "station", "public_transport": null, "operator": null, "uic_ref": null }, "geometry": { "type": "Point", "coordinates": [ 10.131539, 3.7963 ] } },
{ "type": "Feature", "properties": { "tg_type": "INF.GARE", "nom": "Logbadjeck", "source_id": "node/3778700744", "source": "OSM_OSMFR_2026-10-03", "statut": "IMPORTE", "date_source": "2026-10-03", "geometrie_source": "Point", "railway": "halt", "public_transport": null, "operator": null, "uic_ref": null }, "geometry": { "type": "Point", "coordinates": [ 10.074239, 3.972185 ] } },
{ "type": "Feature", "properties": { "tg_type": "INF.GARE", "nom": "Malimba I", "source_id": "node/3778700745", "source": "OSM_OSMFR_2026-10-03", "statut": "IMPORTE", "date_source": "2026-10-03", "geometrie_source": "Point", "railway": "halt", "public_transport": null, "operator": null, "uic_ref": null }, "geometry": { "type": "Point", "coordinates": [ 10.101328, 3.897544 ] } },
{ "type": "Feature", "properties": { "tg_type": "INF.GARE", "nom": "Bassa", "source_id": "node/3778809014", "source": "OSM_OSMFR_2026-10-03", "statut": "IMPORTE", "date_source": "2026-10-03", "geometrie_source": "Point", "railway": "halt", "public_transport": null, "operator": null, "uic_ref": null }, "geometry": { "type": "Point", "coordinates": [ 9.744887, 4.041222 ] } },
{ "type": "Feature", "properties": { "tg_type": "INF.GARE", "nom": "Dibamba", "source_id": "node/3778809015", "source": "OSM_OSMFR_2026-10-03", "statut": "IMPORTE", "date_source": "2026-10-03", "geometrie_source": "Point", "railway": "halt", "public_transport": null, "operator": null, "uic_ref": null }, "geometry": { "type": "Point", "coordinates": [ 9.831419, 4.047298 ] } },
{ "type": "Feature", "properties": { "tg_type": "INF.GARE", "nom": "Japoma", "source_id": "node/3778809016", "source": "OSM_OSMFR_2026-10-03", "statut": "IMPORTE", "date_source": "2026-10-03", "geometrie_source": "Point", "railway": "halt", "public_transport": null, "operator": null, "uic_ref": null }, "geometry": { "type": "Point", "coordinates": [ 9.819924, 4.034744 ] } },
{ "type": "Feature", "properties": { "tg_type": "INF.GARE", "nom": "Kendeck", "source_id": "node/3778809017", "source": "OSM_OSMFR_2026-10-03", "statut": "IMPORTE", "date_source": "2026-10-03", "geometrie_source": "Point", "railway": "halt", "public_transport": null, "operator": null, "uic_ref": null }, "geometry": { "type": "Point", "coordinates": [ 9.894994, 4.043437 ] } },
{ "type": "Feature", "properties": { "tg_type": "INF.GARE", "nom": "Lungahé", "source_id": "node/3778809019", "source": "OSM_OSMFR_2026-10-03", "statut": "IMPORTE", "date_source": "2026-10-03", "geometrie_source": "Point", "railway": "station", "public_transport": null, "operator": null, "uic_ref": null }, "geometry": { "type": "Point", "coordinates": [ 10.016762, 3.998326 ] } },
{ "type": "Feature", "properties": { "tg_type": "INF.GARE", "nom": "Nkondjock", "source_id": "node/3778809021", "source": "OSM_OSMFR_2026-10-03", "statut": "IMPORTE", "date_source": "2026-10-03", "geometrie_source": "Point", "railway": "halt", "public_transport": null, "operator": null, "uic_ref": null }, "geometry": { "type": "Point", "coordinates": [ 9.861411, 4.050936 ] } },
{ "type": "Feature", "properties": { "tg_type": "INF.GARE", "nom": "Pitti", "source_id": "node/3778809023", "source": "OSM_OSMFR_2026-10-03", "statut": "IMPORTE", "date_source": "2026-10-03", "geometrie_source": "Point", "railway": "halt", "public_transport": null, "operator": null, "uic_ref": null }, "geometry": { "type": "Point", "coordinates": [ 9.948037, 4.029324 ] } },
{ "type": "Feature", "properties": { "tg_type": "INF.GARE", "nom": "Mandjak", "source_id": "node/3778840761", "source": "OSM_OSMFR_2026-10-03", "statut": "IMPORTE", "date_source": "2026-10-03", "geometrie_source": "Point", "railway": "halt", "public_transport": null, "operator": null, "uic_ref": null }, "geometry": { "type": "Point", "coordinates": [ 10.871372, 3.576465 ] } },
{ "type": "Feature", "properties": { "tg_type": "INF.GARE", "nom": "Nguibassal", "source_id": "node/3778840762", "source": "OSM_OSMFR_2026-10-03", "statut": "IMPORTE", "date_source": "2026-10-03", "geometrie_source": "Point", "railway": "halt", "public_transport": null, "operator": null, "uic_ref": null }, "geometry": { "type": "Point", "coordinates": [ 10.831901, 3.592808 ] } },
{ "type": "Feature", "properties": { "tg_type": "INF.GARE", "nom": "Makak", "source_id": "node/3778868148", "source": "OSM_OSMFR_2026-10-03", "statut": "IMPORTE", "date_source": "2026-10-03", "geometrie_source": "Point", "railway": "station", "public_transport": null, "operator": "CAMRAIL", "uic_ref": null }, "geometry": { "type": "Point", "coordinates": [ 11.033109, 3.547603 ] } },
{ "type": "Feature", "properties": { "tg_type": "INF.GARE", "nom": "Minloh-Maloume", "source_id": "node/3778868150", "source": "OSM_OSMFR_2026-10-03", "statut": "IMPORTE", "date_source": "2026-10-03", "geometrie_source": "Point", "railway": "halt", "public_transport": null, "operator": null, "uic_ref": null }, "geometry": { "type": "Point", "coordinates": [ 10.899228, 3.572315 ] } },
{ "type": "Feature", "properties": { "tg_type": "INF.GARE", "nom": "Ngwate", "source_id": "node/3778868151", "source": "OSM_OSMFR_2026-10-03", "statut": "IMPORTE", "date_source": "2026-10-03", "geometrie_source": "Point", "railway": "halt", "public_transport": null, "operator": null, "uic_ref": null }, "geometry": { "type": "Point", "coordinates": [ 10.979457, 3.568788 ] } },
{ "type": "Feature", "properties": { "tg_type": "INF.GARE", "nom": "Douala Bessengué", "source_id": "node/3779375469", "source": "OSM_OSMFR_2026-10-03", "statut": "IMPORTE", "date_source": "2026-10-03", "geometrie_source": "Point", "railway": "station", "public_transport": null, "operator": "CAMRAIL", "uic_ref": null }, "geometry": { "type": "Point", "coordinates": [ 9.711143, 4.05358 ] } },
{ "type": "Feature", "properties": { "tg_type": "INF.GARE", "nom": "Ngoumou", "source_id": "node/3779378732", "source": "OSM_OSMFR_2026-10-03", "statut": "IMPORTE", "date_source": "2026-10-03", "geometrie_source": "Point", "railway": "station", "public_transport": null, "operator": null, "uic_ref": null }, "geometry": { "type": "Point", "coordinates": [ 11.296934, 3.590695 ] } },
{ "type": "Feature", "properties": { "tg_type": "INF.GARE", "nom": "Otélé", "source_id": "node/3779382927", "source": "OSM_OSMFR_2026-10-03", "statut": "IMPORTE", "date_source": "2026-10-03", "geometrie_source": "Point", "railway": "station", "public_transport": null, "operator": "CAMRAIL", "uic_ref": null }, "geometry": { "type": "Point", "coordinates": [ 11.245399, 3.591843 ] } },
{ "type": "Feature", "properties": { "tg_type": "INF.GARE", "nom": "Nkolngong", "source_id": "node/3779441374", "source": "OSM_OSMFR_2026-10-03", "statut": "IMPORTE", "date_source": "2026-10-03", "geometrie_source": "Point", "railway": "halt", "public_transport": null, "operator": null, "uic_ref": null }, "geometry": { "type": "Point", "coordinates": [ 11.38966, 3.720529 ] } },
{ "type": "Feature", "properties": { "tg_type": "INF.GARE", "nom": "Oweng", "source_id": "node/3779441375", "source": "OSM_OSMFR_2026-10-03", "statut": "IMPORTE", "date_source": "2026-10-03", "geometrie_source": "Point", "railway": "halt", "public_transport": null, "operator": null, "uic_ref": null }, "geometry": { "type": "Point", "coordinates": [ 11.358457, 3.663395 ] } },
{ "type": "Feature", "properties": { "tg_type": "INF.GARE", "nom": "Gare de Mvolyé", "source_id": "node/3779442922", "source": "OSM_OSMFR_2026-10-03", "statut": "IMPORTE", "date_source": "2026-10-03", "geometrie_source": "Point", "railway": "station", "public_transport": null, "operator": null, "uic_ref": null }, "geometry": { "type": "Point", "coordinates": [ 11.511947, 3.838964 ] } },
{ "type": "Feature", "properties": { "tg_type": "INF.GARE", "nom": "Barombi", "source_id": "node/3779460489", "source": "OSM_OSMFR_2026-10-03", "statut": "IMPORTE", "date_source": "2026-10-03", "geometrie_source": "Point", "railway": "halt", "public_transport": null, "operator": null, "uic_ref": null }, "geometry": { "type": "Point", "coordinates": [ 9.467888, 4.593405 ] } },
{ "type": "Feature", "properties": { "tg_type": "INF.GARE", "nom": "Ediki", "source_id": "node/3779460490", "source": "OSM_OSMFR_2026-10-03", "statut": "IMPORTE", "date_source": "2026-10-03", "geometrie_source": "Point", "railway": "halt", "public_transport": null, "operator": null, "uic_ref": null }, "geometry": { "type": "Point", "coordinates": [ 9.46586, 4.533648 ] } },
{ "type": "Feature", "properties": { "tg_type": "INF.GARE", "nom": "Mabondji", "source_id": "node/3779460491", "source": "OSM_OSMFR_2026-10-03", "statut": "IMPORTE", "date_source": "2026-10-03", "geometrie_source": "Point", "railway": "halt", "public_transport": null, "operator": null, "uic_ref": null }, "geometry": { "type": "Point", "coordinates": [ 9.477173, 4.573644 ] } },
{ "type": "Feature", "properties": { "tg_type": "INF.GARE", "nom": "Mbanga", "source_id": "node/3779460492", "source": "OSM_OSMFR_2026-10-03", "statut": "IMPORTE", "date_source": "2026-10-03", "geometrie_source": "Point", "railway": "station", "public_transport": "station", "operator": null, "uic_ref": null }, "geometry": { "type": "Point", "coordinates": [ 9.565358, 4.496621 ] } },
{ "type": "Feature", "properties": { "tg_type": "INF.GARE", "nom": "Mbargué", "source_id": "node/4466475974", "source": "OSM_OSMFR_2026-10-03", "statut": "IMPORTE", "date_source": "2026-10-03", "geometrie_source": "Point", "railway": "station", "public_transport": null, "operator": null, "uic_ref": null }, "geometry": { "type": "Point", "coordinates": [ 13.068581, 4.910898 ] } },
{ "type": "Feature", "properties": { "tg_type": "INF.GARE", "nom": "Batchenga", "source_id": "node/4467668765", "source": "OSM_OSMFR_2026-10-03", "statut": "IMPORTE", "date_source": "2026-10-03", "geometrie_source": "Point", "railway": "station", "public_transport": null, "operator": null, "uic_ref": null }, "geometry": { "type": "Point", "coordinates": [ 11.639993, 4.282314 ] } },
{ "type": "Feature", "properties": { "tg_type": "INF.GARE", "nom": "Belabo", "source_id": "node/4467918642", "source": "OSM_OSMFR_2026-10-03", "statut": "IMPORTE", "date_source": "2026-10-03", "geometrie_source": "Point", "railway": "station", "public_transport": null, "operator": null, "uic_ref": null }, "geometry": { "type": "Point", "coordinates": [ 13.289525, 4.924628 ] } },
{ "type": "Feature", "properties": { "tg_type": "INF.GARE", "nom": "Gaza Gazade", "source_id": "node/4467918644", "source": "OSM_OSMFR_2026-10-03", "statut": "IMPORTE", "date_source": "2026-10-03", "geometrie_source": "Point", "railway": "station", "public_transport": "station", "operator": null, "uic_ref": null }, "geometry": { "type": "Point", "coordinates": [ 13.352324, 6.215828 ] } },
{ "type": "Feature", "properties": { "tg_type": "INF.GARE", "nom": "Liguim", "source_id": "node/4467918645", "source": "OSM_OSMFR_2026-10-03", "statut": "IMPORTE", "date_source": "2026-10-03", "geometrie_source": "Point", "railway": "station", "public_transport": null, "operator": "CAMRAIL", "uic_ref": null }, "geometry": { "type": "Point", "coordinates": [ 13.355286, 5.436209 ] } },
{ "type": "Feature", "properties": { "tg_type": "INF.GARE", "nom": "Lom", "source_id": "node/4467918646", "source": "OSM_OSMFR_2026-10-03", "statut": "IMPORTE", "date_source": "2026-10-03", "geometrie_source": "Point", "railway": "station", "public_transport": null, "operator": null, "uic_ref": null }, "geometry": { "type": "Point", "coordinates": [ 13.398535, 5.341906 ] } },
{ "type": "Feature", "properties": { "tg_type": "INF.GARE", "nom": "Mbitom", "source_id": "node/4467918647", "source": "OSM_OSMFR_2026-10-03", "statut": "IMPORTE", "date_source": "2026-10-03", "geometrie_source": "Point", "railway": "station", "public_transport": "station", "operator": null, "uic_ref": null }, "geometry": { "type": "Point", "coordinates": [ 13.329159, 5.705183 ] } },
{ "type": "Feature", "properties": { "tg_type": "INF.GARE", "nom": "Bawa", "source_id": "node/4467949806", "source": "OSM_OSMFR_2026-10-03", "statut": "IMPORTE", "date_source": "2026-10-03", "geometrie_source": "Point", "railway": "station", "public_transport": null, "operator": null, "uic_ref": null }, "geometry": { "type": "Point", "coordinates": [ 13.355318, 7.214451 ] } },
{ "type": "Feature", "properties": { "tg_type": "INF.GARE", "nom": "Makondo", "source_id": "node/5718384270", "source": "OSM_OSMFR_2026-10-03", "statut": "IMPORTE", "date_source": "2026-10-03", "geometrie_source": "Point", "railway": "station", "public_transport": "station", "operator": null, "uic_ref": null }, "geometry": { "type": "Point", "coordinates": [ 10.259694, 3.759884 ] } },
{ "type": "Feature", "properties": { "tg_type": "INF.GARE", "nom": "Gare voyageur de Messondo", "source_id": "node/6077479668", "source": "OSM_OSMFR_2026-10-03", "statut": "IMPORTE", "date_source": "2026-10-03", "geometrie_source": "Point", "railway": "station", "public_transport": "station", "operator": "Camrail", "uic_ref": null }, "geometry": { "type": "Point", "coordinates": [ 10.450935, 3.692709 ] } },
{ "type": "Feature", "properties": { "tg_type": "INF.GARE", "nom": "Mom", "source_id": "node/6133387185", "source": "OSM_OSMFR_2026-10-03", "statut": "IMPORTE", "date_source": "2026-10-03", "geometrie_source": "Point", "railway": "station", "public_transport": "station", "operator": "Camrail", "uic_ref": null }, "geometry": { "type": "Point", "coordinates": [ 11.180142, 3.599079 ] } },
{ "type": "Feature", "properties": { "tg_type": "INF.GARE", "nom": "Yaoundé", "source_id": "node/6310626492", "source": "OSM_OSMFR_2026-10-03", "statut": "IMPORTE", "date_source": "2026-10-03", "geometrie_source": "Point", "railway": "station", "public_transport": "station", "operator": "CAMRAIL", "uic_ref": null }, "geometry": { "type": "Point", "coordinates": [ 11.525899, 3.870782 ] } },
{ "type": "Feature", "properties": { "tg_type": "INF.GARE", "nom": "", "source_id": "node/8475184889", "source": "OSM_OSMFR_2026-10-03", "statut": "IMPORTE", "date_source": "2026-10-03", "geometrie_source": "Point", "railway": "station", "public_transport": null, "operator": null, "uic_ref": null }, "geometry": { "type": "Point", "coordinates": [ 11.416875, 3.550976 ] } },
{ "type": "Feature", "properties": { "tg_type": "INF.GARE", "nom": "Station de Mbalmayo", "source_id": "node/8475816937", "source": "OSM_OSMFR_2026-10-03", "statut": "IMPORTE", "date_source": "2026-10-03", "geometrie_source": "Point", "railway": "station", "public_transport": "station", "operator": "Camrail", "uic_ref": null }, "geometry": { "type": "Point", "coordinates": [ 11.497029, 3.51632 ] } },
{ "type": "Feature", "properties": { "tg_type": "INF.GARE", "nom": "Kaa", "source_id": "node/9256506447", "source": "OSM_OSMFR_2026-10-03", "statut": "IMPORTE", "date_source": "2026-10-03", "geometrie_source": "Point", "railway": "station", "public_transport": null, "operator": "CAMRAIL", "uic_ref": null }, "geometry": { "type": "Point", "coordinates": [ 12.470545, 4.775322 ] } },
{ "type": "Feature", "properties": { "tg_type": "INF.GARE", "nom": "Pangar", "source_id": "node/11144281505", "source": "OSM_OSMFR_2026-10-03", "statut": "IMPORTE", "date_source": "2026-10-03", "geometrie_source": "Point", "railway": "station", "public_transport": "station", "operator": "Camrail", "uic_ref": null }, "geometry": { "type": "Point", "coordinates": [ 13.361786, 6.007652 ] } },
{ "type": "Feature", "properties": { "tg_type": "INF.GARE", "nom": "Tête d'Éléphant", "source_id": "node/11144281506", "source": "OSM_OSMFR_2026-10-03", "statut": "IMPORTE", "date_source": "2026-10-03", "geometrie_source": "Point", "railway": "station", "public_transport": "station", "operator": "CAMRAIL", "uic_ref": null }, "geometry": { "type": "Point", "coordinates": [ 13.370448, 5.544042 ] } },
{ "type": "Feature", "properties": { "tg_type": "INF.GARE", "nom": "Ngaoundéré", "source_id": "node/11843434121", "source": "OSM_OSMFR_2026-10-03", "statut": "IMPORTE", "date_source": "2026-10-03", "geometrie_source": "Point", "railway": "station", "public_transport": "station", "operator": "Camrail", "uic_ref": null }, "geometry": { "type": "Point", "coordinates": [ 13.589723, 7.338628 ] } },
{ "type": "Feature", "properties": { "tg_type": "INF.GARE", "nom": "Ngaoundal", "source_id": "way/254679047", "source": "OSM_OSMFR_2026-10-03", "statut": "IMPORTE", "date_source": "2026-10-03", "geometrie_source": "Polygon", "railway": "station", "public_transport": null, "operator": "CAMRAIL", "uic_ref": null }, "geometry": { "type": "Point", "coordinates": [ 13.276638, 6.446124 ] } },
{ "type": "Feature", "properties": { "tg_type": "INF.GARE", "nom": "Gare de Binguela", "source_id": "way/259070679", "source": "OSM_OSMFR_2026-10-03", "statut": "IMPORTE", "date_source": "2026-10-03", "geometrie_source": "Polygon", "railway": "station", "public_transport": "stop_position", "operator": "CAMRAIL", "uic_ref": null }, "geometry": { "type": "Point", "coordinates": [ 11.404807, 3.751462 ] } },
{ "type": "Feature", "properties": { "tg_type": "INF.GARE", "nom": "", "source_id": "way/336910690", "source": "OSM_OSMFR_2026-10-03", "statut": "IMPORTE", "date_source": "2026-10-03", "geometrie_source": "Polygon", "railway": "station", "public_transport": "station", "operator": null, "uic_ref": null }, "geometry": { "type": "Point", "coordinates": [ 9.463772, 4.634198 ] } },
{ "type": "Feature", "properties": { "tg_type": "INF.GARE", "nom": "Gare de Mengue Bibey", "source_id": "way/449711196", "source": "OSM_OSMFR_2026-10-03", "statut": "IMPORTE", "date_source": "2026-10-03", "geometrie_source": "Polygon", "railway": "station", "public_transport": null, "operator": "CAMRAIL", "uic_ref": null }, "geometry": { "type": "Point", "coordinates": [ 12.755412, 4.935882 ] } },
{ "type": "Feature", "properties": { "tg_type": "INF.GARE", "nom": "Pangar", "source_id": "way/449873284", "source": "OSM_OSMFR_2026-10-03", "statut": "IMPORTE", "date_source": "2026-10-03", "geometrie_source": "Polygon", "railway": "station", "public_transport": "station", "operator": "CAMRAIL", "uic_ref": null }, "geometry": { "type": "Point", "coordinates": [ 13.361722, 6.007715 ] } },
{ "type": "Feature", "properties": { "tg_type": "INF.GARE", "nom": "", "source_id": "way/591749781", "source": "OSM_OSMFR_2026-10-03", "statut": "IMPORTE", "date_source": "2026-10-03", "geometrie_source": "Polygon", "railway": "station", "public_transport": "station", "operator": null, "uic_ref": null }, "geometry": { "type": "Point", "coordinates": [ 13.398537, 5.341905 ] } },
{ "type": "Feature", "properties": { "tg_type": "INF.GARE", "nom": "Edéa Croisement", "source_id": "way/606723765", "source": "OSM_OSMFR_2026-10-03", "statut": "IMPORTE", "date_source": "2026-10-03", "geometrie_source": "Polygon", "railway": "station", "public_transport": "station", "operator": null, "uic_ref": null }, "geometry": { "type": "Point", "coordinates": [ 10.117641, 3.808281 ] } },
{ "type": "Feature", "properties": { "tg_type": "INF.GARE", "nom": "", "source_id": "way/741740829", "source": "OSM_OSMFR_2026-10-03", "statut": "IMPORTE", "date_source": "2026-10-03", "geometrie_source": "Polygon", "railway": "station", "public_transport": null, "operator": null, "uic_ref": null }, "geometry": { "type": "Point", "coordinates": [ 10.384493, 3.692716 ] } },
{ "type": "Feature", "properties": { "tg_type": "INF.GARE", "nom": "Goyoum", "source_id": "way/781366073", "source": "OSM_OSMFR_2026-10-03", "statut": "IMPORTE", "date_source": "2026-10-03", "geometrie_source": "Polygon", "railway": "station", "public_transport": "station", "operator": "CAMRAIL", "uic_ref": null }, "geometry": { "type": "Point", "coordinates": [ 13.377585, 5.216935 ] } },
{ "type": "Feature", "properties": { "tg_type": "INF.GARE", "nom": "Tabene", "source_id": "way/1002646489", "source": "OSM_OSMFR_2026-10-03", "statut": "IMPORTE", "date_source": "2026-10-03", "geometrie_source": "Polygon", "railway": "station", "public_transport": null, "operator": null, "uic_ref": null }, "geometry": { "type": "Point", "coordinates": [ 12.14794, 4.555236 ] } },
{ "type": "Feature", "properties": { "tg_type": "INF.GARE", "nom": "Zing", "source_id": "way/1002651231", "source": "OSM_OSMFR_2026-10-03", "statut": "IMPORTE", "date_source": "2026-10-03", "geometrie_source": "Polygon", "railway": "station", "public_transport": null, "operator": null, "uic_ref": null }, "geometry": { "type": "Point", "coordinates": [ 12.92714, 4.968942 ] } },
{ "type": "Feature", "properties": { "tg_type": "INF.GARE", "nom": "Makor", "source_id": "way/1003013337", "source": "OSM_OSMFR_2026-10-03", "statut": "IMPORTE", "date_source": "2026-10-03", "geometrie_source": "Polygon", "railway": "station", "public_transport": null, "operator": "CAMRAIL", "uic_ref": null }, "geometry": { "type": "Point", "coordinates": [ 13.25395, 6.850534 ] } },
{ "type": "Feature", "properties": { "tg_type": "INF.GARE", "nom": "Tête d'éléphant", "source_id": "way/1003015881", "source": "OSM_OSMFR_2026-10-03", "statut": "IMPORTE", "date_source": "2026-10-03", "geometrie_source": "Polygon", "railway": "station", "public_transport": null, "operator": "CAMRAIL", "uic_ref": null }, "geometry": { "type": "Point", "coordinates": [ 13.370519, 5.543968 ] } },
{ "type": "Feature", "properties": { "tg_type": "INF.GARE", "nom": "Ouassa Bamvele", "source_id": "way/1003023267", "source": "OSM_OSMFR_2026-10-03", "statut": "IMPORTE", "date_source": "2026-10-03", "geometrie_source": "Polygon", "railway": "station", "public_transport": null, "operator": "CAMRAIL", "uic_ref": null }, "geometry": { "type": "Point", "coordinates": [ 12.615963, 4.900795 ] } },
{ "type": "Feature", "properties": { "tg_type": "INF.GARE", "nom": "Gare de Badjob", "source_id": "way/1117998086", "source": "OSM_OSMFR_2026-10-03", "statut": "IMPORTE", "date_source": "2026-10-03", "geometrie_source": "Polygon", "railway": "station", "public_transport": "station", "operator": null, "uic_ref": null }, "geometry": { "type": "Point", "coordinates": [ 10.671946, 3.659681 ] } }
]
}
