{
"type": "FeatureCollection",
"name": "lignes_electriques",
"crs": { "type": "name", "properties": { "name": "urn:ogc:def:crs:OGC:1.3:CRS84" } },
"xy_coordinate_resolution": 1e-06,
"features": [
{ "type": "Feature", "properties": { "tg_type": "INF.ENERGIE.LIGNE", "nom": "", "source_id": "way/161477330", "source": "OSM_OSMFR_2026-10-03", "statut": "IMPORTE", "date_source": "2026-10-03", "voltage": "30000", "cables": null, "circuits": null, "operator": "AES Sonel", "longueur_m": 453.5, "classe_tension": "MT_<60kV" }, "geometry": { "type": "LineString", "coordinates": [ [ 10.713982, 3.92472 ], [ 10.711638, 3.921362 ] ] } },
{ "type": "Feature", "properties": { "tg_type": "INF.ENERGIE.LIGNE", "nom": "", "source_id": "way/161477333", "source": "OSM_OSMFR_2026-10-03", "statut": "IMPORTE", "date_source": "2026-10-03", "voltage": "30000", "cables": null, "circuits": null, "operator": "AES Sonel", "longueur_m": 1472.4, "classe_tension": "MT_<60kV" }, "geometry": { "type": "LineString", "coordinates": [ [ 10.706392, 3.910872 ], [ 10.719622, 3.91002 ] ] } },
{ "type": "Feature", "properties": { "tg_type": "INF.ENERGIE.LIGNE", "nom": "", "source_id": "way/198988186", "source": "OSM_OSMFR_2026-10-03", "statut": "IMPORTE", "date_source": "2026-10-03", "voltage": null, "cables": null, "circuits": null, "operator": null, "longueur_m": 689.0, "classe_tension": "MT_<60kV" }, "geometry": { "type": "LineString", "coordinates": [ [ 14.912628, 12.374864 ], [ 14.918691, 12.376673 ] ] } },
{ "type": "Feature", "properties": { "tg_type": "INF.ENERGIE.LIGNE", "nom": "", "source_id": "way/204080856", "source": "OSM_OSMFR_2026-10-03", "statut": "IMPORTE", "date_source": "2026-10-03", "voltage": "90000", "cables": "3", "circuits": null, "operator": null, "longueur_m": 99318.4, "classe_tension": "HT_60-149kV" }, "geometry": { "type": "LineString", "coordinates": [ [ 14.337645, 10.625652 ], [ 14.33779, 10.625984 ], [ 14.33221, 10.628037 ], [ 14.315933, 10.618736 ], [ 14.312483, 10.616635 ], [ 14.285671, 10.601278 ], [ 14.237426, 10.547719 ], [ 14.213112, 10.468159 ], [ 14.230925, 10.423425 ], [ 14.247787, 10.356117 ], [ 14.195359, 10.180525 ], [ 14.167278, 10.134466 ], [ 14.137284, 10.071297 ], [ 14.095047, 10.017766 ], [ 14.079427, 9.998103 ], [ 14.077236, 9.995086 ], [ 14.07496, 9.992432 ], [ 14.068637, 9.984402 ], [ 14.01432, 9.931982 ], [ 13.959859, 9.916975 ], [ 13.942709, 9.912991 ], [ 13.942364, 9.913099 ] ] } },
{ "type": "Feature", "properties": { "tg_type": "INF.ENERGIE.LIGNE", "nom": "", "source_id": "way/221972354", "source": "OSM_OSMFR_2026-10-03", "statut": "IMPORTE", "date_source": "2026-10-03", "voltage": "90000", "cables": null, "circuits": null, "operator": "EDC", "longueur_m": 2581.1, "classe_tension": "HT_60-149kV" }, "geometry": { "type": "LineString", "coordinates": [ [ 11.467126, 3.882297 ], [ 11.46752, 3.882441 ], [ 11.468285, 3.880687 ], [ 11.470889, 3.877419 ], [ 11.477916, 3.87266 ], [ 11.482159, 3.869345 ], [ 11.483205, 3.86864 ], [ 11.484795, 3.869023 ] ] } },
{ "type": "Feature", "properties": { "tg_type": "INF.ENERGIE.LIGNE", "nom": "", "source_id": "way/221972355", "source": "OSM_OSMFR_2026-10-03", "statut": "IMPORTE", "date_source": "2026-10-03", "voltage": "90000", "cables": null, "circuits": null, "operator": "EDC", "longueur_m": 2859.6, "classe_tension": "HT_60-149kV" }, "geometry": { "type": "LineString", "coordinates": [ [ 11.477223, 3.762909 ], [ 11.491643, 3.783359 ], [ 11.491192, 3.783725 ], [ 11.49132, 3.783896 ] ] } },
{ "type": "Feature", "properties": { "tg_type": "INF.ENERGIE.LIGNE", "nom": "", "source_id": "way/221972356", "source": "OSM_OSMFR_2026-10-03", "statut": "IMPORTE", "date_source": "2026-10-03", "voltage": "90000", "cables": "3", "circuits": null, "operator": "EDC", "longueur_m": 21924.5, "classe_tension": "HT_60-149kV" }, "geometry": { "type": "LineString", "coordinates": [ [ 11.467049, 3.882396 ], [ 11.467331, 3.882713 ], [ 11.464854, 3.886158 ], [ 11.459441, 3.894154 ], [ 11.455356, 3.899978 ], [ 11.447956, 3.910816 ], [ 11.445062, 3.936507 ], [ 11.473071, 3.947194 ], [ 11.49212, 3.955793 ], [ 11.505515, 3.94625 ], [ 11.507653, 3.944465 ], [ 11.513441, 3.939991 ], [ 11.537369, 3.920862 ], [ 11.557415, 3.904959 ], [ 11.560591, 3.903001 ] ] } },
{ "type": "Feature", "properties": { "tg_type": "INF.ENERGIE.LIGNE", "nom": "", "source_id": "way/221972358", "source": "OSM_OSMFR_2026-10-03", "statut": "IMPORTE", "date_source": "2026-10-03", "voltage": "90000", "cables": null, "circuits": null, "operator": "EDC", "longueur_m": 88748.9, "classe_tension": "HT_60-149kV" }, "geometry": { "type": "LineString", "coordinates": [ [ 11.477223, 3.762909 ], [ 11.50932, 3.734891 ], [ 11.529962, 3.674396 ], [ 11.530807, 3.642217 ], [ 11.510243, 3.588048 ], [ 11.514828, 3.555345 ], [ 11.515129, 3.553416 ], [ 11.516235, 3.548388 ], [ 11.516719, 3.545187 ], [ 11.521036, 3.511395 ], [ 11.513765, 3.458551 ], [ 11.51381, 3.437657 ], [ 11.523921, 3.404882 ], [ 11.531533, 3.395923 ], [ 11.510925, 3.354148 ], [ 11.508524, 3.349659 ], [ 11.504939, 3.343352 ], [ 11.50009, 3.337388 ], [ 11.49421, 3.334248 ], [ 11.487494, 3.330521 ], [ 11.485386, 3.328211 ], [ 11.477838, 3.320303 ], [ 11.470214, 3.311965 ], [ 11.464126, 3.303422 ], [ 11.460147, 3.299037 ], [ 11.450816, 3.292249 ], [ 11.442804, 3.293622 ], [ 11.425876, 3.276041 ], [ 11.411448, 3.260048 ], [ 11.401223, 3.244849 ], [ 11.394954, 3.242564 ], [ 11.385824, 3.246773 ], [ 11.380427, 3.246067 ], [ 11.361748, 3.239657 ], [ 11.32732, 3.231205 ], [ 11.313224, 3.240718 ], [ 11.301303, 3.23734 ], [ 11.295397, 3.245399 ], [ 11.27236, 3.243455 ], [ 11.253108, 3.26649 ], [ 11.222995, 3.264744 ] ] } },
{ "type": "Feature", "properties": { "tg_type": "INF.ENERGIE.LIGNE", "nom": "", "source_id": "way/221972359", "source": "OSM_OSMFR_2026-10-03", "statut": "IMPORTE", "date_source": "2026-10-03", "voltage": null, "cables": "3", "circuits": null, "operator": "EDC", "longueur_m": 4250.6, "classe_tension": "MT_<60kV" }, "geometry": { "type": "LineString", "coordinates": [ [ 11.529596, 3.853575 ], [ 11.531392, 3.854483 ], [ 11.53325, 3.854803 ], [ 11.537848, 3.856362 ], [ 11.539874, 3.856039 ], [ 11.540838, 3.855468 ], [ 11.543449, 3.853601 ], [ 11.548598, 3.851675 ], [ 11.551276, 3.85213 ], [ 11.565595, 3.856387 ] ] } },
{ "type": "Feature", "properties": { "tg_type": "INF.ENERGIE.LIGNE", "nom": "", "source_id": "way/270877731", "source": "OSM_OSMFR_2026-10-03", "statut": "IMPORTE", "date_source": "2026-10-03", "voltage": null, "cables": null, "circuits": null, "operator": "EDC", "longueur_m": 2828.2, "classe_tension": "MT_<60kV" }, "geometry": { "type": "LineString", "coordinates": [ [ 11.455804, 3.78493 ], [ 11.460493, 3.784521 ], [ 11.461967, 3.784308 ], [ 11.464005, 3.784254 ], [ 11.465446, 3.78439 ], [ 11.467458, 3.785086 ], [ 11.468933, 3.785948 ], [ 11.470356, 3.78747 ], [ 11.47319, 3.791611 ], [ 11.47409, 3.79281 ], [ 11.475534, 3.793886 ], [ 11.476981, 3.794485 ] ] } },
{ "type": "Feature", "properties": { "tg_type": "INF.ENERGIE.LIGNE", "nom": "", "source_id": "way/276833231", "source": "OSM_OSMFR_2026-10-03", "statut": "IMPORTE", "date_source": "2026-10-03", "voltage": "90000", "cables": "3", "circuits": null, "operator": "EDC", "longueur_m": 72565.6, "classe_tension": "HT_60-149kV" }, "geometry": { "type": "LineString", "coordinates": [ [ 11.466705, 3.877234 ], [ 11.463664, 3.877047 ], [ 11.452681, 3.876926 ], [ 11.450384, 3.876503 ], [ 11.437934, 3.873309 ], [ 11.419671, 3.878079 ], [ 11.412231, 3.873752 ], [ 11.401487, 3.867694 ], [ 11.39237, 3.862023 ], [ 11.383617, 3.857211 ], [ 11.360436, 3.848883 ], [ 11.34085, 3.850925 ], [ 11.324803, 3.846537 ], [ 11.316505, 3.84455 ], [ 11.301648, 3.842073 ], [ 11.293856, 3.841043 ], [ 11.287084, 3.840048 ], [ 11.272001, 3.843848 ], [ 11.263344, 3.839945 ], [ 11.259557, 3.82875 ], [ 11.231921, 3.818436 ], [ 11.210991, 3.819818 ], [ 11.201352, 3.814633 ], [ 11.181238, 3.805604 ], [ 11.170246, 3.808603 ], [ 11.160142, 3.80157 ], [ 11.14486, 3.798552 ], [ 11.132301, 3.803647 ], [ 11.120262, 3.810147 ], [ 11.111968, 3.81497 ], [ 11.107476, 3.817395 ], [ 11.089617, 3.815042 ], [ 11.076788, 3.81755 ], [ 11.067352, 3.819306 ], [ 11.058523, 3.820692 ], [ 11.037805, 3.814652 ], [ 11.024273, 3.814565 ], [ 11.020763, 3.817896 ], [ 11.016959, 3.821711 ], [ 11.006628, 3.824834 ], [ 11.000606, 3.82681 ], [ 10.992796, 3.829194 ], [ 10.970698, 3.851809 ], [ 10.965125, 3.854626 ], [ 10.950868, 3.852304 ], [ 10.932998, 3.861401 ], [ 10.920509, 3.86229 ], [ 10.897925, 3.877829 ], [ 10.887829, 3.884648 ], [ 10.873667, 3.88793 ], [ 10.869883, 3.888971 ] ] } },
{ "type": "Feature", "properties": { "tg_type": "INF.ENERGIE.LIGNE", "nom": "", "source_id": "way/311823269", "source": "OSM_OSMFR_2026-10-03", "statut": "IMPORTE", "date_source": "2026-10-03", "voltage": null, "cables": null, "circuits": null, "operator": null, "longueur_m": 3531.4, "classe_tension": "MT_<60kV" }, "geometry": { "type": "LineString", "coordinates": [ [ 10.76785, 3.229321 ], [ 10.756221, 3.236514 ], [ 10.742358, 3.234964 ], [ 10.738189, 3.235022 ] ] } },
{ "type": "Feature", "properties": { "tg_type": "INF.ENERGIE.LIGNE", "nom": "", "source_id": "way/320679319", "source": "OSM_OSMFR_2026-10-03", "statut": "IMPORTE", "date_source": "2026-10-03", "voltage": "225000", "cables": "3", "circuits": null, "operator": null, "longueur_m": 295.0, "classe_tension": "THT_>=150kV" }, "geometry": { "type": "LineString", "coordinates": [ [ 10.463097, 4.079979 ], [ 10.462464, 4.080125 ], [ 10.460462, 4.080262 ] ] } },
{ "type": "Feature", "properties": { "tg_type": "INF.ENERGIE.LIGNE", "nom": "", "source_id": "way/320679320", "source": "OSM_OSMFR_2026-10-03", "statut": "IMPORTE", "date_source": "2026-10-03", "voltage": "225000", "cables": "3", "circuits": null, "operator": null, "longueur_m": 298.2, "classe_tension": "THT_>=150kV" }, "geometry": { "type": "LineString", "coordinates": [ [ 10.463104, 4.079829 ], [ 10.462467, 4.079841 ], [ 10.460462, 4.080262 ] ] } },
{ "type": "Feature", "properties": { "tg_type": "INF.ENERGIE.LIGNE", "nom": "Ligne 90kV Mamgombe", "source_id": "way/320679321", "source": "OSM_OSMFR_2026-10-03", "statut": "IMPORTE", "date_source": "2026-10-03", "voltage": "90000", "cables": null, "circuits": null, "operator": "SONATREL", "longueur_m": 3413.1, "classe_tension": "HT_60-149kV" }, "geometry": { "type": "LineString", "coordinates": [ [ 9.819578, 3.962514 ], [ 9.821074, 3.95788 ], [ 9.822189, 3.953362 ], [ 9.824269, 3.949668 ], [ 9.823186, 3.932607 ] ] } },
{ "type": "Feature", "properties": { "tg_type": "INF.ENERGIE.LIGNE", "nom": "", "source_id": "way/330510065", "source": "OSM_OSMFR_2026-10-03", "statut": "IMPORTE", "date_source": "2026-10-03", "voltage": "110000", "cables": "3", "circuits": null, "operator": null, "longueur_m": 50011.8, "classe_tension": "HT_60-149kV" }, "geometry": { "type": "LineString", "coordinates": [ [ 13.687719, 9.060587 ], [ 13.687705, 9.060392 ], [ 13.685219, 9.061365 ], [ 13.684174, 9.062817 ], [ 13.683014, 9.065367 ], [ 13.671162, 9.068738 ], [ 13.668313, 9.069135 ], [ 13.602166, 9.073703 ], [ 13.595782, 9.074221 ], [ 13.590216, 9.077431 ], [ 13.511073, 9.124006 ], [ 13.505864, 9.187663 ], [ 13.496834, 9.203437 ], [ 13.443404, 9.254286 ], [ 13.396503, 9.279576 ], [ 13.372935, 9.292373 ], [ 13.365177, 9.301039 ], [ 13.36582, 9.313347 ], [ 13.366218, 9.313371 ] ] } },
{ "type": "Feature", "properties": { "tg_type": "INF.ENERGIE.LIGNE", "nom": "", "source_id": "way/330510066", "source": "OSM_OSMFR_2026-10-03", "statut": "IMPORTE", "date_source": "2026-10-03", "voltage": "110000", "cables": "3", "circuits": null, "operator": null, "longueur_m": 49902.2, "classe_tension": "HT_60-149kV" }, "geometry": { "type": "LineString", "coordinates": [ [ 13.366209, 9.3131 ], [ 13.365969, 9.313102 ], [ 13.365548, 9.301004 ], [ 13.373308, 9.292576 ], [ 13.443643, 9.254462 ], [ 13.456833, 9.241912 ], [ 13.464368, 9.234854 ], [ 13.497112, 9.203652 ], [ 13.506209, 9.187753 ], [ 13.511419, 9.124205 ], [ 13.547418, 9.10304 ], [ 13.559207, 9.096186 ], [ 13.595926, 9.074555 ], [ 13.602155, 9.07405 ], [ 13.669919, 9.069385 ], [ 13.683702, 9.065423 ], [ 13.686581, 9.06405 ], [ 13.687999, 9.061342 ], [ 13.688098, 9.060878 ] ] } },
{ "type": "Feature", "properties": { "tg_type": "INF.ENERGIE.LIGNE", "nom": "", "source_id": "way/332290654", "source": "OSM_OSMFR_2026-10-03", "statut": "IMPORTE", "date_source": "2026-10-03", "voltage": "110000", "cables": "3", "circuits": null, "operator": null, "longueur_m": 237206.1, "classe_tension": "HT_60-149kV" }, "geometry": { "type": "LineString", "coordinates": [ [ 13.688068, 9.060632 ], [ 13.688018, 9.060262 ], [ 13.686469, 9.060626 ], [ 13.685061, 9.06126 ], [ 13.684051, 9.06273 ], [ 13.682807, 9.06516 ], [ 13.679564, 9.066101 ], [ 13.678305, 9.066604 ], [ 13.673855, 9.06761 ], [ 13.670702, 9.068449 ], [ 13.665974, 9.068913 ], [ 13.660976, 9.069259 ], [ 13.645581, 9.050648 ], [ 13.632849, 9.035385 ], [ 13.626508, 9.027943 ], [ 13.624582, 9.025505 ], [ 13.590143, 8.984186 ], [ 13.540263, 8.980337 ], [ 13.537346, 8.973428 ], [ 13.525332, 8.945836 ], [ 13.507838, 8.905967 ], [ 13.507005, 8.898753 ], [ 13.506574, 8.892703 ], [ 13.505315, 8.877535 ], [ 13.505032, 8.874845 ], [ 13.504136, 8.863359 ], [ 13.503817, 8.860449 ], [ 13.502879, 8.849537 ], [ 13.501397, 8.830762 ], [ 13.502854, 8.825155 ], [ 13.507864, 8.806793 ], [ 13.510809, 8.795558 ], [ 13.512627, 8.789137 ], [ 13.514977, 8.78012 ], [ 13.517404, 8.771264 ], [ 13.52764, 8.742364 ], [ 13.529885, 8.736278 ], [ 13.533775, 8.725067 ], [ 13.538, 8.713282 ], [ 13.539235, 8.710084 ], [ 13.54152, 8.703246 ], [ 13.543508, 8.697751 ], [ 13.529734, 8.644596 ], [ 13.527364, 8.635768 ], [ 13.522692, 8.617544 ], [ 13.510716, 8.571775 ], [ 13.532817, 8.522037 ], [ 13.633968, 8.512372 ], [ 13.695867, 8.487523 ], [ 13.698488, 8.486569 ], [ 13.705994, 8.483474 ], [ 13.709326, 8.482252 ], [ 13.730588, 8.473616 ], [ 13.735831, 8.41685 ], [ 13.713326, 8.397951 ], [ 13.712079, 8.395212 ], [ 13.710691, 8.392583 ], [ 13.708288, 8.387626 ], [ 13.707363, 8.385935 ], [ 13.703599, 8.377871 ], [ 13.70061, 8.371981 ], [ 13.693901, 8.358151 ], [ 13.688214, 8.346662 ], [ 13.682816, 8.332207 ], [ 13.68221, 8.330197 ], [ 13.681042, 8.327446 ], [ 13.677787, 8.318865 ], [ 13.671295, 8.301449 ], [ 13.668687, 8.294185 ], [ 13.662979, 8.279139 ], [ 13.658043, 8.265622 ], [ 13.654945, 8.257566 ], [ 13.653968, 8.254805 ], [ 13.653009, 8.252463 ], [ 13.644509, 8.229686 ], [ 13.64196, 8.222606 ], [ 13.640695, 8.219372 ], [ 13.63961, 8.205074 ], [ 13.639343, 8.202595 ], [ 13.638316, 8.187845 ], [ 13.635737, 8.154551 ], [ 13.621869, 8.135613 ], [ 13.619988, 8.133171 ], [ 13.60676, 8.115007 ], [ 13.601688, 8.108248 ], [ 13.596789, 8.101553 ], [ 13.592348, 8.096773 ], [ 13.589299, 8.092217 ], [ 13.587889, 8.089964 ], [ 13.583486, 8.083466 ], [ 13.587647, 8.076203 ], [ 13.589212, 8.07328 ], [ 13.593901, 8.065157 ], [ 13.601114, 8.052158 ], [ 13.592726, 8.040221 ], [ 13.590875, 8.037774 ], [ 13.586907, 8.032058 ], [ 13.583154, 8.026968 ], [ 13.557253, 7.990346 ], [ 13.561638, 7.982018 ], [ 13.563999, 7.977274 ], [ 13.575644, 7.95482 ], [ 13.604322, 7.907695 ], [ 13.589353, 7.862241 ], [ 13.57238, 7.814095 ], [ 13.52232, 7.759374 ], [ 13.555642, 7.679792 ], [ 13.55579, 7.678351 ], [ 13.555663, 7.677126 ], [ 13.556831, 7.629459 ], [ 13.557817, 7.583114 ], [ 13.558174, 7.571761 ], [ 13.558375, 7.560443 ], [ 13.568207, 7.54373 ], [ 13.554123, 7.483287 ], [ 13.589496, 7.42314 ], [ 13.587763, 7.395082 ], [ 13.574781, 7.37327 ], [ 13.57178, 7.356812 ], [ 13.57154, 7.356072 ], [ 13.570788, 7.354475 ], [ 13.562976, 7.335716 ], [ 13.564862, 7.333033 ], [ 13.564602, 7.329559 ], [ 13.564454, 7.329519 ] ] } },
{ "type": "Feature", "properties": { "tg_type": "INF.ENERGIE.LIGNE", "nom": "", "source_id": "way/338366335", "source": "OSM_OSMFR_2026-10-03", "statut": "IMPORTE", "date_source": "2026-10-03", "voltage": null, "cables": "3", "circuits": null, "operator": null, "longueur_m": 94727.7, "classe_tension": "MT_<60kV" }, "geometry": { "type": "LineString", "coordinates": [ [ 9.607822, 4.26451 ], [ 9.602861, 4.29738 ], [ 9.599576, 4.328001 ], [ 9.58809, 4.347433 ], [ 9.583878, 4.354716 ], [ 9.567975, 4.381468 ], [ 9.572108, 4.395439 ], [ 9.564798, 4.413386 ], [ 9.564094, 4.415321 ], [ 9.563601, 4.416349 ], [ 9.560644, 4.423539 ], [ 9.562331, 4.433507 ], [ 9.565356, 4.452305 ], [ 9.569697, 4.478044 ], [ 9.580971, 4.491542 ], [ 9.585087, 4.512393 ], [ 9.60612, 4.541581 ], [ 9.608641, 4.543808 ], [ 9.613586, 4.548558 ], [ 9.635983, 4.569419 ], [ 9.643449, 4.571308 ], [ 9.645651, 4.578214 ], [ 9.655277, 4.594615 ], [ 9.684333, 4.62333 ], [ 9.689095, 4.634164 ], [ 9.694397, 4.645816 ], [ 9.70127, 4.661351 ], [ 9.703744, 4.671506 ], [ 9.707881, 4.689307 ], [ 9.710649, 4.695236 ], [ 9.717036, 4.70805 ], [ 9.72382, 4.722066 ], [ 9.727981, 4.726677 ], [ 9.739021, 4.738186 ], [ 9.741738, 4.750229 ], [ 9.767931, 4.805587 ], [ 9.774977, 4.831776 ], [ 9.809564, 4.841859 ], [ 9.822205, 4.843485 ], [ 9.837278, 4.85696 ], [ 9.860761, 4.877776 ], [ 9.874174, 4.872417 ], [ 9.880598, 4.870911 ], [ 9.892922, 4.877725 ], [ 9.901027, 4.891082 ], [ 9.905323, 4.898613 ], [ 9.917432, 4.918918 ], [ 9.921521, 4.925926 ], [ 9.921157, 4.934905 ], [ 9.925944, 4.942289 ] ] } },
{ "type": "Feature", "properties": { "tg_type": "INF.ENERGIE.LIGNE", "nom": "", "source_id": "way/338366336", "source": "OSM_OSMFR_2026-10-03", "statut": "IMPORTE", "date_source": "2026-10-03", "voltage": "90000", "cables": "3", "circuits": null, "operator": null, "longueur_m": 67159.2, "classe_tension": "HT_60-149kV" }, "geometry": { "type": "LineString", "coordinates": [ [ 9.584096, 4.124472 ], [ 9.585157, 4.161593 ], [ 9.587726, 4.16981 ], [ 9.604792, 4.229869 ], [ 9.608329, 4.236274 ], [ 9.610629, 4.244849 ], [ 9.602707, 4.296513 ], [ 9.599973, 4.321819 ], [ 9.599322, 4.327202 ], [ 9.59558, 4.330862 ], [ 9.575598, 4.34927 ], [ 9.57461, 4.351806 ], [ 9.56813, 4.367293 ], [ 9.562121, 4.381928 ], [ 9.564154, 4.38551 ], [ 9.565661, 4.388586 ], [ 9.570955, 4.397252 ], [ 9.570162, 4.399363 ], [ 9.560448, 4.423423 ], [ 9.563774, 4.443702 ], [ 9.565007, 4.452286 ], [ 9.569219, 4.478267 ], [ 9.580708, 4.491614 ], [ 9.585205, 4.517248 ], [ 9.589411, 4.522677 ], [ 9.595634, 4.530465 ], [ 9.597562, 4.533197 ], [ 9.60496, 4.542557 ], [ 9.623363, 4.563175 ], [ 9.676655, 4.616207 ], [ 9.68409, 4.623704 ], [ 9.700939, 4.661143 ] ] } },
{ "type": "Feature", "properties": { "tg_type": "INF.ENERGIE.LIGNE", "nom": "", "source_id": "way/449361662", "source": "OSM_OSMFR_2026-10-03", "statut": "IMPORTE", "date_source": "2026-10-03", "voltage": null, "cables": null, "circuits": null, "operator": null, "longueur_m": 33608.3, "classe_tension": "MT_<60kV" }, "geometry": { "type": "LineString", "coordinates": [ [ 12.418609, 3.260152 ], [ 12.419414, 3.260888 ], [ 12.420208, 3.261456 ], [ 12.420285, 3.261434 ], [ 12.421278, 3.259803 ], [ 12.421028, 3.259549 ], [ 12.421109, 3.259182 ], [ 12.421004, 3.258984 ], [ 12.420591, 3.258657 ], [ 12.419752, 3.258382 ], [ 12.41163, 3.2541 ], [ 12.382724, 3.238574 ], [ 12.38009, 3.237433 ], [ 12.356348, 3.228927 ], [ 12.355219, 3.226471 ], [ 12.350691, 3.224655 ], [ 12.348376, 3.226069 ], [ 12.337256, 3.222149 ], [ 12.33488, 3.221691 ], [ 12.296939, 3.215087 ], [ 12.290876, 3.215044 ], [ 12.287722, 3.213852 ], [ 12.249261, 3.198574 ], [ 12.146078, 3.15745 ], [ 12.146384, 3.156366 ] ] } },
{ "type": "Feature", "properties": { "tg_type": "INF.ENERGIE.LIGNE", "nom": "", "source_id": "way/605873331", "source": "OSM_OSMFR_2026-10-03", "statut": "IMPORTE", "date_source": "2026-10-03", "voltage": null, "cables": null, "circuits": null, "operator": null, "longueur_m": 2018.1, "classe_tension": "MT_<60kV" }, "geometry": { "type": "LineString", "coordinates": [ [ 9.68427, 4.069712 ], [ 9.686538, 4.070259 ], [ 9.689652, 4.071245 ], [ 9.693053, 4.072719 ], [ 9.696491, 4.072971 ], [ 9.698128, 4.072403 ], [ 9.69985, 4.071328 ], [ 9.701051, 4.070169 ] ] } },
{ "type": "Feature", "properties": { "tg_type": "INF.ENERGIE.LIGNE", "nom": "1x 220 kV", "source_id": "way/640947887", "source": "OSM_OSMFR_2026-10-03", "statut": "IMPORTE", "date_source": "2026-10-03", "voltage": "220000", "cables": "3", "circuits": null, "operator": null, "longueur_m": 22.4, "classe_tension": "THT_>=150kV" }, "geometry": { "type": "LineString", "coordinates": [ [ 11.309167, 2.162145 ], [ 11.309142, 2.161944 ] ] } },
{ "type": "Feature", "properties": { "tg_type": "INF.ENERGIE.LIGNE", "nom": "1x 220kV", "source_id": "way/642937157", "source": "OSM_OSMFR_2026-10-03", "statut": "IMPORTE", "date_source": "2026-10-03", "voltage": "220000", "cables": "3", "circuits": null, "operator": null, "longueur_m": 16644.0, "classe_tension": "THT_>=150kV" }, "geometry": { "type": "MultiLineString", "coordinates": [ [ [ 11.10367, 2.161732 ], [ 11.092085, 2.16235 ], [ 11.089117, 2.161655 ] ], [ [ 11.255919, 2.161999 ], [ 11.247122, 2.168069 ], [ 11.219006, 2.171006 ], [ 11.202131, 2.180579 ], [ 11.199539, 2.180142 ], [ 11.176464, 2.175499 ], [ 11.164634, 2.173017 ], [ 11.132797, 2.165663 ], [ 11.128843, 2.161864 ] ], [ [ 11.308718, 2.162232 ], [ 11.308678, 2.161945 ] ] ] } },
{ "type": "Feature", "properties": { "tg_type": "INF.ENERGIE.LIGNE", "nom": "", "source_id": "way/663018909", "source": "OSM_OSMFR_2026-10-03", "statut": "IMPORTE", "date_source": "2026-10-03", "voltage": "90000", "cables": null, "circuits": null, "operator": "EDC", "longueur_m": 15017.7, "classe_tension": "HT_60-149kV" }, "geometry": { "type": "LineString", "coordinates": [ [ 11.467258, 3.882125 ], [ 11.467462, 3.88222 ], [ 11.468011, 3.880563 ], [ 11.47069, 3.877109 ], [ 11.467032, 3.877001 ], [ 11.465025, 3.871428 ], [ 11.461632, 3.865264 ], [ 11.460177, 3.857889 ], [ 11.453621, 3.83957 ], [ 11.451361, 3.83376 ], [ 11.458049, 3.788825 ], [ 11.458643, 3.784022 ], [ 11.459463, 3.778391 ], [ 11.477223, 3.762909 ] ] } },
{ "type": "Feature", "properties": { "tg_type": "INF.ENERGIE.LIGNE", "nom": "", "source_id": "way/663019337", "source": "OSM_OSMFR_2026-10-03", "statut": "IMPORTE", "date_source": "2026-10-03", "voltage": "225000", "cables": "3", "circuits": null, "operator": null, "longueur_m": 87313.5, "classe_tension": "THT_>=150kV" }, "geometry": { "type": "LineString", "coordinates": [ [ 10.463118, 4.080103 ], [ 10.462464, 4.080125 ], [ 10.460484, 4.080532 ], [ 10.438082, 4.081531 ], [ 10.42734, 4.089211 ], [ 10.422158, 4.093143 ], [ 10.419193, 4.091684 ], [ 10.412452, 4.088145 ], [ 10.405697, 4.08452 ], [ 10.402154, 4.08249 ], [ 10.398777, 4.083362 ], [ 10.38712, 4.08677 ], [ 10.356492, 4.061817 ], [ 10.354451, 4.056939 ], [ 10.349454, 4.04285 ], [ 10.303373, 4.022847 ], [ 10.297837, 4.019027 ], [ 10.294683, 4.01596 ], [ 10.278551, 3.999542 ], [ 10.271152, 3.991021 ], [ 10.262193, 3.982073 ], [ 10.229548, 3.979721 ], [ 10.218003, 3.974965 ], [ 10.181032, 3.972154 ], [ 10.159154, 3.968482 ], [ 10.14993, 3.96898 ], [ 10.141668, 3.969558 ], [ 10.120962, 3.970629 ], [ 10.113698, 3.971097 ], [ 10.061776, 3.969625 ], [ 10.0082, 4.006883 ], [ 9.996496, 4.014871 ], [ 9.991384, 4.0185 ], [ 9.960204, 4.023241 ], [ 9.913552, 4.033134 ], [ 9.877186, 4.061826 ], [ 9.861477, 4.065921 ], [ 9.837028, 4.095341 ], [ 9.818269, 4.091726 ], [ 9.809276, 4.089917 ], [ 9.790685, 4.077851 ], [ 9.784937, 4.07399 ], [ 9.779459, 4.06799 ], [ 9.77761, 4.066097 ] ] } },
{ "type": "Feature", "properties": { "tg_type": "INF.ENERGIE.LIGNE", "nom": "", "source_id": "way/663019347", "source": "OSM_OSMFR_2026-10-03", "statut": "IMPORTE", "date_source": "2026-10-03", "voltage": "225000", "cables": "3", "circuits": null, "operator": null, "longueur_m": 184.2, "classe_tension": "THT_>=150kV" }, "geometry": { "type": "LineString", "coordinates": [ [ 10.464703, 4.078537 ], [ 10.463914, 4.079655 ], [ 10.463642, 4.079767 ] ] } },
{ "type": "Feature", "properties": { "tg_type": "INF.ENERGIE.LIGNE", "nom": "", "source_id": "way/663019349", "source": "OSM_OSMFR_2026-10-03", "statut": "IMPORTE", "date_source": "2026-10-03", "voltage": "225000", "cables": "3", "circuits": null, "operator": null, "longueur_m": 239.7, "classe_tension": "THT_>=150kV" }, "geometry": { "type": "LineString", "coordinates": [ [ 10.465393, 4.078719 ], [ 10.46368, 4.080029 ] ] } },
{ "type": "Feature", "properties": { "tg_type": "INF.ENERGIE.LIGNE", "nom": "", "source_id": "way/663019357", "source": "OSM_OSMFR_2026-10-03", "statut": "IMPORTE", "date_source": "2026-10-03", "voltage": "225000", "cables": "3", "circuits": null, "operator": null, "longueur_m": 57816.7, "classe_tension": "THT_>=150kV" }, "geometry": { "type": "LineString", "coordinates": [ [ 10.108007, 3.81622 ], [ 10.108696, 3.820653 ], [ 10.110053, 3.826768 ], [ 10.116155, 3.833104 ], [ 10.128016, 3.845682 ], [ 10.140738, 3.859422 ], [ 10.155246, 3.88124 ], [ 10.192925, 3.86452 ], [ 10.205288, 3.869345 ], [ 10.211838, 3.892096 ], [ 10.222419, 3.897882 ], [ 10.228407, 3.93749 ], [ 10.228505, 3.950266 ], [ 10.232928, 3.95417 ], [ 10.255198, 3.974335 ], [ 10.300174, 4.019187 ], [ 10.303658, 4.022478 ], [ 10.32732, 4.032512 ], [ 10.349861, 4.042625 ], [ 10.355014, 4.056955 ], [ 10.356932, 4.061503 ], [ 10.367787, 4.070295 ], [ 10.375924, 4.077029 ], [ 10.387233, 4.086166 ], [ 10.398517, 4.082872 ], [ 10.402701, 4.081783 ], [ 10.406082, 4.083555 ], [ 10.418864, 4.090829 ], [ 10.422179, 4.092405 ], [ 10.426775, 4.088937 ], [ 10.437893, 4.080987 ], [ 10.460431, 4.079975 ], [ 10.462467, 4.079841 ], [ 10.463083, 4.0797 ] ] } },
{ "type": "Feature", "properties": { "tg_type": "INF.ENERGIE.LIGNE", "nom": "", "source_id": "way/663222677", "source": "OSM_OSMFR_2026-10-03", "statut": "IMPORTE", "date_source": "2026-10-03", "voltage": "225000", "cables": "3", "circuits": null, "operator": null, "longueur_m": 55819.4, "classe_tension": "THT_>=150kV" }, "geometry": { "type": "LineString", "coordinates": [ [ 10.109788, 3.826807 ], [ 10.111204, 3.831771 ], [ 10.110587, 3.835977 ], [ 10.106489, 3.86133 ], [ 10.10489, 3.871865 ], [ 10.101628, 3.895526 ], [ 10.115234, 3.930324 ], [ 10.075337, 3.960156 ], [ 10.063613, 3.968657 ], [ 10.050634, 3.977599 ], [ 10.008467, 4.007053 ], [ 10.004835, 4.009461 ], [ 9.997006, 4.01485 ], [ 9.991475, 4.018748 ], [ 9.960263, 4.023503 ], [ 9.913671, 4.033392 ], [ 9.898404, 4.045496 ], [ 9.877248, 4.062076 ], [ 9.861635, 4.06617 ], [ 9.837154, 4.095618 ], [ 9.809175, 4.090172 ], [ 9.804839, 4.08739 ], [ 9.784783, 4.074163 ], [ 9.78249, 4.072196 ], [ 9.779954, 4.06948 ] ] } },
{ "type": "Feature", "properties": { "tg_type": "INF.ENERGIE.LIGNE", "nom": "", "source_id": "way/663222689", "source": "OSM_OSMFR_2026-10-03", "statut": "IMPORTE", "date_source": "2026-10-03", "voltage": "225000", "cables": "6", "circuits": null, "operator": null, "longueur_m": 56381.8, "classe_tension": "THT_>=150kV" }, "geometry": { "type": "LineString", "coordinates": [ [ 10.460462, 4.080262 ], [ 10.437985, 4.081251 ], [ 10.426859, 4.089229 ], [ 10.422179, 4.092806 ], [ 10.41884, 4.091213 ], [ 10.405445, 4.084073 ], [ 10.402154, 4.082211 ], [ 10.398772, 4.083086 ], [ 10.387198, 4.086447 ], [ 10.378384, 4.079424 ], [ 10.366159, 4.069318 ], [ 10.356696, 4.061669 ], [ 10.354789, 4.057086 ], [ 10.349647, 4.042732 ], [ 10.326827, 4.032747 ], [ 10.30355, 4.022676 ], [ 10.300297, 4.019693 ], [ 10.255032, 3.974523 ], [ 10.228233, 3.950388 ], [ 10.228151, 3.937494 ], [ 10.22218, 3.898057 ], [ 10.211642, 3.892284 ], [ 10.205087, 3.869527 ], [ 10.192925, 3.864814 ], [ 10.168997, 3.875494 ], [ 10.155149, 3.881566 ], [ 10.140612, 3.859561 ], [ 10.115975, 3.833283 ], [ 10.109788, 3.826807 ] ] } },
{ "type": "Feature", "properties": { "tg_type": "INF.ENERGIE.LIGNE", "nom": "", "source_id": "way/663222704", "source": "OSM_OSMFR_2026-10-03", "statut": "IMPORTE", "date_source": "2026-10-03", "voltage": "225000", "cables": "6", "circuits": "2", "operator": null, "longueur_m": 99782.4, "classe_tension": "THT_>=150kV" }, "geometry": { "type": "LineString", "coordinates": [ [ 9.974925, 3.026825 ], [ 9.974874, 3.029433 ], [ 9.965864, 3.042314 ], [ 9.9791, 3.077617 ], [ 9.984616, 3.092569 ], [ 10.020479, 3.152688 ], [ 10.027331, 3.172161 ], [ 10.029492, 3.185261 ], [ 10.024143, 3.202066 ], [ 10.018794, 3.215616 ], [ 10.030448, 3.230689 ], [ 10.032331, 3.232218 ], [ 10.04231, 3.240875 ], [ 10.044236, 3.243053 ], [ 10.048767, 3.248452 ], [ 10.055181, 3.2558 ], [ 10.061138, 3.262891 ], [ 10.079055, 3.277523 ], [ 10.096149, 3.34294 ], [ 10.102454, 3.355337 ], [ 10.102988, 3.360473 ], [ 10.105037, 3.375106 ], [ 10.105448, 3.378589 ], [ 10.117142, 3.401723 ], [ 10.124568, 3.410958 ], [ 10.132231, 3.447407 ], [ 10.136325, 3.473477 ], [ 10.108822, 3.517664 ], [ 10.111697, 3.529902 ], [ 10.118043, 3.564816 ], [ 10.114744, 3.575985 ], [ 10.114764, 3.597016 ], [ 10.116418, 3.606593 ], [ 10.117182, 3.633666 ], [ 10.116033, 3.65185 ], [ 10.114983, 3.658001 ], [ 10.111113, 3.673958 ], [ 10.105221, 3.696589 ], [ 10.115878, 3.732492 ], [ 10.116262, 3.741217 ], [ 10.117091, 3.743993 ], [ 10.11781, 3.746934 ], [ 10.121015, 3.758534 ], [ 10.118481, 3.77558 ], [ 10.110799, 3.784406 ], [ 10.105974, 3.790083 ], [ 10.088183, 3.820031 ], [ 10.093153, 3.827704 ], [ 10.10651, 3.825247 ], [ 10.107726, 3.816952 ] ] } },
{ "type": "Feature", "properties": { "tg_type": "INF.ENERGIE.LIGNE", "nom": "", "source_id": "way/663247240", "source": "OSM_OSMFR_2026-10-03", "statut": "IMPORTE", "date_source": "2026-10-03", "voltage": "90000", "cables": "3", "circuits": null, "operator": "EDC", "longueur_m": 85183.9, "classe_tension": "HT_60-149kV" }, "geometry": { "type": "LineString", "coordinates": [ [ 10.147258, 3.798365 ], [ 10.162498, 3.807721 ], [ 10.182139, 3.815251 ], [ 10.20041, 3.808105 ], [ 10.226673, 3.819774 ], [ 10.230513, 3.820645 ], [ 10.235833, 3.821722 ], [ 10.249281, 3.824265 ], [ 10.265207, 3.820876 ], [ 10.274143, 3.824481 ], [ 10.280241, 3.821647 ], [ 10.281315, 3.821284 ], [ 10.290455, 3.81689 ], [ 10.326183, 3.816433 ], [ 10.341966, 3.816598 ], [ 10.347812, 3.816576 ], [ 10.353725, 3.816113 ], [ 10.370101, 3.814255 ], [ 10.374793, 3.815147 ], [ 10.379924, 3.819774 ], [ 10.411719, 3.834282 ], [ 10.417244, 3.835756 ], [ 10.443766, 3.833586 ], [ 10.445756, 3.833875 ], [ 10.45576, 3.839968 ], [ 10.463076, 3.84567 ], [ 10.473861, 3.846031 ], [ 10.480785, 3.852121 ], [ 10.490693, 3.852608 ], [ 10.496686, 3.850454 ], [ 10.521087, 3.854635 ], [ 10.5251, 3.855789 ], [ 10.553597, 3.858086 ], [ 10.563647, 3.859331 ], [ 10.586204, 3.863532 ], [ 10.628959, 3.87493 ], [ 10.646345, 3.872444 ], [ 10.671078, 3.879133 ], [ 10.691119, 3.882749 ], [ 10.700555, 3.882364 ], [ 10.718809, 3.886821 ], [ 10.737234, 3.885369 ], [ 10.76246, 3.88428 ], [ 10.770899, 3.890293 ], [ 10.785731, 3.897071 ], [ 10.794604, 3.893298 ], [ 10.813578, 3.87357 ], [ 10.824739, 3.872219 ], [ 10.837388, 3.87262 ], [ 10.842326, 3.88126 ], [ 10.851701, 3.888651 ], [ 10.856986, 3.889023 ], [ 10.866857, 3.889875 ] ] } },
{ "type": "Feature", "properties": { "tg_type": "INF.ENERGIE.LIGNE", "nom": "", "source_id": "way/664829076", "source": "OSM_OSMFR_2026-10-03", "statut": "IMPORTE", "date_source": "2026-10-03", "voltage": "110000", "cables": "3", "circuits": null, "operator": null, "longueur_m": 102.8, "classe_tension": "HT_60-149kV" }, "geometry": { "type": "LineString", "coordinates": [ [ 13.687002, 9.060834 ], [ 13.687673, 9.061041 ], [ 13.687751, 9.060822 ] ] } },
{ "type": "Feature", "properties": { "tg_type": "INF.ENERGIE.LIGNE", "nom": "", "source_id": "way/664829077", "source": "OSM_OSMFR_2026-10-03", "statut": "IMPORTE", "date_source": "2026-10-03", "voltage": "110000", "cables": "3", "circuits": null, "operator": null, "longueur_m": 176.2, "classe_tension": "HT_60-149kV" }, "geometry": { "type": "LineString", "coordinates": [ [ 13.688016, 9.060865 ], [ 13.687884, 9.061275 ], [ 13.686762, 9.060945 ] ] } },
{ "type": "Feature", "properties": { "tg_type": "INF.ENERGIE.LIGNE", "nom": "", "source_id": "way/664894426", "source": "OSM_OSMFR_2026-10-03", "statut": "IMPORTE", "date_source": "2026-10-03", "voltage": "90000", "cables": "3", "circuits": null, "operator": null, "longueur_m": 101153.4, "classe_tension": "HT_60-149kV" }, "geometry": { "type": "LineString", "coordinates": [ [ 13.942267, 9.913045 ], [ 13.942612, 9.91293 ], [ 13.938515, 9.892075 ], [ 13.938358, 9.891183 ], [ 13.938355, 9.890431 ], [ 13.937905, 9.888968 ], [ 13.93731, 9.885901 ], [ 13.923156, 9.864435 ], [ 13.90572, 9.830096 ], [ 13.863915, 9.789501 ], [ 13.839557, 9.739903 ], [ 13.840567, 9.713302 ], [ 13.831677, 9.691896 ], [ 13.736855, 9.518006 ], [ 13.652974, 9.473873 ], [ 13.595182, 9.441986 ], [ 13.528064, 9.416602 ], [ 13.511436, 9.405209 ], [ 13.458343, 9.374009 ], [ 13.437248, 9.346748 ], [ 13.41954, 9.333328 ], [ 13.411934, 9.313803 ], [ 13.402663, 9.293634 ], [ 13.392469, 9.289354 ], [ 13.382767, 9.290318 ], [ 13.373434, 9.304544 ], [ 13.372596, 9.307547 ], [ 13.370525, 9.31318 ], [ 13.367597, 9.313404 ] ] } },
{ "type": "Feature", "properties": { "tg_type": "INF.ENERGIE.LIGNE", "nom": "", "source_id": "way/667012663", "source": "OSM_OSMFR_2026-10-03", "statut": "IMPORTE", "date_source": "2026-10-03", "voltage": null, "cables": null, "circuits": null, "operator": null, "longueur_m": 23965.4, "classe_tension": "MT_<60kV" }, "geometry": { "type": "LineString", "coordinates": [ [ 11.883463, 3.906456 ], [ 11.878624, 3.911535 ], [ 11.872423, 3.91831 ], [ 11.864741, 3.926424 ], [ 11.857209, 3.93321 ], [ 11.849342, 3.940063 ], [ 11.857311, 3.952824 ], [ 11.86636, 3.954364 ], [ 11.86859, 3.954678 ], [ 11.870746, 3.955339 ], [ 11.882733, 3.98618 ], [ 11.884688, 3.991374 ], [ 11.883216, 4.019808 ], [ 11.876808, 4.036863 ], [ 11.876484, 4.038542 ], [ 11.885426, 4.059339 ], [ 11.887583, 4.064077 ], [ 11.889117, 4.067764 ], [ 11.886327, 4.074934 ], [ 11.881733, 4.087345 ] ] } },
{ "type": "Feature", "properties": { "tg_type": "INF.ENERGIE.LIGNE", "nom": "", "source_id": "way/694793911", "source": "OSM_OSMFR_2026-10-03", "statut": "IMPORTE", "date_source": "2026-10-03", "voltage": null, "cables": "3", "circuits": null, "operator": null, "longueur_m": 3255.9, "classe_tension": "MT_<60kV" }, "geometry": { "type": "LineString", "coordinates": [ [ 9.612219, 4.235401 ], [ 9.607822, 4.26451 ] ] } },
{ "type": "Feature", "properties": { "tg_type": "INF.ENERGIE.LIGNE", "nom": "", "source_id": "way/694793913", "source": "OSM_OSMFR_2026-10-03", "statut": "IMPORTE", "date_source": "2026-10-03", "voltage": "90000", "cables": "3", "circuits": null, "operator": null, "longueur_m": 44727.9, "classe_tension": "HT_60-149kV" }, "geometry": { "type": "LineString", "coordinates": [ [ 9.701432, 4.667025 ], [ 9.702167, 4.684319 ], [ 9.718541, 4.719946 ], [ 9.720004, 4.722816 ], [ 9.728238, 4.729678 ], [ 9.738834, 4.73824 ], [ 9.741457, 4.750382 ], [ 9.746795, 4.766549 ], [ 9.770274, 4.828761 ], [ 9.814338, 4.859822 ], [ 9.838521, 4.861219 ], [ 9.85665, 4.881971 ], [ 9.882705, 4.880364 ], [ 9.905166, 4.898679 ], [ 9.916859, 4.918636 ], [ 9.917814, 4.923404 ], [ 9.921986, 4.942427 ], [ 9.922761, 4.948373 ], [ 9.924448, 4.953438 ], [ 9.928292, 4.955535 ] ] } },
{ "type": "Feature", "properties": { "tg_type": "INF.ENERGIE.LIGNE", "nom": "", "source_id": "way/695456157", "source": "OSM_OSMFR_2026-10-03", "statut": "IMPORTE", "date_source": "2026-10-03", "voltage": "225000", "cables": "6", "circuits": "2", "operator": null, "longueur_m": 123795.6, "classe_tension": "THT_>=150kV" }, "geometry": { "type": "LineString", "coordinates": [ [ 10.3508, 2.372111 ], [ 10.351138, 2.371822 ], [ 10.357409, 2.370482 ], [ 10.372397, 2.382965 ], [ 10.376997, 2.400451 ], [ 10.384223, 2.410624 ], [ 10.402299, 2.414574 ], [ 10.438495, 2.453337 ], [ 10.526355, 2.445637 ], [ 10.561806, 2.415256 ], [ 10.571864, 2.406521 ], [ 10.613443, 2.370912 ], [ 10.642437, 2.389081 ], [ 10.646765, 2.39188 ], [ 10.823228, 2.50281 ], [ 10.83841, 2.512467 ], [ 10.911441, 2.541857 ], [ 10.969956, 2.547721 ], [ 10.995252, 2.550177 ], [ 11.013456, 2.575471 ], [ 11.02502, 2.591774 ], [ 11.031389, 2.600557 ], [ 11.037492, 2.609169 ], [ 11.042826, 2.628308 ], [ 11.05053, 2.65658 ], [ 11.055261, 2.724773 ], [ 11.085096, 2.772031 ], [ 11.08729, 2.775326 ], [ 11.093319, 2.784879 ], [ 11.101289, 2.793982 ], [ 11.103379, 2.798972 ], [ 11.105062, 2.803292 ], [ 11.120759, 2.828253 ], [ 11.143726, 2.864429 ] ] } },
{ "type": "Feature", "properties": { "tg_type": "INF.ENERGIE.LIGNE", "nom": "", "source_id": "way/695629390", "source": "OSM_OSMFR_2026-10-03", "statut": "IMPORTE", "date_source": "2026-10-03", "voltage": "225000", "cables": null, "circuits": null, "operator": null, "longueur_m": 1188.2, "classe_tension": "THT_>=150kV" }, "geometry": { "type": "LineString", "coordinates": [ [ 10.109788, 3.826807 ], [ 10.108515, 3.821121 ], [ 10.107815, 3.816635 ], [ 10.107827, 3.816259 ] ] } },
{ "type": "Feature", "properties": { "tg_type": "INF.ENERGIE.LIGNE", "nom": "", "source_id": "way/695629391", "source": "OSM_OSMFR_2026-10-03", "statut": "IMPORTE", "date_source": "2026-10-03", "voltage": "225000", "cables": "3", "circuits": null, "operator": "EDC", "longueur_m": 159715.9, "classe_tension": "THT_>=150kV" }, "geometry": { "type": "LineString", "coordinates": [ [ 11.396542, 3.866188 ], [ 11.381517, 3.857333 ], [ 11.355947, 3.84966 ], [ 11.335168, 3.851859 ], [ 11.32406, 3.847828 ], [ 11.317323, 3.845009 ], [ 11.26398, 3.843988 ], [ 11.25502, 3.827995 ], [ 11.229822, 3.824554 ], [ 11.215465, 3.822508 ], [ 11.187794, 3.80892 ], [ 11.171127, 3.809599 ], [ 11.160005, 3.80186 ], [ 11.1449, 3.798915 ], [ 11.129022, 3.806832 ], [ 11.107525, 3.817728 ], [ 11.092286, 3.815741 ], [ 11.08323, 3.817508 ], [ 11.077336, 3.818767 ], [ 11.061494, 3.821851 ], [ 11.024415, 3.814927 ], [ 11.020648, 3.818514 ], [ 11.017136, 3.822025 ], [ 11.006726, 3.825135 ], [ 11.001308, 3.826885 ], [ 10.992973, 3.82942 ], [ 10.970903, 3.852081 ], [ 10.965174, 3.854966 ], [ 10.95092, 3.852624 ], [ 10.933102, 3.86171 ], [ 10.920649, 3.862632 ], [ 10.887974, 3.884951 ], [ 10.869918, 3.88922 ], [ 10.868928, 3.889696 ], [ 10.865865, 3.890576 ], [ 10.857073, 3.889607 ], [ 10.855776, 3.889547 ], [ 10.851557, 3.888968 ], [ 10.842073, 3.881471 ], [ 10.837191, 3.872946 ], [ 10.824738, 3.872544 ], [ 10.816558, 3.873508 ], [ 10.813748, 3.873867 ], [ 10.794875, 3.893729 ], [ 10.784969, 3.897788 ], [ 10.778159, 3.894724 ], [ 10.768034, 3.889897 ], [ 10.758273, 3.88476 ], [ 10.745003, 3.885338 ], [ 10.720945, 3.887432 ], [ 10.69108, 3.883359 ], [ 10.671009, 3.879439 ], [ 10.649204, 3.873545 ], [ 10.628865, 3.876626 ], [ 10.612105, 3.872203 ], [ 10.582708, 3.863567 ], [ 10.482105, 3.853184 ], [ 10.462756, 3.846469 ], [ 10.440834, 3.834086 ], [ 10.414293, 3.836369 ], [ 10.397639, 3.82855 ], [ 10.38156, 3.821315 ], [ 10.370304, 3.814528 ], [ 10.357957, 3.815937 ], [ 10.34168, 3.817594 ], [ 10.321206, 3.819335 ], [ 10.310416, 3.83103 ], [ 10.287103, 3.856589 ], [ 10.283403, 3.86439 ], [ 10.281405, 3.868403 ], [ 10.278543, 3.869794 ], [ 10.260627, 3.877895 ], [ 10.224368, 3.876281 ], [ 10.210061, 3.870835 ], [ 10.205555, 3.869205 ], [ 10.192921, 3.864263 ], [ 10.155333, 3.880913 ], [ 10.153636, 3.878272 ], [ 10.140778, 3.85917 ], [ 10.132914, 3.850478 ], [ 10.12458, 3.841727 ], [ 10.116356, 3.832893 ], [ 10.110313, 3.82666 ], [ 10.108923, 3.820147 ], [ 10.108247, 3.816161 ] ] } },
{ "type": "Feature", "properties": { "tg_type": "INF.ENERGIE.LIGNE", "nom": "", "source_id": "way/840719534", "source": "OSM_OSMFR_2026-10-03", "statut": "IMPORTE", "date_source": "2026-10-03", "voltage": null, "cables": null, "circuits": null, "operator": null, "longueur_m": 161.9, "classe_tension": "MT_<60kV" }, "geometry": { "type": "LineString", "coordinates": [ [ 10.350792, 2.372851 ], [ 10.349639, 2.373744 ] ] } },
{ "type": "Feature", "properties": { "tg_type": "INF.ENERGIE.LIGNE", "nom": "", "source_id": "way/840719535", "source": "OSM_OSMFR_2026-10-03", "statut": "IMPORTE", "date_source": "2026-10-03", "voltage": null, "cables": null, "circuits": null, "operator": null, "longueur_m": 138.0, "classe_tension": "MT_<60kV" }, "geometry": { "type": "LineString", "coordinates": [ [ 10.350666, 2.372634 ], [ 10.349692, 2.373406 ] ] } },
{ "type": "Feature", "properties": { "tg_type": "INF.ENERGIE.LIGNE", "nom": "", "source_id": "way/902458343", "source": "OSM_OSMFR_2026-10-03", "statut": "IMPORTE", "date_source": "2026-10-03", "voltage": null, "cables": "6", "circuits": "2", "operator": null, "longueur_m": 240.3, "classe_tension": "MT_<60kV" }, "geometry": { "type": "LineString", "coordinates": [ [ 10.127722, 3.81487 ], [ 10.125981, 3.816159 ] ] } },
{ "type": "Feature", "properties": { "tg_type": "INF.ENERGIE.LIGNE", "nom": "", "source_id": "way/1009108311", "source": "OSM_OSMFR_2026-10-03", "statut": "IMPORTE", "date_source": "2026-10-03", "voltage": null, "cables": null, "circuits": null, "operator": null, "longueur_m": 6551.7, "classe_tension": "MT_<60kV" }, "geometry": { "type": "LineString", "coordinates": [ [ 11.186917, 3.604279 ], [ 11.187022, 3.604561 ], [ 11.187184, 3.604552 ], [ 11.188587, 3.605195 ], [ 11.214409, 3.597948 ], [ 11.218874, 3.596989 ], [ 11.224255, 3.597409 ], [ 11.231694, 3.598128 ], [ 11.239594, 3.591535 ], [ 11.241434, 3.589911 ] ] } },
{ "type": "Feature", "properties": { "tg_type": "INF.ENERGIE.LIGNE", "nom": "", "source_id": "way/1009108312", "source": "OSM_OSMFR_2026-10-03", "statut": "IMPORTE", "date_source": "2026-10-03", "voltage": null, "cables": null, "circuits": null, "operator": null, "longueur_m": 689.5, "classe_tension": "MT_<60kV" }, "geometry": { "type": "LineString", "coordinates": [ [ 11.259293, 3.595045 ], [ 11.253302, 3.593418 ] ] } },
{ "type": "Feature", "properties": { "tg_type": "INF.ENERGIE.LIGNE", "nom": "", "source_id": "way/1009108313", "source": "OSM_OSMFR_2026-10-03", "statut": "IMPORTE", "date_source": "2026-10-03", "voltage": null, "cables": null, "circuits": null, "operator": null, "longueur_m": 2187.5, "classe_tension": "MT_<60kV" }, "geometry": { "type": "LineString", "coordinates": [ [ 11.259293, 3.595045 ], [ 11.278655, 3.591456 ] ] } },
{ "type": "Feature", "properties": { "tg_type": "INF.ENERGIE.LIGNE", "nom": "", "source_id": "way/1018788848", "source": "OSM_OSMFR_2026-10-03", "statut": "IMPORTE", "date_source": "2026-10-03", "voltage": null, "cables": null, "circuits": null, "operator": null, "longueur_m": 3068.4, "classe_tension": "MT_<60kV" }, "geometry": { "type": "LineString", "coordinates": [ [ 11.168042, 2.877315 ], [ 11.144074, 2.867982 ], [ 11.14327, 2.866257 ] ] } },
{ "type": "Feature", "properties": { "tg_type": "INF.ENERGIE.LIGNE", "nom": "", "source_id": "way/1153494913", "source": "OSM_OSMFR_2026-10-03", "statut": "IMPORTE", "date_source": "2026-10-03", "voltage": "225000", "cables": "6", "circuits": "2", "operator": null, "longueur_m": 50102.6, "classe_tension": "THT_>=150kV" }, "geometry": { "type": "LineString", "coordinates": [ [ 11.713368, 4.37399 ], [ 11.712778, 4.369155 ], [ 11.697242, 4.358243 ], [ 11.680881, 4.346572 ], [ 11.674304, 4.33873 ], [ 11.663747, 4.326556 ], [ 11.651784, 4.312423 ], [ 11.646688, 4.30655 ], [ 11.622055, 4.257121 ], [ 11.617613, 4.247855 ], [ 11.611873, 4.236867 ], [ 11.600897, 4.215018 ], [ 11.599047, 4.212402 ], [ 11.580915, 4.187706 ], [ 11.578962, 4.18494 ], [ 11.567718, 4.175053 ], [ 11.556072, 4.164963 ], [ 11.554743, 4.154883 ], [ 11.552976, 4.143258 ], [ 11.552004, 4.135853 ], [ 11.551081, 4.131936 ], [ 11.550474, 4.128727 ], [ 11.548163, 4.118694 ], [ 11.546837, 4.112102 ], [ 11.543013, 4.0948 ], [ 11.533404, 4.01049 ], [ 11.516287, 3.989884 ], [ 11.513693, 3.988366 ] ] } },
{ "type": "Feature", "properties": { "tg_type": "INF.ENERGIE.LIGNE", "nom": "", "source_id": "way/1208830170", "source": "OSM_OSMFR_2026-10-03", "statut": "IMPORTE", "date_source": "2026-10-03", "voltage": "225000", "cables": "6", "circuits": "2", "operator": null, "longueur_m": 15743.4, "classe_tension": "THT_>=150kV" }, "geometry": { "type": "LineString", "coordinates": [ [ 11.478186, 3.763812 ], [ 11.476116, 3.763529 ], [ 11.430514, 3.791911 ], [ 11.423593, 3.819212 ], [ 11.422445, 3.823467 ], [ 11.421509, 3.827615 ], [ 11.420127, 3.832713 ], [ 11.415444, 3.851099 ], [ 11.414704, 3.853737 ], [ 11.412121, 3.864028 ], [ 11.401624, 3.868154 ], [ 11.401026, 3.868034 ] ] } },
{ "type": "Feature", "properties": { "tg_type": "INF.ENERGIE.LIGNE", "nom": "", "source_id": "way/1208830171", "source": "OSM_OSMFR_2026-10-03", "statut": "IMPORTE", "date_source": "2026-10-03", "voltage": "225000", "cables": null, "circuits": null, "operator": null, "longueur_m": 203007.9, "classe_tension": "THT_>=150kV" }, "geometry": { "type": "LineString", "coordinates": [ [ 11.492093, 3.784513 ], [ 11.49246, 3.784238 ], [ 11.491934, 3.782554 ], [ 11.48807, 3.776645 ], [ 11.4899, 3.771247 ], [ 11.491369, 3.769419 ], [ 11.498527, 3.761024 ], [ 11.50198, 3.756751 ], [ 11.503587, 3.754961 ], [ 11.504976, 3.75321 ], [ 11.507345, 3.75047 ], [ 11.525157, 3.757913 ], [ 11.530473, 3.764055 ], [ 11.53061, 3.775821 ], [ 11.530873, 3.777017 ], [ 11.531479, 3.781109 ], [ 11.532614, 3.787516 ], [ 11.541374, 3.78894 ], [ 11.545094, 3.790155 ], [ 11.551778, 3.788962 ], [ 11.556662, 3.788191 ], [ 11.560479, 3.787436 ], [ 11.562105, 3.787233 ], [ 11.565157, 3.786689 ], [ 11.58048, 3.783328 ], [ 11.584831, 3.782447 ], [ 11.592931, 3.780558 ], [ 11.601997, 3.77862 ], [ 11.604427, 3.778031 ], [ 11.609277, 3.776998 ], [ 11.612538, 3.776479 ], [ 11.616942, 3.775237 ], [ 11.61934, 3.774766 ], [ 11.639623, 3.781013 ], [ 11.649123, 3.783839 ], [ 11.718464, 3.8051 ], [ 11.742883, 3.8461 ], [ 11.771615, 3.879326 ], [ 11.792386, 3.88333 ], [ 11.815774, 3.88729 ], [ 11.824014, 3.888382 ], [ 11.838369, 3.890459 ], [ 11.903086, 3.882409 ], [ 11.930165, 3.878855 ], [ 11.952953, 3.880097 ], [ 11.996781, 3.88211 ], [ 11.999109, 3.882291 ], [ 12.004881, 3.882463 ], [ 12.012531, 3.882902 ], [ 12.021505, 3.883239 ], [ 12.041093, 3.88413 ], [ 12.044924, 3.884373 ], [ 12.060043, 3.884968 ], [ 12.065896, 3.885278 ], [ 12.07604, 3.885567 ], [ 12.09378, 3.886627 ], [ 12.176993, 3.890994 ], [ 12.179793, 3.891203 ], [ 12.195565, 3.891936 ], [ 12.201455, 3.892332 ], [ 12.207356, 3.892578 ], [ 12.212409, 3.89291 ], [ 12.216808, 3.893081 ], [ 12.235508, 3.894109 ], [ 12.241055, 3.894269 ], [ 12.252846, 3.895008 ], [ 12.279207, 3.896373 ], [ 12.318914, 3.903432 ], [ 12.323216, 3.904106 ], [ 12.330995, 3.905444 ], [ 12.333827, 3.906001 ], [ 12.336595, 3.906429 ], [ 12.36876, 3.912209 ], [ 12.371882, 3.912669 ], [ 12.380283, 3.914104 ], [ 12.393984, 3.916587 ], [ 12.443175, 3.925123 ], [ 12.451115, 3.926638 ], [ 12.45855, 3.927826 ], [ 12.470598, 3.92994 ], [ 12.474911, 3.930786 ], [ 12.489685, 3.933312 ], [ 12.528706, 3.918931 ], [ 12.534311, 3.917005 ], [ 12.538517, 3.915383 ], [ 12.56072, 3.907269 ], [ 12.572275, 3.902956 ], [ 12.57985, 3.900253 ], [ 12.645822, 3.92347 ], [ 12.737741, 3.955949 ], [ 12.75002, 3.960097 ], [ 12.762026, 3.964453 ], [ 12.770104, 3.967107 ], [ 12.794513, 3.974107 ], [ 12.802838, 3.97658 ], [ 12.80581, 3.97735 ], [ 12.811271, 3.979009 ], [ 12.814168, 3.979748 ], [ 12.81641, 3.980454 ], [ 12.818921, 3.981107 ], [ 12.830422, 3.984414 ], [ 12.83599, 3.986095 ], [ 12.843919, 3.988299 ], [ 12.852373, 3.990804 ], [ 12.854176, 3.991243 ], [ 12.859218, 3.991478 ], [ 12.905889, 3.989894 ], [ 12.945156, 3.98846 ], [ 12.960649, 3.987989 ], [ 13.026974, 4.019498 ], [ 13.088987, 4.020974 ], [ 13.097549, 4.020718 ], [ 13.120122, 4.000062 ], [ 13.131452, 3.992934 ], [ 13.151579, 3.99501 ], [ 13.158596, 3.995802 ], [ 13.162823, 3.996701 ], [ 13.173981, 4.001496 ], [ 13.178412, 4.003224 ] ] } },
{ "type": "Feature", "properties": { "tg_type": "INF.ENERGIE.LIGNE", "nom": "", "source_id": "way/1329737740", "source": "OSM_OSMFR_2026-10-03", "statut": "IMPORTE", "date_source": "2026-10-03", "voltage": "225000", "cables": "6", "circuits": "2", "operator": null, "longueur_m": 2748.5, "classe_tension": "THT_>=150kV" }, "geometry": { "type": "LineString", "coordinates": [ [ 11.492136, 3.784237 ], [ 11.491525, 3.782372 ], [ 11.478186, 3.763812 ] ] } },
{ "type": "Feature", "properties": { "tg_type": "INF.ENERGIE.LIGNE", "nom": "", "source_id": "way/1387312842", "source": "OSM_OSMFR_2026-10-03", "statut": "IMPORTE", "date_source": "2026-10-03", "voltage": "225000", "cables": "3", "circuits": "1", "operator": null, "longueur_m": 84.7, "classe_tension": "THT_>=150kV" }, "geometry": { "type": "LineString", "coordinates": [ [ 11.143726, 2.864429 ], [ 11.143789, 2.864821 ], [ 11.143954, 2.865149 ] ] } },
{ "type": "Feature", "properties": { "tg_type": "INF.ENERGIE.LIGNE", "nom": "", "source_id": "way/1387312843", "source": "OSM_OSMFR_2026-10-03", "statut": "IMPORTE", "date_source": "2026-10-03", "voltage": "225000", "cables": "3", "circuits": "1", "operator": null, "longueur_m": 82.8, "classe_tension": "THT_>=150kV" }, "geometry": { "type": "LineString", "coordinates": [ [ 11.143726, 2.864429 ], [ 11.14406, 2.865098 ] ] } },
{ "type": "Feature", "properties": { "tg_type": "INF.ENERGIE.LIGNE", "nom": "", "source_id": "way/1424137153", "source": "OSM_OSMFR_2026-10-03", "statut": "IMPORTE", "date_source": "2026-10-03", "voltage": "225000", "cables": "3", "circuits": null, "operator": null, "longueur_m": 24.3, "classe_tension": "THT_>=150kV" }, "geometry": { "type": "LineString", "coordinates": [ [ 11.492005, 3.784412 ], [ 11.492136, 3.784237 ] ] } },
{ "type": "Feature", "properties": { "tg_type": "INF.ENERGIE.LIGNE", "nom": "", "source_id": "way/1424137154", "source": "OSM_OSMFR_2026-10-03", "statut": "IMPORTE", "date_source": "2026-10-03", "voltage": "225000", "cables": "3", "circuits": null, "operator": null, "longueur_m": 25.2, "classe_tension": "THT_>=150kV" }, "geometry": { "type": "LineString", "coordinates": [ [ 11.491925, 3.784318 ], [ 11.492136, 3.784237 ] ] } },
{ "type": "Feature", "properties": { "tg_type": "INF.ENERGIE.LIGNE", "nom": "", "source_id": "way/1424137157", "source": "OSM_OSMFR_2026-10-03", "statut": "IMPORTE", "date_source": "2026-10-03", "voltage": "225000", "cables": "3", "circuits": null, "operator": null, "longueur_m": 98.3, "classe_tension": "THT_>=150kV" }, "geometry": { "type": "LineString", "coordinates": [ [ 11.513079, 3.987725 ], [ 11.513693, 3.988366 ] ] } },
{ "type": "Feature", "properties": { "tg_type": "INF.ENERGIE.LIGNE", "nom": "", "source_id": "way/1424137158", "source": "OSM_OSMFR_2026-10-03", "statut": "IMPORTE", "date_source": "2026-10-03", "voltage": "225000", "cables": "3", "circuits": null, "operator": null, "longueur_m": 95.0, "classe_tension": "THT_>=150kV" }, "geometry": { "type": "LineString", "coordinates": [ [ 11.512934, 3.98797 ], [ 11.513693, 3.988366 ] ] } },
{ "type": "Feature", "properties": { "tg_type": "INF.ENERGIE.LIGNE", "nom": "", "source_id": "way/1424137162", "source": "OSM_OSMFR_2026-10-03", "statut": "IMPORTE", "date_source": "2026-10-03", "voltage": null, "cables": null, "circuits": null, "operator": null, "longueur_m": 6129.4, "classe_tension": "MT_<60kV" }, "geometry": { "type": "LineString", "coordinates": [ [ 11.53616, 4.032169 ], [ 11.533679, 4.010363 ], [ 11.517239, 3.990491 ], [ 11.51717, 3.988369 ], [ 11.513895, 3.983933 ] ] } },
{ "type": "Feature", "properties": { "tg_type": "INF.ENERGIE.LIGNE", "nom": "", "source_id": "way/1424137163", "source": "OSM_OSMFR_2026-10-03", "statut": "IMPORTE", "date_source": "2026-10-03", "voltage": "225000", "cables": "3", "circuits": null, "operator": null, "longueur_m": 450.5, "classe_tension": "THT_>=150kV" }, "geometry": { "type": "LineString", "coordinates": [ [ 11.400179, 3.86796 ], [ 11.398457, 3.867309 ], [ 11.396542, 3.866188 ] ] } },
{ "type": "Feature", "properties": { "tg_type": "INF.ENERGIE.LIGNE", "nom": "", "source_id": "way/1424137165", "source": "OSM_OSMFR_2026-10-03", "statut": "IMPORTE", "date_source": "2026-10-03", "voltage": "225000", "cables": "3", "circuits": null, "operator": "EDC", "longueur_m": 7886.3, "classe_tension": "THT_>=150kV" }, "geometry": { "type": "LineString", "coordinates": [ [ 11.466293, 3.881693 ], [ 11.465857, 3.881446 ], [ 11.462512, 3.877523 ], [ 11.459338, 3.877316 ], [ 11.453233, 3.877248 ], [ 11.419738, 3.879898 ], [ 11.402714, 3.869821 ], [ 11.400975, 3.868251 ], [ 11.400651, 3.868056 ] ] } },
{ "type": "Feature", "properties": { "tg_type": "INF.ENERGIE.LIGNE", "nom": "", "source_id": "way/1424137166", "source": "OSM_OSMFR_2026-10-03", "statut": "IMPORTE", "date_source": "2026-10-03", "voltage": "225000", "cables": "3", "circuits": null, "operator": null, "longueur_m": 35.3, "classe_tension": "THT_>=150kV" }, "geometry": { "type": "LineString", "coordinates": [ [ 11.400721, 3.867946 ], [ 11.401026, 3.868034 ] ] } },
{ "type": "Feature", "properties": { "tg_type": "INF.ENERGIE.LIGNE", "nom": "", "source_id": "way/1424137167", "source": "OSM_OSMFR_2026-10-03", "statut": "IMPORTE", "date_source": "2026-10-03", "voltage": "225000", "cables": "3", "circuits": null, "operator": null, "longueur_m": 34.2, "classe_tension": "THT_>=150kV" }, "geometry": { "type": "LineString", "coordinates": [ [ 11.400792, 3.867834 ], [ 11.401026, 3.868034 ] ] } },
{ "type": "Feature", "properties": { "tg_type": "INF.ENERGIE.LIGNE", "nom": "", "source_id": "way/1424137170", "source": "OSM_OSMFR_2026-10-03", "statut": "IMPORTE", "date_source": "2026-10-03", "voltage": "225000", "cables": "3", "circuits": null, "operator": null, "longueur_m": 91.5, "classe_tension": "THT_>=150kV" }, "geometry": { "type": "LineString", "coordinates": [ [ 11.466206, 3.881817 ], [ 11.465411, 3.881602 ] ] } },
{ "type": "Feature", "properties": { "tg_type": "INF.ENERGIE.LIGNE", "nom": "", "source_id": "way/1424137171", "source": "OSM_OSMFR_2026-10-03", "statut": "IMPORTE", "date_source": "2026-10-03", "voltage": "225000", "cables": "3", "circuits": null, "operator": null, "longueur_m": 87.3, "classe_tension": "THT_>=150kV" }, "geometry": { "type": "LineString", "coordinates": [ [ 11.466126, 3.881932 ], [ 11.465411, 3.881602 ] ] } },
{ "type": "Feature", "properties": { "tg_type": "INF.ENERGIE.LIGNE", "nom": "", "source_id": "way/1424137172", "source": "OSM_OSMFR_2026-10-03", "statut": "IMPORTE", "date_source": "2026-10-03", "voltage": "225000", "cables": "6", "circuits": "2", "operator": null, "longueur_m": 13942.9, "classe_tension": "THT_>=150kV" }, "geometry": { "type": "LineString", "coordinates": [ [ 11.465411, 3.881602 ], [ 11.463761, 3.881636 ], [ 11.462697, 3.882313 ], [ 11.460553, 3.8839 ], [ 11.459666, 3.886314 ], [ 11.459199, 3.89059 ], [ 11.463641, 3.900668 ], [ 11.471105, 3.926499 ], [ 11.47456, 3.937941 ], [ 11.477746, 3.947462 ], [ 11.485943, 3.970864 ], [ 11.510689, 3.985594 ] ] } },
{ "type": "Feature", "properties": { "tg_type": "INF.ENERGIE.LIGNE", "nom": "", "source_id": "way/1424137175", "source": "OSM_OSMFR_2026-10-03", "statut": "IMPORTE", "date_source": "2026-10-03", "voltage": "225000", "cables": "3", "circuits": "1", "operator": null, "longueur_m": 45.4, "classe_tension": "THT_>=150kV" }, "geometry": { "type": "LineString", "coordinates": [ [ 9.975289, 3.02664 ], [ 9.974925, 3.026825 ] ] } },
{ "type": "Feature", "properties": { "tg_type": "INF.ENERGIE.LIGNE", "nom": "", "source_id": "way/1424137176", "source": "OSM_OSMFR_2026-10-03", "statut": "IMPORTE", "date_source": "2026-10-03", "voltage": "225000", "cables": "3", "circuits": "1", "operator": null, "longueur_m": 46.1, "classe_tension": "THT_>=150kV" }, "geometry": { "type": "LineString", "coordinates": [ [ 9.975335, 3.026767 ], [ 9.974925, 3.026825 ] ] } },
{ "type": "Feature", "properties": { "tg_type": "INF.ENERGIE.LIGNE", "nom": "", "source_id": "way/1424137178", "source": "OSM_OSMFR_2026-10-03", "statut": "IMPORTE", "date_source": "2026-10-03", "voltage": null, "cables": "3", "circuits": null, "operator": null, "longueur_m": 94.4, "classe_tension": "MT_<60kV" }, "geometry": { "type": "LineString", "coordinates": [ [ 10.127823, 3.811917 ], [ 10.127721, 3.812765 ] ] } },
{ "type": "Feature", "properties": { "tg_type": "INF.ENERGIE.LIGNE", "nom": "", "source_id": "way/1424137179", "source": "OSM_OSMFR_2026-10-03", "statut": "IMPORTE", "date_source": "2026-10-03", "voltage": null, "cables": "3", "circuits": null, "operator": null, "longueur_m": 94.5, "classe_tension": "MT_<60kV" }, "geometry": { "type": "LineString", "coordinates": [ [ 10.127721, 3.812765 ], [ 10.127741, 3.81191 ] ] } },
{ "type": "Feature", "properties": { "tg_type": "INF.ENERGIE.LIGNE", "nom": "", "source_id": "way/1424137181", "source": "OSM_OSMFR_2026-10-03", "statut": "IMPORTE", "date_source": "2026-10-03", "voltage": null, "cables": null, "circuits": null, "operator": null, "longueur_m": 154.4, "classe_tension": "MT_<60kV" }, "geometry": { "type": "LineString", "coordinates": [ [ 10.127241, 3.811834 ], [ 10.125889, 3.812155 ] ] } },
{ "type": "Feature", "properties": { "tg_type": "INF.ENERGIE.LIGNE", "nom": "", "source_id": "way/1424137183", "source": "OSM_OSMFR_2026-10-03", "statut": "IMPORTE", "date_source": "2026-10-03", "voltage": null, "cables": "3", "circuits": null, "operator": null, "longueur_m": 218.4, "classe_tension": "MT_<60kV" }, "geometry": { "type": "LineString", "coordinates": [ [ 10.127707, 3.811877 ], [ 10.125741, 3.811828 ] ] } },
{ "type": "Feature", "properties": { "tg_type": "INF.ENERGIE.LIGNE", "nom": "", "source_id": "way/1424137184", "source": "OSM_OSMFR_2026-10-03", "statut": "IMPORTE", "date_source": "2026-10-03", "voltage": "225000", "cables": "3", "circuits": "1", "operator": null, "longueur_m": 74.9, "classe_tension": "THT_>=150kV" }, "geometry": { "type": "LineString", "coordinates": [ [ 10.107656, 3.816278 ], [ 10.107726, 3.816952 ] ] } },
{ "type": "Feature", "properties": { "tg_type": "INF.ENERGIE.LIGNE", "nom": "", "source_id": "way/1424137185", "source": "OSM_OSMFR_2026-10-03", "statut": "IMPORTE", "date_source": "2026-10-03", "voltage": "225000", "cables": "3", "circuits": "1", "operator": null, "longueur_m": 75.1, "classe_tension": "THT_>=150kV" }, "geometry": { "type": "LineString", "coordinates": [ [ 10.107505, 3.81631 ], [ 10.107726, 3.816952 ] ] } },
{ "type": "Feature", "properties": { "tg_type": "INF.ENERGIE.LIGNE", "nom": "", "source_id": "way/1424137187", "source": "OSM_OSMFR_2026-10-03", "statut": "IMPORTE", "date_source": "2026-10-03", "voltage": null, "cables": null, "circuits": null, "operator": null, "longueur_m": 502.4, "classe_tension": "MT_<60kV" }, "geometry": { "type": "LineString", "coordinates": [ [ 10.12726, 3.811938 ], [ 10.12645, 3.813118 ], [ 10.126002, 3.81452 ], [ 10.125221, 3.815958 ] ] } },
{ "type": "Feature", "properties": { "tg_type": "INF.ENERGIE.LIGNE", "nom": "", "source_id": "way/1424137188", "source": "OSM_OSMFR_2026-10-03", "statut": "IMPORTE", "date_source": "2026-10-03", "voltage": null, "cables": "3", "circuits": null, "operator": null, "longueur_m": 2357.1, "classe_tension": "MT_<60kV" }, "geometry": { "type": "LineString", "coordinates": [ [ 10.108109, 3.814316 ], [ 10.112727, 3.817108 ], [ 10.1277, 3.811947 ] ] } },
{ "type": "Feature", "properties": { "tg_type": "INF.ENERGIE.LIGNE", "nom": "", "source_id": "way/1424137189", "source": "OSM_OSMFR_2026-10-03", "statut": "IMPORTE", "date_source": "2026-10-03", "voltage": null, "cables": "3", "circuits": null, "operator": null, "longueur_m": 254.3, "classe_tension": "MT_<60kV" }, "geometry": { "type": "LineString", "coordinates": [ [ 10.125741, 3.811828 ], [ 10.127241, 3.811253 ], [ 10.12772, 3.811744 ] ] } },
{ "type": "Feature", "properties": { "tg_type": "INF.ENERGIE.LIGNE", "nom": "", "source_id": "way/1424137190", "source": "OSM_OSMFR_2026-10-03", "statut": "IMPORTE", "date_source": "2026-10-03", "voltage": null, "cables": "3", "circuits": null, "operator": null, "longueur_m": 585.5, "classe_tension": "MT_<60kV" }, "geometry": { "type": "LineString", "coordinates": [ [ 10.127746, 3.811478 ], [ 10.127241, 3.811253 ], [ 10.127292, 3.806513 ] ] } },
{ "type": "Feature", "properties": { "tg_type": "INF.ENERGIE.LIGNE", "nom": "", "source_id": "way/1433363013", "source": "OSM_OSMFR_2026-10-03", "statut": "IMPORTE", "date_source": "2026-10-03", "voltage": "225000", "cables": "3", "circuits": "1", "operator": null, "longueur_m": 152.7, "classe_tension": "THT_>=150kV" }, "geometry": { "type": "LineString", "coordinates": [ [ 11.14471, 2.866115 ], [ 11.14463, 2.865617 ], [ 11.144249, 2.864828 ] ] } },
{ "type": "Feature", "properties": { "tg_type": "INF.ENERGIE.LIGNE", "nom": "", "source_id": "way/1433363014", "source": "OSM_OSMFR_2026-10-03", "statut": "IMPORTE", "date_source": "2026-10-03", "voltage": "225000", "cables": "3", "circuits": "1", "operator": null, "longueur_m": 150.4, "classe_tension": "THT_>=150kV" }, "geometry": { "type": "LineString", "coordinates": [ [ 11.144124, 2.864889 ], [ 11.14471, 2.866115 ] ] } },
{ "type": "Feature", "properties": { "tg_type": "INF.ENERGIE.LIGNE", "nom": "", "source_id": "way/1433363015", "source": "OSM_OSMFR_2026-10-03", "statut": "IMPORTE", "date_source": "2026-10-03", "voltage": "225000", "cables": "3", "circuits": null, "operator": null, "longueur_m": 149.3, "classe_tension": "THT_>=150kV" }, "geometry": { "type": "LineString", "coordinates": [ [ 11.14311, 2.865563 ], [ 11.144317, 2.864972 ] ] } },
{ "type": "Feature", "properties": { "tg_type": "INF.ENERGIE.LIGNE", "nom": "", "source_id": "way/1433363016", "source": "OSM_OSMFR_2026-10-03", "statut": "IMPORTE", "date_source": "2026-10-03", "voltage": "225000", "cables": "3", "circuits": null, "operator": null, "longueur_m": 149.0, "classe_tension": "THT_>=150kV" }, "geometry": { "type": "LineString", "coordinates": [ [ 11.144249, 2.864828 ], [ 11.143041, 2.865411 ] ] } },
{ "type": "Feature", "properties": { "tg_type": "INF.ENERGIE.LIGNE", "nom": "", "source_id": "way/1433363017", "source": "OSM_OSMFR_2026-10-03", "statut": "IMPORTE", "date_source": "2026-10-03", "voltage": "225000", "cables": "3", "circuits": null, "operator": null, "longueur_m": 174.1, "classe_tension": "THT_>=150kV" }, "geometry": { "type": "LineString", "coordinates": [ [ 10.463634, 4.079623 ], [ 10.463914, 4.079655 ], [ 10.464375, 4.07845 ] ] } },
{ "type": "Feature", "properties": { "tg_type": "INF.ENERGIE.LIGNE", "nom": "", "source_id": "way/1433363018", "source": "OSM_OSMFR_2026-10-03", "statut": "IMPORTE", "date_source": "2026-10-03", "voltage": "225000", "cables": "3", "circuits": null, "operator": null, "longueur_m": 220.5, "classe_tension": "THT_>=150kV" }, "geometry": { "type": "LineString", "coordinates": [ [ 10.463658, 4.079892 ], [ 10.463895, 4.079923 ], [ 10.465083, 4.078637 ] ] } },
{ "type": "Feature", "properties": { "tg_type": "INF.ENERGIE.LIGNE", "nom": "", "source_id": "way/1442417767", "source": "OSM_OSMFR_2026-10-03", "statut": "IMPORTE", "date_source": "2026-10-03", "voltage": null, "cables": null, "circuits": null, "operator": null, "longueur_m": 834.5, "classe_tension": "MT_<60kV" }, "geometry": { "type": "LineString", "coordinates": [ [ 9.790591, 4.116116 ], [ 9.790857, 4.108574 ] ] } },
{ "type": "Feature", "properties": { "tg_type": "INF.ENERGIE.LIGNE", "nom": "", "source_id": "way/1444513253", "source": "OSM_OSMFR_2026-10-03", "statut": "IMPORTE", "date_source": "2026-10-03", "voltage": null, "cables": null, "circuits": null, "operator": null, "longueur_m": 802.0, "classe_tension": "MT_<60kV" }, "geometry": { "type": "LineString", "coordinates": [ [ 10.395733, 5.449705 ], [ 10.397562, 5.450794 ], [ 10.401282, 5.450744 ], [ 10.402544, 5.451324 ] ] } },
{ "type": "Feature", "properties": { "tg_type": "INF.ENERGIE.LIGNE", "nom": "", "source_id": "way/1444513255", "source": "OSM_OSMFR_2026-10-03", "statut": "IMPORTE", "date_source": "2026-10-03", "voltage": null, "cables": null, "circuits": null, "operator": null, "longueur_m": 35.5, "classe_tension": "MT_<60kV" }, "geometry": { "type": "LineString", "coordinates": [ [ 10.395858, 5.44941 ], [ 10.395733, 5.449705 ] ] } },
{ "type": "Feature", "properties": { "tg_type": "INF.ENERGIE.LIGNE", "nom": "", "source_id": "way/1444513256", "source": "OSM_OSMFR_2026-10-03", "statut": "IMPORTE", "date_source": "2026-10-03", "voltage": null, "cables": null, "circuits": null, "operator": null, "longueur_m": 33.0, "classe_tension": "MT_<60kV" }, "geometry": { "type": "LineString", "coordinates": [ [ 10.395738, 5.449407 ], [ 10.395733, 5.449705 ] ] } },
{ "type": "Feature", "properties": { "tg_type": "INF.ENERGIE.LIGNE", "nom": "", "source_id": "way/1444524165", "source": "OSM_OSMFR_2026-10-03", "statut": "IMPORTE", "date_source": "2026-10-03", "voltage": null, "cables": null, "circuits": null, "operator": null, "longueur_m": 8319.8, "classe_tension": "MT_<60kV" }, "geometry": { "type": "LineString", "coordinates": [ [ 10.395726, 5.448315 ], [ 10.395657, 5.447889 ], [ 10.3943, 5.445393 ], [ 10.39188, 5.444122 ], [ 10.386264, 5.440974 ], [ 10.382472, 5.442053 ], [ 10.336649, 5.412937 ], [ 10.335082, 5.411084 ], [ 10.333323, 5.410102 ] ] } },
{ "type": "Feature", "properties": { "tg_type": "INF.ENERGIE.LIGNE", "nom": "", "source_id": "way/1444525734", "source": "OSM_OSMFR_2026-10-03", "statut": "IMPORTE", "date_source": "2026-10-03", "voltage": null, "cables": null, "circuits": null, "operator": null, "longueur_m": 1179.3, "classe_tension": "MT_<60kV" }, "geometry": { "type": "LineString", "coordinates": [ [ 10.360672, 5.427893 ], [ 10.369654, 5.433611 ] ] } },
{ "type": "Feature", "properties": { "tg_type": "INF.ENERGIE.LIGNE", "nom": "", "source_id": "way/1444527149", "source": "OSM_OSMFR_2026-10-03", "statut": "IMPORTE", "date_source": "2026-10-03", "voltage": null, "cables": null, "circuits": null, "operator": null, "longueur_m": 575.3, "classe_tension": "MT_<60kV" }, "geometry": { "type": "LineString", "coordinates": [ [ 9.126982, 4.018719 ], [ 9.131946, 4.020207 ] ] } },
{ "type": "Feature", "properties": { "tg_type": "INF.ENERGIE.LIGNE", "nom": "", "source_id": "way/1444527150", "source": "OSM_OSMFR_2026-10-03", "statut": "IMPORTE", "date_source": "2026-10-03", "voltage": null, "cables": null, "circuits": null, "operator": null, "longueur_m": 787.2, "classe_tension": "MT_<60kV" }, "geometry": { "type": "LineString", "coordinates": [ [ 9.121947, 4.014867 ], [ 9.122458, 4.009924 ], [ 9.123986, 4.00894 ], [ 9.124155, 4.008662 ] ] } },
{ "type": "Feature", "properties": { "tg_type": "INF.ENERGIE.LIGNE", "nom": "", "source_id": "way/1444527617", "source": "OSM_OSMFR_2026-10-03", "statut": "IMPORTE", "date_source": "2026-10-03", "voltage": null, "cables": null, "circuits": null, "operator": null, "longueur_m": 181.7, "classe_tension": "MT_<60kV" }, "geometry": { "type": "LineString", "coordinates": [ [ 9.585149, 4.123633 ], [ 9.584065, 4.124863 ] ] } },
{ "type": "Feature", "properties": { "tg_type": "INF.ENERGIE.LIGNE", "nom": "", "source_id": "way/1450857326", "source": "OSM_OSMFR_2026-10-03", "statut": "IMPORTE", "date_source": "2026-10-03", "voltage": null, "cables": "3", "circuits": null, "operator": null, "longueur_m": 2279.7, "classe_tension": "MT_<60kV" }, "geometry": { "type": "LineString", "coordinates": [ [ 11.513895, 3.983933 ], [ 11.514926, 3.982137 ], [ 11.520808, 3.982033 ], [ 11.521767, 3.977406 ], [ 11.523017, 3.972138 ], [ 11.523199, 3.969652 ] ] } },
{ "type": "Feature", "properties": { "tg_type": "INF.ENERGIE.LIGNE", "nom": "", "source_id": "way/1455967378", "source": "OSM_OSMFR_2026-10-03", "statut": "IMPORTE", "date_source": "2026-10-03", "voltage": null, "cables": null, "circuits": null, "operator": null, "longueur_m": 252.1, "classe_tension": "MT_<60kV" }, "geometry": { "type": "LineString", "coordinates": [ [ 10.296241, 5.343384 ], [ 10.294538, 5.341873 ] ] } },
{ "type": "Feature", "properties": { "tg_type": "INF.ENERGIE.LIGNE", "nom": "", "source_id": "way/1455967379", "source": "OSM_OSMFR_2026-10-03", "statut": "IMPORTE", "date_source": "2026-10-03", "voltage": null, "cables": null, "circuits": null, "operator": null, "longueur_m": 4063.7, "classe_tension": "MT_<60kV" }, "geometry": { "type": "LineString", "coordinates": [ [ 10.334305, 5.382429 ], [ 10.333833, 5.376941 ], [ 10.329031, 5.374992 ], [ 10.32886, 5.372615 ], [ 10.314022, 5.359487 ], [ 10.311999, 5.3573 ], [ 10.311331, 5.356785 ] ] } },
{ "type": "Feature", "properties": { "tg_type": "INF.ENERGIE.LIGNE", "nom": "", "source_id": "way/1455967380", "source": "OSM_OSMFR_2026-10-03", "statut": "IMPORTE", "date_source": "2026-10-03", "voltage": null, "cables": null, "circuits": null, "operator": null, "longueur_m": 312.3, "classe_tension": "MT_<60kV" }, "geometry": { "type": "LineString", "coordinates": [ [ 10.334739, 5.388541 ], [ 10.334964, 5.391356 ] ] } },
{ "type": "Feature", "properties": { "tg_type": "INF.ENERGIE.LIGNE", "nom": "", "source_id": "way/1455967381", "source": "OSM_OSMFR_2026-10-03", "statut": "IMPORTE", "date_source": "2026-10-03", "voltage": null, "cables": null, "circuits": null, "operator": null, "longueur_m": 533.7, "classe_tension": "MT_<60kV" }, "geometry": { "type": "LineString", "coordinates": [ [ 10.335619, 5.399169 ], [ 10.335758, 5.401071 ], [ 10.336166, 5.402171 ], [ 10.335973, 5.403906 ] ] } },
{ "type": "Feature", "properties": { "tg_type": "INF.ENERGIE.LIGNE", "nom": "", "source_id": "way/1562456630", "source": "OSM_OSMFR_2026-10-03", "statut": "IMPORTE", "date_source": "2026-10-03", "voltage": "110000", "cables": "3", "circuits": null, "operator": null, "longueur_m": 92.4, "classe_tension": "HT_60-149kV" }, "geometry": { "type": "LineString", "coordinates": [ [ 13.687124, 9.060778 ], [ 13.687673, 9.061041 ], [ 13.687673, 9.06081 ] ] } },
{ "type": "Feature", "properties": { "tg_type": "INF.ENERGIE.LIGNE", "nom": "", "source_id": "way/1562456631", "source": "OSM_OSMFR_2026-10-03", "statut": "IMPORTE", "date_source": "2026-10-03", "voltage": "110000", "cables": "3", "circuits": null, "operator": null, "longueur_m": 165.7, "classe_tension": "HT_60-149kV" }, "geometry": { "type": "LineString", "coordinates": [ [ 13.686881, 9.06089 ], [ 13.687884, 9.061275 ], [ 13.687948, 9.06085 ] ] } }
]
}
