{
"type": "FeatureCollection",
"name": "ports_wpi",
"crs": { "type": "name", "properties": { "name": "urn:ogc:def:crs:OGC:1.3:CRS84" } },
"xy_coordinate_resolution": 1e-06,
"features": [
{ "type": "Feature", "properties": { "tg_type": "INF.PORT", "nom": "Kribi Deep Sea Port", "source_id": "wpi/46295", "source": "NGA_WPI_2026-10-04", "statut": "IMPORTE", "date_source": null, "un_locode": "CM KBI", "harbor_size": " ", "harbor_type": " ", "distance_port_osm_km": 1.0 }, "geometry": { "type": "Point", "coordinates": [ 9.86053, 2.718532 ] } },
{ "type": "Feature", "properties": { "tg_type": "INF.PORT", "nom": "Douala", "source_id": "wpi/46280", "source": "NGA_WPI_2026-10-04", "statut": "IMPORTE", "date_source": null, "un_locode": "CM DLA", "harbor_size": "Medium", "harbor_type": "River (Natural)", "distance_port_osm_km": 1.5 }, "geometry": { "type": "Point", "coordinates": [ 9.683333, 4.05 ] } }
]
}
