{
"type": "FeatureCollection",
"name": "ports_osm",
"crs": { "type": "name", "properties": { "name": "urn:ogc:def:crs:OGC:1.3:CRS84" } },
"xy_coordinate_resolution": 1e-06,
"features": [
{ "type": "Feature", "properties": { "tg_type": "INF.PORT", "nom": "", "source_id": "node/921267759", "source": "OSM_OSMFR_2026-10-03", "statut": "IMPORTE", "date_source": "2026-10-03", "geometrie_source": "Point", "landuse": null, "industrial": null, "harbour": "yes", "seamark_type": null, "operator": null }, "geometry": { "type": "Point", "coordinates": [ 14.988125, 2.034208 ] } },
{ "type": "Feature", "properties": { "tg_type": "INF.PORT", "nom": "", "source_id": "node/921267810", "source": "OSM_OSMFR_2026-10-03", "statut": "IMPORTE", "date_source": "2026-10-03", "geometrie_source": "Point", "landuse": null, "industrial": null, "harbour": "yes", "seamark_type": null, "operator": null }, "geometry": { "type": "Point", "coordinates": [ 14.944789, 2.001251 ] } },
{ "type": "Feature", "properties": { "tg_type": "INF.PORT", "nom": "Port autonome de Douala", "source_id": "node/1217636089", "source": "OSM_OSMFR_2026-10-03", "statut": "IMPORTE", "date_source": "2026-10-03", "geometrie_source": "Point", "landuse": null, "industrial": null, "harbour": "yes", "seamark_type": "harbour", "operator": null }, "geometry": { "type": "Point", "coordinates": [ 9.675835, 4.038894 ] } },
{ "type": "Feature", "properties": { "tg_type": "INF.PORT", "nom": "Port de Tiko", "source_id": "node/2386680440", "source": "OSM_OSMFR_2026-10-03", "statut": "IMPORTE", "date_source": "2026-10-03", "geometrie_source": "Point", "landuse": null, "industrial": null, "harbour": "yes", "seamark_type": null, "operator": null }, "geometry": { "type": "Point", "coordinates": [ 9.394369, 4.065831 ] } },
{ "type": "Feature", "properties": { "tg_type": "INF.PORT", "nom": "", "source_id": "node/3168239154", "source": "OSM_OSMFR_2026-10-03", "statut": "IMPORTE", "date_source": "2026-10-03", "geometrie_source": "Point", "landuse": null, "industrial": null, "harbour": "yes", "seamark_type": "harbour", "operator": null }, "geometry": { "type": "Point", "coordinates": [ 9.907019, 2.937722 ] } },
{ "type": "Feature", "properties": { "tg_type": "INF.PORT", "nom": "Port Autonome de Kribi", "source_id": "node/3321717490", "source": "OSM_OSMFR_2026-10-03", "statut": "IMPORTE", "date_source": "2026-10-03", "geometrie_source": "Point", "landuse": null, "industrial": null, "harbour": "yes", "seamark_type": "harbour", "operator": "China Harbour Engineering Company" }, "geometry": { "type": "Point", "coordinates": [ 9.858611, 2.727605 ] } },
{ "type": "Feature", "properties": { "tg_type": "INF.PORT", "nom": "Port de tiko", "source_id": "node/7070072550", "source": "OSM_OSMFR_2026-10-03", "statut": "IMPORTE", "date_source": "2026-10-03", "geometrie_source": "Point", "landuse": null, "industrial": "port", "harbour": null, "seamark_type": null, "operator": null }, "geometry": { "type": "Point", "coordinates": [ 9.376322, 4.069106 ] } },
{ "type": "Feature", "properties": { "tg_type": "INF.PORT", "nom": "", "source_id": "node/11044193474", "source": "OSM_OSMFR_2026-10-03", "statut": "IMPORTE", "date_source": "2026-10-03", "geometrie_source": "Point", "landuse": null, "industrial": null, "harbour": null, "seamark_type": "harbour", "operator": null }, "geometry": { "type": "Point", "coordinates": [ 12.059068, 4.536741 ] } },
{ "type": "Feature", "properties": { "tg_type": "INF.PORT", "nom": "", "source_id": "node/11044202245", "source": "OSM_OSMFR_2026-10-03", "statut": "IMPORTE", "date_source": "2026-10-03", "geometrie_source": "Point", "landuse": null, "industrial": null, "harbour": null, "seamark_type": "harbour", "operator": null }, "geometry": { "type": "Point", "coordinates": [ 12.070357, 4.522113 ] } },
{ "type": "Feature", "properties": { "tg_type": "INF.PORT", "nom": "", "source_id": "node/11044202512", "source": "OSM_OSMFR_2026-10-03", "statut": "IMPORTE", "date_source": "2026-10-03", "geometrie_source": "Point", "landuse": null, "industrial": null, "harbour": null, "seamark_type": "harbour", "operator": null }, "geometry": { "type": "Point", "coordinates": [ 12.093915, 4.516701 ] } },
{ "type": "Feature", "properties": { "tg_type": "INF.PORT", "nom": "CEFI", "source_id": "node/12520592046", "source": "OSM_OSMFR_2026-10-03", "statut": "IMPORTE", "date_source": "2026-10-03", "geometrie_source": "Point", "landuse": null, "industrial": null, "harbour": "yes", "seamark_type": null, "operator": null }, "geometry": { "type": "Point", "coordinates": [ 15.219959, 2.035122 ] } },
{ "type": "Feature", "properties": { "tg_type": "INF.PORT", "nom": "", "source_id": "node/12520592465", "source": "OSM_OSMFR_2026-10-03", "statut": "IMPORTE", "date_source": "2026-10-03", "geometrie_source": "Point", "landuse": null, "industrial": null, "harbour": "yes", "seamark_type": null, "operator": null }, "geometry": { "type": "Point", "coordinates": [ 14.89005, 2.026936 ] } },
{ "type": "Feature", "properties": { "tg_type": "INF.PORT", "nom": "", "source_id": "node/12520592466", "source": "OSM_OSMFR_2026-10-03", "statut": "IMPORTE", "date_source": "2026-10-03", "geometrie_source": "Point", "landuse": null, "industrial": null, "harbour": "yes", "seamark_type": null, "operator": null }, "geometry": { "type": "Point", "coordinates": [ 14.910093, 2.06507 ] } },
{ "type": "Feature", "properties": { "tg_type": "INF.PORT", "nom": "", "source_id": "node/12520592467", "source": "OSM_OSMFR_2026-10-03", "statut": "IMPORTE", "date_source": "2026-10-03", "geometrie_source": "Point", "landuse": null, "industrial": null, "harbour": "yes", "seamark_type": null, "operator": null }, "geometry": { "type": "Point", "coordinates": [ 14.908986, 2.042785 ] } },
{ "type": "Feature", "properties": { "tg_type": "INF.PORT", "nom": "Port Autonome de Kribi", "source_id": "way/325526034", "source": "OSM_OSMFR_2026-10-03", "statut": "IMPORTE", "date_source": "2026-10-03", "geometrie_source": "Polygon", "landuse": "industrial", "industrial": "port", "harbour": null, "seamark_type": null, "operator": null }, "geometry": { "type": "Point", "coordinates": [ 9.864269, 2.726582 ] } },
{ "type": "Feature", "properties": { "tg_type": "INF.PORT", "nom": "Marina", "source_id": "way/338971709", "source": "OSM_OSMFR_2026-10-03", "statut": "IMPORTE", "date_source": "2026-10-03", "geometrie_source": "Polygon", "landuse": null, "industrial": null, "harbour": null, "seamark_type": "harbour", "operator": null }, "geometry": { "type": "Point", "coordinates": [ 9.905209, 2.938319 ] } }
]
}
