{
"type": "FeatureCollection",
"name": "routes_motorway",
"crs": { "type": "name", "properties": { "name": "urn:ogc:def:crs:OGC:1.3:CRS84" } },
"xy_coordinate_resolution": 1e-06,
"features": [
{ "type": "Feature", "properties": { "tg_type": "INF.ROUTE", "nom": "", "source_id": "way/30063875", "source": "OSM_OSMFR_2026-10-03", "statut": "IMPORTE", "date_source": "2026-10-03", "classe": "motorway", "bretelle": false, "ref": null, "surface": "asphalt", "lanes": "2", "oneway": "yes", "bridge": null, "longueur_m": 28.5 }, "geometry": { "type": "LineString", "coordinates": [ [ 11.544339, 3.715669 ], [ 11.54409, 3.715638 ] ] } },
{ "type": "Feature", "properties": { "tg_type": "INF.ROUTE", "nom": "", "source_id": "way/237079847", "source": "OSM_OSMFR_2026-10-03", "statut": "IMPORTE", "date_source": "2026-10-03", "classe": "motorway", "bretelle": false, "ref": null, "surface": "asphalt", "lanes": "2", "oneway": "yes", "bridge": null, "longueur_m": 26.0 }, "geometry": { "type": "LineString", "coordinates": [ [ 11.544082, 3.715558 ], [ 11.544286, 3.715449 ] ] } },
{ "type": "Feature", "properties": { "tg_type": "INF.ROUTE", "nom": "", "source_id": "way/237079848", "source": "OSM_OSMFR_2026-10-03", "statut": "IMPORTE", "date_source": "2026-10-03", "classe": "motorway", "bretelle": false, "ref": null, "surface": "asphalt", "lanes": "2", "oneway": "yes", "bridge": "yes", "longueur_m": 81.4 }, "geometry": { "type": "LineString", "coordinates": [ [ 11.54409, 3.715638 ], [ 11.543367, 3.715759 ] ] } },
{ "type": "Feature", "properties": { "tg_type": "INF.ROUTE", "nom": "", "source_id": "way/237079849", "source": "OSM_OSMFR_2026-10-03", "statut": "IMPORTE", "date_source": "2026-10-03", "classe": "motorway", "bretelle": false, "ref": null, "surface": "asphalt", "lanes": "2", "oneway": "yes", "bridge": "yes", "longueur_m": 80.2 }, "geometry": { "type": "LineString", "coordinates": [ [ 11.543372, 3.715684 ], [ 11.544082, 3.715558 ] ] } },
{ "type": "Feature", "properties": { "tg_type": "INF.ROUTE", "nom": "", "source_id": "way/237079851", "source": "OSM_OSMFR_2026-10-03", "statut": "IMPORTE", "date_source": "2026-10-03", "classe": "motorway", "bretelle": false, "ref": null, "surface": "asphalt", "lanes": "2", "oneway": "yes", "bridge": null, "longueur_m": 297.8 }, "geometry": { "type": "LineString", "coordinates": [ [ 11.540814, 3.716448 ], [ 11.541801, 3.716037 ], [ 11.543372, 3.715684 ] ] } },
{ "type": "Feature", "properties": { "tg_type": "INF.ROUTE", "nom": "", "source_id": "way/237079852", "source": "OSM_OSMFR_2026-10-03", "statut": "IMPORTE", "date_source": "2026-10-03", "classe": "motorway", "bretelle": false, "ref": null, "surface": "asphalt", "lanes": "2", "oneway": "yes", "bridge": null, "longueur_m": 313.6 }, "geometry": { "type": "LineString", "coordinates": [ [ 11.543367, 3.715759 ], [ 11.541991, 3.716062 ], [ 11.540691, 3.716609 ] ] } },
{ "type": "Feature", "properties": { "tg_type": "INF.ROUTE", "nom": "Autoroute Yaoundé - Douala", "source_id": "way/344042767", "source": "OSM_OSMFR_2026-10-03", "statut": "IMPORTE", "date_source": "2026-10-03", "classe": "motorway", "bretelle": false, "ref": "A1", "surface": "asphalt", "lanes": null, "oneway": "yes", "bridge": null, "longueur_m": 31973.0 }, "geometry": { "type": "LineString", "coordinates": [ [ 11.21467, 3.899158 ], [ 11.213347, 3.899231 ], [ 11.212146, 3.89948 ], [ 11.20904, 3.900347 ], [ 11.20768, 3.900563 ], [ 11.198325, 3.90078 ], [ 11.197139, 3.900751 ], [ 11.195734, 3.900478 ], [ 11.194403, 3.90002 ], [ 11.193161, 3.899338 ], [ 11.190329, 3.897293 ], [ 11.189339, 3.896796 ], [ 11.188363, 3.896442 ], [ 11.187368, 3.896207 ], [ 11.186231, 3.896073 ], [ 11.179748, 3.895838 ], [ 11.178476, 3.895883 ], [ 11.17721, 3.896022 ], [ 11.174359, 3.896723 ], [ 11.173353, 3.896887 ], [ 11.171958, 3.896978 ], [ 11.170709, 3.896921 ], [ 11.166326, 3.896284 ], [ 11.164599, 3.896236 ], [ 11.162801, 3.895911 ], [ 11.161742, 3.895538 ], [ 11.15891, 3.893967 ], [ 11.157373, 3.893354 ], [ 11.156144, 3.893071 ], [ 11.15203, 3.892696 ], [ 11.15038, 3.892255 ], [ 11.147727, 3.891315 ], [ 11.146123, 3.891069 ], [ 11.144825, 3.891069 ], [ 11.143661, 3.891219 ], [ 11.142706, 3.891492 ], [ 11.136795, 3.893702 ], [ 11.134515, 3.894398 ], [ 11.132664, 3.894703 ], [ 11.130529, 3.894772 ], [ 11.128249, 3.894532 ], [ 11.126653, 3.894109 ], [ 11.123279, 3.893017 ], [ 11.12197, 3.892733 ], [ 11.120533, 3.892594 ], [ 11.11891, 3.892602 ], [ 11.114578, 3.893065 ], [ 11.11251, 3.892875 ], [ 11.111062, 3.892487 ], [ 11.107752, 3.891197 ], [ 11.103278, 3.88987 ], [ 11.101497, 3.889506 ], [ 11.099319, 3.889388 ], [ 11.094807, 3.889827 ], [ 11.092807, 3.890234 ], [ 11.091299, 3.890882 ], [ 11.090076, 3.89169 ], [ 11.088807, 3.892913 ], [ 11.087372, 3.894505 ], [ 11.085833, 3.895634 ], [ 11.081262, 3.89778 ], [ 11.080077, 3.898631 ], [ 11.079068, 3.899589 ], [ 11.075243, 3.904149 ], [ 11.074047, 3.905252 ], [ 11.065357, 3.911963 ], [ 11.06401, 3.912942 ], [ 11.062685, 3.913595 ], [ 11.058185, 3.915271 ], [ 11.056007, 3.915923 ], [ 11.054145, 3.916138 ], [ 11.046764, 3.915961 ], [ 11.043239, 3.916068 ], [ 11.040876, 3.916539 ], [ 11.038422, 3.917449 ], [ 11.036287, 3.918615 ], [ 11.034796, 3.919758 ], [ 11.033428, 3.921024 ], [ 11.032135, 3.922619 ], [ 11.031084, 3.924294 ], [ 11.028332, 3.929528 ], [ 11.026658, 3.932498 ], [ 11.02492, 3.934628 ], [ 11.022999, 3.936282 ], [ 11.021379, 3.93724 ], [ 11.020022, 3.937871 ], [ 11.018831, 3.938283 ], [ 11.017216, 3.938677 ], [ 11.015658, 3.938875 ], [ 11.0134, 3.938966 ], [ 11.01086, 3.93922 ], [ 11.008746, 3.939691 ], [ 11.007593, 3.940055 ], [ 11.005324, 3.940994 ], [ 11.003693, 3.941915 ], [ 11.001137, 3.943563 ], [ 10.998916, 3.944657 ], [ 10.997776, 3.945067 ], [ 10.995877, 3.945567 ], [ 10.993452, 3.945904 ], [ 10.992065, 3.945944 ], [ 10.989415, 3.945744 ], [ 10.988117, 3.945487 ], [ 10.981101, 3.943576 ], [ 10.979719, 3.943322 ], [ 10.9783, 3.943172 ], [ 10.976401, 3.943137 ], [ 10.969529, 3.943338 ], [ 10.967698, 3.943172 ], [ 10.951603, 3.939557 ] ] } },
{ "type": "Feature", "properties": { "tg_type": "INF.ROUTE", "nom": "Autoroute Kribi Lolabé", "source_id": "way/421657406", "source": "OSM_OSMFR_2026-10-03", "statut": "IMPORTE", "date_source": "2026-10-03", "classe": "motorway", "bretelle": false, "ref": "A2", "surface": null, "lanes": null, "oneway": "yes", "bridge": "yes", "longueur_m": 130.2 }, "geometry": { "type": "LineString", "coordinates": [ [ 9.906885, 2.862883 ], [ 9.907557, 2.863848 ] ] } },
{ "type": "Feature", "properties": { "tg_type": "INF.ROUTE", "nom": "Autoroute Kribi Lolabé", "source_id": "way/421657407", "source": "OSM_OSMFR_2026-10-03", "statut": "IMPORTE", "date_source": "2026-10-03", "classe": "motorway", "bretelle": false, "ref": "A2", "surface": null, "lanes": null, "oneway": "yes", "bridge": null, "longueur_m": 11363.5 }, "geometry": { "type": "LineString", "coordinates": [ [ 9.907557, 2.863848 ], [ 9.913358, 2.871835 ], [ 9.920548, 2.88244 ], [ 9.92228, 2.885323 ], [ 9.923954, 2.888639 ], [ 9.929491, 2.90172 ], [ 9.932205, 2.906864 ], [ 9.933691, 2.909121 ], [ 9.938478, 2.915355 ], [ 9.940946, 2.918426 ], [ 9.944093, 2.923328 ], [ 9.944786, 2.925115 ], [ 9.94594, 2.928712 ], [ 9.946547, 2.931826 ], [ 9.946518, 2.93618 ], [ 9.946402, 2.939035 ], [ 9.946584, 2.946779 ], [ 9.9476, 2.955435 ] ] } },
{ "type": "Feature", "properties": { "tg_type": "INF.ROUTE", "nom": "Autoroute Kribi Lolabé", "source_id": "way/421657409", "source": "OSM_OSMFR_2026-10-03", "statut": "IMPORTE", "date_source": "2026-10-03", "classe": "motorway", "bretelle": false, "ref": "A2", "surface": null, "lanes": null, "oneway": "yes", "bridge": null, "longueur_m": 19199.3 }, "geometry": { "type": "LineString", "coordinates": [ [ 9.879935, 2.724399 ], [ 9.880381, 2.727388 ], [ 9.881254, 2.731773 ], [ 9.881861, 2.734076 ], [ 9.882627, 2.736561 ], [ 9.884134, 2.740668 ], [ 9.890693, 2.757059 ], [ 9.89209, 2.760245 ], [ 9.893598, 2.763148 ], [ 9.894281, 2.764285 ], [ 9.895882, 2.766787 ], [ 9.897377, 2.768917 ], [ 9.898677, 2.770581 ], [ 9.901342, 2.773696 ], [ 9.903632, 2.775935 ], [ 9.906866, 2.77874 ], [ 9.91261, 2.783193 ], [ 9.914163, 2.784372 ], [ 9.917293, 2.786403 ], [ 9.929528, 2.793587 ], [ 9.931255, 2.794703 ], [ 9.931827, 2.795158 ], [ 9.933307, 2.796708 ], [ 9.934253, 2.798105 ], [ 9.934916, 2.799509 ], [ 9.935421, 2.801252 ], [ 9.935628, 2.803464 ], [ 9.935532, 2.805015 ], [ 9.935349, 2.805968 ], [ 9.935095, 2.806866 ], [ 9.934353, 2.808608 ], [ 9.933311, 2.810231 ], [ 9.90869, 2.837687 ], [ 9.905675, 2.84128 ], [ 9.90398, 2.844384 ], [ 9.903092, 2.846871 ], [ 9.90263, 2.849965 ], [ 9.902562, 2.852383 ], [ 9.903021, 2.85529 ], [ 9.903373, 2.856527 ], [ 9.903985, 2.858088 ], [ 9.904705, 2.859529 ], [ 9.906885, 2.862883 ] ] } },
{ "type": "Feature", "properties": { "tg_type": "INF.ROUTE", "nom": "", "source_id": "way/490124439", "source": "OSM_OSMFR_2026-10-03", "statut": "IMPORTE", "date_source": "2026-10-03", "classe": "motorway", "bretelle": true, "ref": null, "surface": "asphalt", "lanes": "1", "oneway": "yes", "bridge": null, "longueur_m": 484.2 }, "geometry": { "type": "LineString", "coordinates": [ [ 11.502066, 3.795913 ], [ 11.502788, 3.796887 ], [ 11.503555, 3.798461 ], [ 11.503741, 3.799074 ], [ 11.504217, 3.799667 ] ] } },
{ "type": "Feature", "properties": { "tg_type": "INF.ROUTE", "nom": "Autoroute Yaoundé-Nsimalen", "source_id": "way/490124441", "source": "OSM_OSMFR_2026-10-03", "statut": "IMPORTE", "date_source": "2026-10-03", "classe": "motorway", "bretelle": false, "ref": null, "surface": "asphalt", "lanes": "3", "oneway": "yes", "bridge": null, "longueur_m": 2920.1 }, "geometry": { "type": "LineString", "coordinates": [ [ 11.513348, 3.752477 ], [ 11.513866, 3.754078 ], [ 11.514097, 3.755476 ], [ 11.514137, 3.756608 ], [ 11.51394, 3.758357 ], [ 11.51126, 3.768803 ], [ 11.510231, 3.774682 ], [ 11.509532, 3.776515 ], [ 11.508593, 3.777911 ] ] } },
{ "type": "Feature", "properties": { "tg_type": "INF.ROUTE", "nom": "Autoroute Yaoundé-Nsimalen", "source_id": "way/490124445", "source": "OSM_OSMFR_2026-10-03", "statut": "IMPORTE", "date_source": "2026-10-03", "classe": "motorway", "bretelle": false, "ref": null, "surface": null, "lanes": "2", "oneway": "yes", "bridge": null, "longueur_m": 220.8 }, "geometry": { "type": "LineString", "coordinates": [ [ 11.50195, 3.796174 ], [ 11.502013, 3.798168 ] ] } },
{ "type": "Feature", "properties": { "tg_type": "INF.ROUTE", "nom": "", "source_id": "way/520618376", "source": "OSM_OSMFR_2026-10-03", "statut": "IMPORTE", "date_source": "2026-10-03", "classe": "motorway", "bretelle": true, "ref": null, "surface": null, "lanes": null, "oneway": "yes", "bridge": null, "longueur_m": 483.0 }, "geometry": { "type": "LineString", "coordinates": [ [ 9.957509, 2.98422 ], [ 9.957085, 2.98278 ], [ 9.956447, 2.981437 ], [ 9.95595, 2.980153 ] ] } },
{ "type": "Feature", "properties": { "tg_type": "INF.ROUTE", "nom": "Autoroute Kribi Lolabé", "source_id": "way/520618381", "source": "OSM_OSMFR_2026-10-03", "statut": "IMPORTE", "date_source": "2026-10-03", "classe": "motorway", "bretelle": false, "ref": "A2", "surface": "asphalt", "lanes": null, "oneway": "yes", "bridge": null, "longueur_m": 1338.8 }, "geometry": { "type": "LineString", "coordinates": [ [ 9.949773, 2.969939 ], [ 9.950606, 2.972076 ], [ 9.951817, 2.974564 ], [ 9.953258, 2.976763 ], [ 9.956169, 2.98006 ] ] } },
{ "type": "Feature", "properties": { "tg_type": "INF.ROUTE", "nom": "", "source_id": "way/520618383", "source": "OSM_OSMFR_2026-10-03", "statut": "IMPORTE", "date_source": "2026-10-03", "classe": "motorway", "bretelle": true, "ref": null, "surface": null, "lanes": null, "oneway": "yes", "bridge": null, "longueur_m": 455.5 }, "geometry": { "type": "LineString", "coordinates": [ [ 9.956169, 2.98006 ], [ 9.957342, 2.980783 ], [ 9.959794, 2.981967 ] ] } },
{ "type": "Feature", "properties": { "tg_type": "INF.ROUTE", "nom": "", "source_id": "way/591740817", "source": "OSM_OSMFR_2026-10-03", "statut": "IMPORTE", "date_source": "2026-10-03", "classe": "motorway", "bretelle": true, "ref": null, "surface": null, "lanes": null, "oneway": "yes", "bridge": null, "longueur_m": 620.7 }, "geometry": { "type": "LineString", "coordinates": [ [ 9.880635, 2.718901 ], [ 9.879866, 2.72164 ], [ 9.879814, 2.72244 ], [ 9.879935, 2.724399 ] ] } },
{ "type": "Feature", "properties": { "tg_type": "INF.ROUTE", "nom": "", "source_id": "way/591740818", "source": "OSM_OSMFR_2026-10-03", "statut": "IMPORTE", "date_source": "2026-10-03", "classe": "motorway", "bretelle": true, "ref": null, "surface": null, "lanes": null, "oneway": "yes", "bridge": null, "longueur_m": 484.7 }, "geometry": { "type": "LineString", "coordinates": [ [ 9.879473, 2.721694 ], [ 9.879113, 2.719538 ], [ 9.878442, 2.718319 ], [ 9.878262, 2.717549 ] ] } },
{ "type": "Feature", "properties": { "tg_type": "INF.ROUTE", "nom": "Autoroute Yaoundé - Douala", "source_id": "way/721696711", "source": "OSM_OSMFR_2026-10-03", "statut": "IMPORTE", "date_source": "2026-10-03", "classe": "motorway", "bretelle": false, "ref": "A1", "surface": "asphalt", "lanes": "2", "oneway": "yes", "bridge": null, "longueur_m": 21352.8 }, "geometry": { "type": "LineString", "coordinates": [ [ 11.224455, 3.90098 ], [ 11.232392, 3.902722 ], [ 11.233863, 3.902808 ], [ 11.234787, 3.902697 ], [ 11.235914, 3.902423 ], [ 11.236914, 3.902047 ], [ 11.238087, 3.901446 ], [ 11.239363, 3.900454 ], [ 11.240471, 3.899289 ], [ 11.241924, 3.897394 ], [ 11.243053, 3.89611 ], [ 11.243878, 3.895352 ], [ 11.245301, 3.894558 ], [ 11.246706, 3.894007 ], [ 11.259849, 3.88994 ], [ 11.261673, 3.889062 ], [ 11.262392, 3.88858 ], [ 11.2649, 3.886477 ], [ 11.265739, 3.885979 ], [ 11.267512, 3.885297 ], [ 11.268314, 3.88508 ], [ 11.269883, 3.884887 ], [ 11.270597, 3.884871 ], [ 11.27156, 3.884968 ], [ 11.272541, 3.885139 ], [ 11.273947, 3.885578 ], [ 11.276066, 3.886771 ], [ 11.277256, 3.887853 ], [ 11.278689, 3.888885 ], [ 11.279205, 3.889159 ], [ 11.28051, 3.889658 ], [ 11.281802, 3.889913 ], [ 11.283329, 3.890432 ], [ 11.288908, 3.893108 ], [ 11.29593, 3.8961 ], [ 11.298747, 3.896876 ], [ 11.300603, 3.897095 ], [ 11.305651, 3.897272 ], [ 11.310323, 3.897962 ], [ 11.311138, 3.898021 ], [ 11.311997, 3.898027 ], [ 11.316347, 3.897368 ], [ 11.318718, 3.897117 ], [ 11.321173, 3.897223 ], [ 11.323218, 3.897063 ], [ 11.325148, 3.896612 ], [ 11.328272, 3.895672 ], [ 11.329698, 3.895118 ], [ 11.338574, 3.890132 ], [ 11.340022, 3.889494 ], [ 11.341389, 3.889067 ], [ 11.345016, 3.888295 ], [ 11.345719, 3.888056 ], [ 11.346988, 3.88742 ], [ 11.348249, 3.886501 ], [ 11.349133, 3.885612 ], [ 11.349873, 3.884737 ], [ 11.351496, 3.8823 ], [ 11.352315, 3.881396 ], [ 11.353098, 3.880694 ], [ 11.354236, 3.879877 ], [ 11.355541, 3.878669 ], [ 11.357418, 3.876058 ], [ 11.358329, 3.875057 ], [ 11.358943, 3.874556 ], [ 11.360643, 3.873703 ], [ 11.361954, 3.87336 ], [ 11.362725, 3.873276 ], [ 11.363533, 3.873276 ], [ 11.365439, 3.873592 ], [ 11.367018, 3.87374 ], [ 11.369063, 3.873564 ], [ 11.37055, 3.873072 ], [ 11.371879, 3.872414 ], [ 11.373706, 3.871026 ], [ 11.374923, 3.870245 ], [ 11.376946, 3.869536 ], [ 11.378149, 3.869327 ], [ 11.379787, 3.869341 ], [ 11.380526, 3.869428 ], [ 11.381309, 3.86963 ], [ 11.382541, 3.870079 ], [ 11.383237, 3.870426 ], [ 11.384781, 3.871424 ], [ 11.386238, 3.872212 ], [ 11.388333, 3.872805 ], [ 11.389681, 3.872906 ], [ 11.390949, 3.872841 ], [ 11.398415, 3.871617 ] ] } },
{ "type": "Feature", "properties": { "tg_type": "INF.ROUTE", "nom": "Autoroute Yaoundé-Nsimalen", "source_id": "way/744295906", "source": "OSM_OSMFR_2026-10-03", "statut": "IMPORTE", "date_source": "2026-10-03", "classe": "motorway", "bretelle": false, "ref": null, "surface": "asphalt", "lanes": "2", "oneway": "yes", "bridge": null, "longueur_m": 271.6 }, "geometry": { "type": "LineString", "coordinates": [ [ 11.537112, 3.720431 ], [ 11.538427, 3.71836 ] ] } },
{ "type": "Feature", "properties": { "tg_type": "INF.ROUTE", "nom": "Autoroute Yaoundé-Nsimalen", "source_id": "way/744297155", "source": "OSM_OSMFR_2026-10-03", "statut": "IMPORTE", "date_source": "2026-10-03", "classe": "motorway", "bretelle": false, "ref": null, "surface": "asphalt", "lanes": "3", "oneway": "yes", "bridge": "yes", "longueur_m": 104.0 }, "geometry": { "type": "LineString", "coordinates": [ [ 11.513021, 3.751596 ], [ 11.513348, 3.752477 ] ] } },
{ "type": "Feature", "properties": { "tg_type": "INF.ROUTE", "nom": "Autoroute Yaoundé-Nsimalen", "source_id": "way/744297156", "source": "OSM_OSMFR_2026-10-03", "statut": "IMPORTE", "date_source": "2026-10-03", "classe": "motorway", "bretelle": false, "ref": null, "surface": "asphalt", "lanes": "3", "oneway": "yes", "bridge": null, "longueur_m": 4292.5 }, "geometry": { "type": "LineString", "coordinates": [ [ 11.512877, 3.751638 ], [ 11.512309, 3.75008 ], [ 11.511896, 3.748599 ], [ 11.511798, 3.747105 ], [ 11.511895, 3.746032 ], [ 11.512026, 3.745493 ], [ 11.51248, 3.744359 ], [ 11.513935, 3.741993 ], [ 11.514477, 3.741252 ], [ 11.515757, 3.739896 ], [ 11.521315, 3.735156 ], [ 11.525153, 3.730519 ], [ 11.529915, 3.725525 ], [ 11.530798, 3.724833 ], [ 11.531714, 3.724245 ], [ 11.534577, 3.722847 ] ] } },
{ "type": "Feature", "properties": { "tg_type": "INF.ROUTE", "nom": "Autoroute Yaoundé-Nsimalen", "source_id": "way/832350224", "source": "OSM_OSMFR_2026-10-03", "statut": "IMPORTE", "date_source": "2026-10-03", "classe": "motorway", "bretelle": false, "ref": null, "surface": null, "lanes": "3", "oneway": "yes", "bridge": "yes", "longueur_m": 66.7 }, "geometry": { "type": "LineString", "coordinates": [ [ 11.501604, 3.79305 ], [ 11.501624, 3.793653 ] ] } },
{ "type": "Feature", "properties": { "tg_type": "INF.ROUTE", "nom": "Autoroute Yaoundé-Nsimalen", "source_id": "way/832350225", "source": "OSM_OSMFR_2026-10-03", "statut": "IMPORTE", "date_source": "2026-10-03", "classe": "motorway", "bretelle": false, "ref": null, "surface": "asphalt", "lanes": "3", "oneway": "yes", "bridge": null, "longueur_m": 136.4 }, "geometry": { "type": "LineString", "coordinates": [ [ 11.501624, 3.793653 ], [ 11.501756, 3.794879 ] ] } },
{ "type": "Feature", "properties": { "tg_type": "INF.ROUTE", "nom": "Autoroute Yaoundé-Nsimalen", "source_id": "way/870819063", "source": "OSM_OSMFR_2026-10-03", "statut": "IMPORTE", "date_source": "2026-10-03", "classe": "motorway", "bretelle": false, "ref": null, "surface": "asphalt", "lanes": "3", "oneway": "yes", "bridge": null, "longueur_m": 4235.5 }, "geometry": { "type": "LineString", "coordinates": [ [ 11.534343, 3.723124 ], [ 11.531836, 3.724325 ], [ 11.53106, 3.724813 ], [ 11.529955, 3.72568 ], [ 11.5258, 3.73 ], [ 11.52144, 3.735216 ], [ 11.520861, 3.735783 ], [ 11.51588, 3.739961 ], [ 11.515019, 3.740827 ], [ 11.51414, 3.741926 ], [ 11.512611, 3.744391 ], [ 11.512198, 3.745386 ], [ 11.511983, 3.74625 ], [ 11.511927, 3.747754 ], [ 11.512031, 3.748632 ], [ 11.512244, 3.74948 ], [ 11.513021, 3.751596 ] ] } },
{ "type": "Feature", "properties": { "tg_type": "INF.ROUTE", "nom": "Autoroute Yaoundé-Nsimalen", "source_id": "way/870819068", "source": "OSM_OSMFR_2026-10-03", "statut": "IMPORTE", "date_source": "2026-10-03", "classe": "motorway", "bretelle": false, "ref": null, "surface": "asphalt", "lanes": "2", "oneway": "yes", "bridge": "yes", "longueur_m": 97.0 }, "geometry": { "type": "LineString", "coordinates": [ [ 11.536586, 3.72113 ], [ 11.537112, 3.720431 ] ] } },
{ "type": "Feature", "properties": { "tg_type": "INF.ROUTE", "nom": "Autoroute Yaoundé-Nsimalen", "source_id": "way/870819069", "source": "OSM_OSMFR_2026-10-03", "statut": "IMPORTE", "date_source": "2026-10-03", "classe": "motorway", "bretelle": false, "ref": null, "surface": "asphalt", "lanes": "2", "oneway": "yes", "bridge": null, "longueur_m": 364.6 }, "geometry": { "type": "LineString", "coordinates": [ [ 11.539088, 3.717799 ], [ 11.538499, 3.718425 ], [ 11.537203, 3.720483 ] ] } },
{ "type": "Feature", "properties": { "tg_type": "INF.ROUTE", "nom": "Autoroute Yaoundé-Nsimalen", "source_id": "way/870819070", "source": "OSM_OSMFR_2026-10-03", "statut": "IMPORTE", "date_source": "2026-10-03", "classe": "motorway", "bretelle": false, "ref": null, "surface": "asphalt", "lanes": "2", "oneway": "yes", "bridge": "yes", "longueur_m": 99.6 }, "geometry": { "type": "LineString", "coordinates": [ [ 11.537203, 3.720483 ], [ 11.536656, 3.721196 ] ] } },
{ "type": "Feature", "properties": { "tg_type": "INF.ROUTE", "nom": "", "source_id": "way/870819071", "source": "OSM_OSMFR_2026-10-03", "statut": "IMPORTE", "date_source": "2026-10-03", "classe": "motorway", "bretelle": true, "ref": null, "surface": null, "lanes": null, "oneway": "yes", "bridge": null, "longueur_m": 318.1 }, "geometry": { "type": "LineString", "coordinates": [ [ 11.534577, 3.722847 ], [ 11.53569, 3.721938 ], [ 11.536662, 3.720893 ] ] } },
{ "type": "Feature", "properties": { "tg_type": "INF.ROUTE", "nom": "", "source_id": "way/870819072", "source": "OSM_OSMFR_2026-10-03", "statut": "IMPORTE", "date_source": "2026-10-03", "classe": "motorway", "bretelle": true, "ref": null, "surface": null, "lanes": null, "oneway": "yes", "bridge": null, "longueur_m": 373.3 }, "geometry": { "type": "LineString", "coordinates": [ [ 11.536998, 3.721104 ], [ 11.536631, 3.721531 ], [ 11.535728, 3.722301 ], [ 11.534343, 3.723124 ] ] } },
{ "type": "Feature", "properties": { "tg_type": "INF.ROUTE", "nom": "Autoroute Yaoundé-Nsimalen", "source_id": "way/870819073", "source": "OSM_OSMFR_2026-10-03", "statut": "IMPORTE", "date_source": "2026-10-03", "classe": "motorway", "bretelle": false, "ref": null, "surface": "asphalt", "lanes": "3", "oneway": "yes", "bridge": null, "longueur_m": 4829.0 }, "geometry": { "type": "LineString", "coordinates": [ [ 11.501476, 3.793067 ], [ 11.501443, 3.789864 ], [ 11.501502, 3.788983 ], [ 11.501797, 3.787679 ], [ 11.50226, 3.78655 ], [ 11.503168, 3.785048 ], [ 11.506911, 3.779734 ], [ 11.508815, 3.777443 ], [ 11.509393, 3.776442 ], [ 11.510149, 3.774476 ], [ 11.511209, 3.768343 ], [ 11.513914, 3.757761 ], [ 11.514003, 3.756691 ], [ 11.513974, 3.755485 ], [ 11.513768, 3.754223 ], [ 11.513213, 3.752525 ] ] } },
{ "type": "Feature", "properties": { "tg_type": "INF.ROUTE", "nom": "Autoroute Yaoundé-Nsimalen", "source_id": "way/870819074", "source": "OSM_OSMFR_2026-10-03", "statut": "IMPORTE", "date_source": "2026-10-03", "classe": "motorway", "bretelle": false, "ref": null, "surface": "asphalt", "lanes": "3", "oneway": "yes", "bridge": "yes", "longueur_m": 105.0 }, "geometry": { "type": "LineString", "coordinates": [ [ 11.513213, 3.752525 ], [ 11.512877, 3.751638 ] ] } },
{ "type": "Feature", "properties": { "tg_type": "INF.ROUTE", "nom": "Autoroute Yaoundé-Nsimalen", "source_id": "way/870819085", "source": "OSM_OSMFR_2026-10-03", "statut": "IMPORTE", "date_source": "2026-10-03", "classe": "motorway", "bretelle": true, "ref": null, "surface": "asphalt", "lanes": null, "oneway": "yes", "bridge": null, "longueur_m": 721.9 }, "geometry": { "type": "LineString", "coordinates": [ [ 11.50957, 3.78041 ], [ 11.508609, 3.780782 ], [ 11.506894, 3.782138 ], [ 11.50532, 3.782827 ], [ 11.504972, 3.783093 ], [ 11.504206, 3.783918 ] ] } },
{ "type": "Feature", "properties": { "tg_type": "INF.ROUTE", "nom": "Autoroute Yaoundé-Nsimalen", "source_id": "way/870819089", "source": "OSM_OSMFR_2026-10-03", "statut": "IMPORTE", "date_source": "2026-10-03", "classe": "motorway", "bretelle": false, "ref": null, "surface": "asphalt", "lanes": "3", "oneway": "yes", "bridge": null, "longueur_m": 54.8 }, "geometry": { "type": "LineString", "coordinates": [ [ 11.501524, 3.794179 ], [ 11.501501, 3.793683 ] ] } },
{ "type": "Feature", "properties": { "tg_type": "INF.ROUTE", "nom": "Autoroute Yaoundé-Nsimalen", "source_id": "way/870819090", "source": "OSM_OSMFR_2026-10-03", "statut": "IMPORTE", "date_source": "2026-10-03", "classe": "motorway", "bretelle": false, "ref": null, "surface": null, "lanes": "3", "oneway": "yes", "bridge": "yes", "longueur_m": 68.3 }, "geometry": { "type": "LineString", "coordinates": [ [ 11.501501, 3.793683 ], [ 11.501476, 3.793067 ] ] } },
{ "type": "Feature", "properties": { "tg_type": "INF.ROUTE", "nom": "", "source_id": "way/870819091", "source": "OSM_OSMFR_2026-10-03", "statut": "IMPORTE", "date_source": "2026-10-03", "classe": "motorway", "bretelle": true, "ref": null, "surface": null, "lanes": null, "oneway": "yes", "bridge": null, "longueur_m": 408.6 }, "geometry": { "type": "LineString", "coordinates": [ [ 11.502755, 3.798815 ], [ 11.503197, 3.798886 ], [ 11.503391, 3.798781 ], [ 11.503456, 3.798603 ], [ 11.503373, 3.798286 ], [ 11.502755, 3.797085 ], [ 11.50246, 3.797003 ], [ 11.502267, 3.797127 ], [ 11.502126, 3.797691 ] ] } },
{ "type": "Feature", "properties": { "tg_type": "INF.ROUTE", "nom": "Autoroute Yaoundé-Nsimalen", "source_id": "way/870819092", "source": "OSM_OSMFR_2026-10-03", "statut": "IMPORTE", "date_source": "2026-10-03", "classe": "motorway", "bretelle": false, "ref": null, "surface": null, "lanes": "2", "oneway": "yes", "bridge": null, "longueur_m": 200.4 }, "geometry": { "type": "LineString", "coordinates": [ [ 11.501993, 3.79874 ], [ 11.501949, 3.799836 ], [ 11.501691, 3.800496 ] ] } },
{ "type": "Feature", "properties": { "tg_type": "INF.ROUTE", "nom": "Autoroute Yaoundé-Nsimalen", "source_id": "way/870819093", "source": "OSM_OSMFR_2026-10-03", "statut": "IMPORTE", "date_source": "2026-10-03", "classe": "motorway", "bretelle": false, "ref": null, "surface": null, "lanes": "2", "oneway": "yes", "bridge": null, "longueur_m": 192.5 }, "geometry": { "type": "LineString", "coordinates": [ [ 11.501636, 3.80039 ], [ 11.501844, 3.799673 ], [ 11.501876, 3.798682 ] ] } },
{ "type": "Feature", "properties": { "tg_type": "INF.ROUTE", "nom": "Autoroute Yaoundé-Nsimalen", "source_id": "way/870819094", "source": "OSM_OSMFR_2026-10-03", "statut": "IMPORTE", "date_source": "2026-10-03", "classe": "motorway", "bretelle": false, "ref": null, "surface": null, "lanes": "2", "oneway": "yes", "bridge": null, "longueur_m": 439.8 }, "geometry": { "type": "LineString", "coordinates": [ [ 11.501905, 3.798125 ], [ 11.501893, 3.796592 ], [ 11.501524, 3.794179 ] ] } },
{ "type": "Feature", "properties": { "tg_type": "INF.ROUTE", "nom": "", "source_id": "way/870819095", "source": "OSM_OSMFR_2026-10-03", "statut": "IMPORTE", "date_source": "2026-10-03", "classe": "motorway", "bretelle": true, "ref": null, "surface": "asphalt", "lanes": "2", "oneway": "yes", "bridge": null, "longueur_m": 518.2 }, "geometry": { "type": "LineString", "coordinates": [ [ 11.500213, 3.797399 ], [ 11.500798, 3.797639 ], [ 11.501092, 3.797656 ], [ 11.50134, 3.797562 ], [ 11.501573, 3.797279 ], [ 11.501652, 3.796958 ], [ 11.501524, 3.794179 ] ] } },
{ "type": "Feature", "properties": { "tg_type": "INF.ROUTE", "nom": "", "source_id": "way/907328402", "source": "OSM_OSMFR_2026-10-03", "statut": "IMPORTE", "date_source": "2026-10-03", "classe": "motorway", "bretelle": true, "ref": null, "surface": "asphalt", "lanes": null, "oneway": "yes", "bridge": null, "longueur_m": 302.8 }, "geometry": { "type": "LineString", "coordinates": [ [ 11.536829, 3.720567 ], [ 11.53798, 3.718823 ], [ 11.538427, 3.71836 ] ] } },
{ "type": "Feature", "properties": { "tg_type": "INF.ROUTE", "nom": "", "source_id": "way/907328403", "source": "OSM_OSMFR_2026-10-03", "statut": "IMPORTE", "date_source": "2026-10-03", "classe": "motorway", "bretelle": true, "ref": null, "surface": "asphalt", "lanes": null, "oneway": "yes", "bridge": null, "longueur_m": 209.8 }, "geometry": { "type": "LineString", "coordinates": [ [ 11.538079, 3.719136 ], [ 11.537222, 3.720823 ] ] } },
{ "type": "Feature", "properties": { "tg_type": "INF.ROUTE", "nom": "", "source_id": "way/976996106", "source": "OSM_OSMFR_2026-10-03", "statut": "IMPORTE", "date_source": "2026-10-03", "classe": "motorway", "bretelle": true, "ref": null, "surface": "asphalt", "lanes": null, "oneway": "yes", "bridge": null, "longueur_m": 192.0 }, "geometry": { "type": "LineString", "coordinates": [ [ 9.933014, 2.910248 ], [ 9.93317, 2.909541 ], [ 9.933078, 2.908536 ] ] } },
{ "type": "Feature", "properties": { "tg_type": "INF.ROUTE", "nom": "", "source_id": "way/976996107", "source": "OSM_OSMFR_2026-10-03", "statut": "IMPORTE", "date_source": "2026-10-03", "classe": "motorway", "bretelle": true, "ref": null, "surface": "asphalt", "lanes": null, "oneway": "yes", "bridge": null, "longueur_m": 389.3 }, "geometry": { "type": "LineString", "coordinates": [ [ 9.933691, 2.909121 ], [ 9.934307, 2.909728 ], [ 9.934849, 2.910425 ], [ 9.935197, 2.910639 ], [ 9.935905, 2.910811 ], [ 9.936522, 2.910757 ] ] } },
{ "type": "Feature", "properties": { "tg_type": "INF.ROUTE", "nom": "", "source_id": "way/976996108", "source": "OSM_OSMFR_2026-10-03", "statut": "IMPORTE", "date_source": "2026-10-03", "classe": "motorway", "bretelle": true, "ref": null, "surface": "asphalt", "lanes": null, "oneway": "yes", "bridge": null, "longueur_m": 347.3 }, "geometry": { "type": "LineString", "coordinates": [ [ 9.93737, 2.910554 ], [ 9.936458, 2.91102 ], [ 9.936259, 2.911239 ], [ 9.936147, 2.911513 ], [ 9.936152, 2.912166 ], [ 9.936634, 2.912874 ] ] } },
{ "type": "Feature", "properties": { "tg_type": "INF.ROUTE", "nom": "", "source_id": "way/976996109", "source": "OSM_OSMFR_2026-10-03", "statut": "IMPORTE", "date_source": "2026-10-03", "classe": "motorway", "bretelle": true, "ref": null, "surface": "asphalt", "lanes": null, "oneway": "yes", "bridge": null, "longueur_m": 186.8 }, "geometry": { "type": "LineString", "coordinates": [ [ 9.934389, 2.910299 ], [ 9.933963, 2.909954 ], [ 9.93355, 2.909857 ], [ 9.933159, 2.910012 ], [ 9.933014, 2.910248 ] ] } },
{ "type": "Feature", "properties": { "tg_type": "INF.ROUTE", "nom": "", "source_id": "way/976996110", "source": "OSM_OSMFR_2026-10-03", "statut": "IMPORTE", "date_source": "2026-10-03", "classe": "motorway", "bretelle": true, "ref": null, "surface": "asphalt", "lanes": null, "oneway": "no", "bridge": null, "longueur_m": 562.8 }, "geometry": { "type": "LineString", "coordinates": [ [ 9.941009, 2.912305 ], [ 9.939848, 2.911271 ], [ 9.938668, 2.910671 ], [ 9.938078, 2.910521 ], [ 9.93737, 2.910554 ], [ 9.936522, 2.910757 ] ] } },
{ "type": "Feature", "properties": { "tg_type": "INF.ROUTE", "nom": "", "source_id": "way/977002978", "source": "OSM_OSMFR_2026-10-03", "statut": "IMPORTE", "date_source": "2026-10-03", "classe": "motorway", "bretelle": true, "ref": null, "surface": "asphalt", "lanes": "1", "oneway": "yes", "bridge": null, "longueur_m": 386.5 }, "geometry": { "type": "LineString", "coordinates": [ [ 11.22838, 3.903208 ], [ 11.227613, 3.903097 ], [ 11.22728, 3.902921 ], [ 11.227079, 3.902691 ], [ 11.226652, 3.901879 ], [ 11.225666, 3.901388 ] ] } },
{ "type": "Feature", "properties": { "tg_type": "INF.ROUTE", "nom": "", "source_id": "way/977002979", "source": "OSM_OSMFR_2026-10-03", "statut": "IMPORTE", "date_source": "2026-10-03", "classe": "motorway", "bretelle": true, "ref": null, "surface": "asphalt", "lanes": "2", "oneway": "no", "bridge": null, "longueur_m": 245.1 }, "geometry": { "type": "LineString", "coordinates": [ [ 11.229835, 3.900656 ], [ 11.227634, 3.900492 ] ] } },
{ "type": "Feature", "properties": { "tg_type": "INF.ROUTE", "nom": "", "source_id": "way/977002980", "source": "OSM_OSMFR_2026-10-03", "statut": "IMPORTE", "date_source": "2026-10-03", "classe": "motorway", "bretelle": true, "ref": null, "surface": "asphalt", "lanes": null, "oneway": "yes", "bridge": null, "longueur_m": 288.7 }, "geometry": { "type": "LineString", "coordinates": [ [ 11.228751, 3.902099 ], [ 11.227945, 3.90206 ], [ 11.227623, 3.902326 ], [ 11.227609, 3.902733 ], [ 11.227711, 3.902935 ], [ 11.22838, 3.903208 ] ] } },
{ "type": "Feature", "properties": { "tg_type": "INF.ROUTE", "nom": "", "source_id": "way/977002981", "source": "OSM_OSMFR_2026-10-03", "statut": "IMPORTE", "date_source": "2026-10-03", "classe": "motorway", "bretelle": true, "ref": null, "surface": "asphalt", "lanes": "2", "oneway": "no", "bridge": null, "longueur_m": 227.6 }, "geometry": { "type": "LineString", "coordinates": [ [ 11.230422, 3.903355 ], [ 11.22838, 3.903208 ] ] } },
{ "type": "Feature", "properties": { "tg_type": "INF.ROUTE", "nom": "", "source_id": "way/977002982", "source": "OSM_OSMFR_2026-10-03", "statut": "IMPORTE", "date_source": "2026-10-03", "classe": "motorway", "bretelle": true, "ref": null, "surface": "asphalt", "lanes": "1", "oneway": "yes", "bridge": null, "longueur_m": 276.8 }, "geometry": { "type": "LineString", "coordinates": [ [ 11.225324, 3.901162 ], [ 11.225833, 3.900994 ], [ 11.226702, 3.900476 ], [ 11.227092, 3.900413 ], [ 11.227634, 3.900492 ] ] } },
{ "type": "Feature", "properties": { "tg_type": "INF.ROUTE", "nom": "", "source_id": "way/977002983", "source": "OSM_OSMFR_2026-10-03", "statut": "IMPORTE", "date_source": "2026-10-03", "classe": "motorway", "bretelle": true, "ref": null, "surface": "asphalt", "lanes": "1", "oneway": "yes", "bridge": null, "longueur_m": 389.3 }, "geometry": { "type": "LineString", "coordinates": [ [ 11.227634, 3.900492 ], [ 11.227182, 3.90051 ], [ 11.226956, 3.900595 ], [ 11.226772, 3.900892 ], [ 11.226785, 3.901161 ], [ 11.226871, 3.901299 ], [ 11.227072, 3.901428 ], [ 11.228799, 3.901892 ] ] } },
{ "type": "Feature", "properties": { "tg_type": "INF.ROUTE", "nom": "", "source_id": "way/986603305", "source": "OSM_OSMFR_2026-10-03", "statut": "IMPORTE", "date_source": "2026-10-03", "classe": "motorway", "bretelle": false, "ref": null, "surface": "asphalt", "lanes": "3", "oneway": "yes", "bridge": null, "longueur_m": 221.8 }, "geometry": { "type": "LineString", "coordinates": [ [ 11.540691, 3.716609 ], [ 11.539088, 3.717799 ] ] } },
{ "type": "Feature", "properties": { "tg_type": "INF.ROUTE", "nom": "", "source_id": "way/986603306", "source": "OSM_OSMFR_2026-10-03", "statut": "IMPORTE", "date_source": "2026-10-03", "classe": "motorway", "bretelle": false, "ref": null, "surface": "asphalt", "lanes": "3", "oneway": "yes", "bridge": null, "longueur_m": 325.8 }, "geometry": { "type": "LineString", "coordinates": [ [ 11.538427, 3.71836 ], [ 11.539564, 3.717218 ], [ 11.540685, 3.716519 ] ] } },
{ "type": "Feature", "properties": { "tg_type": "INF.ROUTE", "nom": "", "source_id": "way/1019596251", "source": "OSM_OSMFR_2026-10-03", "statut": "IMPORTE", "date_source": "2026-10-03", "classe": "motorway", "bretelle": true, "ref": null, "surface": "asphalt", "lanes": null, "oneway": "yes", "bridge": null, "longueur_m": 472.4 }, "geometry": { "type": "LineString", "coordinates": [ [ 11.505324, 3.780137 ], [ 11.504399, 3.780081 ], [ 11.504186, 3.780191 ], [ 11.504067, 3.780488 ], [ 11.504396, 3.78191 ], [ 11.504515, 3.782162 ], [ 11.504724, 3.782272 ], [ 11.504931, 3.782234 ], [ 11.505339, 3.781844 ] ] } },
{ "type": "Feature", "properties": { "tg_type": "INF.ROUTE", "nom": "", "source_id": "way/1019596252", "source": "OSM_OSMFR_2026-10-03", "statut": "IMPORTE", "date_source": "2026-10-03", "classe": "motorway", "bretelle": true, "ref": null, "surface": "asphalt", "lanes": null, "oneway": "yes", "bridge": null, "longueur_m": 578.3 }, "geometry": { "type": "LineString", "coordinates": [ [ 11.503984, 3.783971 ], [ 11.504371, 3.783252 ], [ 11.504488, 3.782813 ], [ 11.504451, 3.78243 ], [ 11.503996, 3.78074 ], [ 11.503814, 3.78042 ], [ 11.503359, 3.780096 ], [ 11.502871, 3.779997 ], [ 11.502491, 3.780009 ] ] } },
{ "type": "Feature", "properties": { "tg_type": "INF.ROUTE", "nom": "", "source_id": "way/1025071403", "source": "OSM_OSMFR_2026-10-03", "statut": "IMPORTE", "date_source": "2026-10-03", "classe": "motorway", "bretelle": true, "ref": null, "surface": "asphalt", "lanes": null, "oneway": "yes", "bridge": null, "longueur_m": 657.6 }, "geometry": { "type": "LineString", "coordinates": [ [ 11.503455, 3.779737 ], [ 11.504098, 3.77966 ], [ 11.505505, 3.778967 ], [ 11.507397, 3.778426 ], [ 11.508179, 3.777989 ], [ 11.508815, 3.777443 ] ] } },
{ "type": "Feature", "properties": { "tg_type": "INF.ROUTE", "nom": "", "source_id": "way/1025071404", "source": "OSM_OSMFR_2026-10-03", "statut": "IMPORTE", "date_source": "2026-10-03", "classe": "motorway", "bretelle": true, "ref": null, "surface": "asphalt", "lanes": null, "oneway": "yes", "bridge": null, "longueur_m": 399.2 }, "geometry": { "type": "LineString", "coordinates": [ [ 11.506871, 3.779623 ], [ 11.507068, 3.779209 ], [ 11.507059, 3.779003 ], [ 11.506898, 3.77882 ], [ 11.506658, 3.77879 ], [ 11.505496, 3.779067 ], [ 11.505292, 3.779187 ], [ 11.505169, 3.779339 ], [ 11.505157, 3.779589 ], [ 11.50533, 3.779783 ], [ 11.505604, 3.77989 ] ] } },
{ "type": "Feature", "properties": { "tg_type": "INF.ROUTE", "nom": "", "source_id": "way/1025089780", "source": "OSM_OSMFR_2026-10-03", "statut": "IMPORTE", "date_source": "2026-10-03", "classe": "motorway", "bretelle": false, "ref": null, "surface": "asphalt", "lanes": "2", "oneway": "yes", "bridge": null, "longueur_m": 16.3 }, "geometry": { "type": "LineString", "coordinates": [ [ 11.540685, 3.716519 ], [ 11.540814, 3.716448 ] ] } },
{ "type": "Feature", "properties": { "tg_type": "INF.ROUTE", "nom": "", "source_id": "way/1041436288", "source": "OSM_OSMFR_2026-10-03", "statut": "IMPORTE", "date_source": "2026-10-03", "classe": "motorway", "bretelle": true, "ref": null, "surface": "asphalt", "lanes": null, "oneway": "yes", "bridge": null, "longueur_m": 365.5 }, "geometry": { "type": "LineString", "coordinates": [ [ 11.508792, 3.777855 ], [ 11.508661, 3.778122 ], [ 11.508661, 3.778701 ], [ 11.509122, 3.779614 ], [ 11.509639, 3.779979 ], [ 11.510389, 3.780049 ] ] } },
{ "type": "Feature", "properties": { "tg_type": "INF.ROUTE", "nom": "", "source_id": "way/1041436289", "source": "OSM_OSMFR_2026-10-03", "statut": "IMPORTE", "date_source": "2026-10-03", "classe": "motorway", "bretelle": true, "ref": null, "surface": "asphalt", "lanes": null, "oneway": "yes", "bridge": null, "longueur_m": 358.6 }, "geometry": { "type": "LineString", "coordinates": [ [ 11.508166, 3.780345 ], [ 11.508876, 3.780233 ], [ 11.50906, 3.779996 ], [ 11.509054, 3.77973 ], [ 11.508495, 3.778772 ], [ 11.508176, 3.77871 ], [ 11.507776, 3.778975 ] ] } },
{ "type": "Feature", "properties": { "tg_type": "INF.ROUTE", "nom": "", "source_id": "way/1042626333", "source": "OSM_OSMFR_2026-10-03", "statut": "IMPORTE", "date_source": "2026-10-03", "classe": "motorway", "bretelle": true, "ref": null, "surface": "asphalt", "lanes": "2", "oneway": "yes", "bridge": null, "longueur_m": 119.1 }, "geometry": { "type": "LineString", "coordinates": [ [ 11.501517, 3.797984 ], [ 11.501669, 3.797674 ], [ 11.501652, 3.796958 ] ] } },
{ "type": "Feature", "properties": { "tg_type": "INF.ROUTE", "nom": "Autoroute Yaoundé-Nsimalen", "source_id": "way/1042626336", "source": "OSM_OSMFR_2026-10-03", "statut": "IMPORTE", "date_source": "2026-10-03", "classe": "motorway", "bretelle": false, "ref": null, "surface": null, "lanes": "2", "oneway": "yes", "bridge": "yes", "longueur_m": 63.3 }, "geometry": { "type": "LineString", "coordinates": [ [ 11.502013, 3.798168 ], [ 11.501993, 3.79874 ] ] } },
{ "type": "Feature", "properties": { "tg_type": "INF.ROUTE", "nom": "Autoroute Yaoundé-Nsimalen", "source_id": "way/1042626337", "source": "OSM_OSMFR_2026-10-03", "statut": "IMPORTE", "date_source": "2026-10-03", "classe": "motorway", "bretelle": false, "ref": null, "surface": null, "lanes": "2", "oneway": "yes", "bridge": "yes", "longueur_m": 61.6 }, "geometry": { "type": "LineString", "coordinates": [ [ 11.501876, 3.798682 ], [ 11.501905, 3.798125 ] ] } },
{ "type": "Feature", "properties": { "tg_type": "INF.ROUTE", "nom": "", "source_id": "way/1042626338", "source": "OSM_OSMFR_2026-10-03", "statut": "IMPORTE", "date_source": "2026-10-03", "classe": "motorway", "bretelle": true, "ref": null, "surface": "asphalt", "lanes": null, "oneway": "yes", "bridge": null, "longueur_m": 366.8 }, "geometry": { "type": "LineString", "coordinates": [ [ 11.501735, 3.800122 ], [ 11.501648, 3.79904 ], [ 11.501412, 3.798565 ], [ 11.501019, 3.798081 ], [ 11.500135, 3.797483 ] ] } },
{ "type": "Feature", "properties": { "tg_type": "INF.ROUTE", "nom": "", "source_id": "way/1042626339", "source": "OSM_OSMFR_2026-10-03", "statut": "IMPORTE", "date_source": "2026-10-03", "classe": "motorway", "bretelle": true, "ref": null, "surface": "asphalt", "lanes": null, "oneway": "yes", "bridge": null, "longueur_m": 72.5 }, "geometry": { "type": "LineString", "coordinates": [ [ 11.501648, 3.79904 ], [ 11.501549, 3.798393 ] ] } },
{ "type": "Feature", "properties": { "tg_type": "INF.ROUTE", "nom": "", "source_id": "way/1042626340", "source": "OSM_OSMFR_2026-10-03", "statut": "IMPORTE", "date_source": "2026-10-03", "classe": "motorway", "bretelle": true, "ref": null, "surface": null, "lanes": null, "oneway": "yes", "bridge": null, "longueur_m": 409.4 }, "geometry": { "type": "LineString", "coordinates": [ [ 11.502091, 3.798785 ], [ 11.502074, 3.799993 ], [ 11.502183, 3.800303 ], [ 11.502314, 3.800398 ], [ 11.502716, 3.80039 ], [ 11.503516, 3.799923 ], [ 11.503616, 3.799644 ], [ 11.503453, 3.799333 ] ] } },
{ "type": "Feature", "properties": { "tg_type": "INF.ROUTE", "nom": "", "source_id": "way/1042626341", "source": "OSM_OSMFR_2026-10-03", "statut": "IMPORTE", "date_source": "2026-10-03", "classe": "motorway", "bretelle": true, "ref": null, "surface": null, "lanes": null, "oneway": "yes", "bridge": null, "longueur_m": 147.9 }, "geometry": { "type": "LineString", "coordinates": [ [ 11.502085, 3.799262 ], [ 11.501925, 3.800215 ], [ 11.501691, 3.800496 ] ] } },
{ "type": "Feature", "properties": { "tg_type": "INF.ROUTE", "nom": "", "source_id": "way/1042626343", "source": "OSM_OSMFR_2026-10-03", "statut": "IMPORTE", "date_source": "2026-10-03", "classe": "motorway", "bretelle": true, "ref": null, "surface": null, "lanes": "1", "oneway": "yes", "bridge": null, "longueur_m": 227.6 }, "geometry": { "type": "LineString", "coordinates": [ [ 11.50195, 3.796174 ], [ 11.502122, 3.797268 ], [ 11.502104, 3.798214 ] ] } },
{ "type": "Feature", "properties": { "tg_type": "INF.ROUTE", "nom": "", "source_id": "way/1042626344", "source": "OSM_OSMFR_2026-10-03", "statut": "IMPORTE", "date_source": "2026-10-03", "classe": "motorway", "bretelle": true, "ref": null, "surface": null, "lanes": "2", "oneway": "yes", "bridge": "yes", "longueur_m": 63.2 }, "geometry": { "type": "LineString", "coordinates": [ [ 11.502104, 3.798214 ], [ 11.502091, 3.798785 ] ] } },
{ "type": "Feature", "properties": { "tg_type": "INF.ROUTE", "nom": "Autoroute Yaoundé-Nsimalen", "source_id": "way/1042626345", "source": "OSM_OSMFR_2026-10-03", "statut": "IMPORTE", "date_source": "2026-10-03", "classe": "motorway", "bretelle": false, "ref": null, "surface": null, "lanes": "2", "oneway": "yes", "bridge": null, "longueur_m": 144.9 }, "geometry": { "type": "LineString", "coordinates": [ [ 11.501756, 3.794879 ], [ 11.50195, 3.796174 ] ] } },
{ "type": "Feature", "properties": { "tg_type": "INF.ROUTE", "nom": "", "source_id": "way/1067957487", "source": "OSM_OSMFR_2026-10-03", "statut": "IMPORTE", "date_source": "2026-10-03", "classe": "motorway", "bretelle": true, "ref": null, "surface": "asphalt", "lanes": null, "oneway": "yes", "bridge": null, "longueur_m": 616.8 }, "geometry": { "type": "LineString", "coordinates": [ [ 11.508593, 3.777911 ], [ 11.507147, 3.779791 ], [ 11.505731, 3.781881 ], [ 11.505282, 3.78238 ] ] } },
{ "type": "Feature", "properties": { "tg_type": "INF.ROUTE", "nom": "", "source_id": "way/1067957488", "source": "OSM_OSMFR_2026-10-03", "statut": "IMPORTE", "date_source": "2026-10-03", "classe": "motorway", "bretelle": true, "ref": null, "surface": "asphalt", "lanes": null, "oneway": "yes", "bridge": null, "longueur_m": 723.9 }, "geometry": { "type": "LineString", "coordinates": [ [ 11.504615, 3.783054 ], [ 11.504944, 3.782438 ], [ 11.50715, 3.779248 ], [ 11.507681, 3.778604 ], [ 11.508506, 3.777841 ] ] } },
{ "type": "Feature", "properties": { "tg_type": "INF.ROUTE", "nom": "", "source_id": "way/1067957489", "source": "OSM_OSMFR_2026-10-03", "statut": "IMPORTE", "date_source": "2026-10-03", "classe": "motorway", "bretelle": true, "ref": null, "surface": "asphalt", "lanes": null, "oneway": "yes", "bridge": null, "longueur_m": 403.9 }, "geometry": { "type": "LineString", "coordinates": [ [ 11.50603, 3.781553 ], [ 11.506015, 3.781766 ], [ 11.506116, 3.781973 ], [ 11.506347, 3.782129 ], [ 11.506508, 3.782142 ], [ 11.506706, 3.782067 ], [ 11.507779, 3.781204 ], [ 11.507881, 3.780973 ], [ 11.507801, 3.780741 ], [ 11.507196, 3.780516 ] ] } },
{ "type": "Feature", "properties": { "tg_type": "INF.ROUTE", "nom": "Autoroute Kribi Lolabé", "source_id": "way/1075197033", "source": "OSM_OSMFR_2026-10-03", "statut": "IMPORTE", "date_source": "2026-10-03", "classe": "motorway", "bretelle": false, "ref": "A2", "surface": null, "lanes": null, "oneway": "yes", "bridge": null, "longueur_m": 940.9 }, "geometry": { "type": "LineString", "coordinates": [ [ 9.947745, 2.956219 ], [ 9.948783, 2.964663 ] ] } },
{ "type": "Feature", "properties": { "tg_type": "INF.ROUTE", "nom": "Autoroute Kribi Lolabé", "source_id": "way/1075197034", "source": "OSM_OSMFR_2026-10-03", "statut": "IMPORTE", "date_source": "2026-10-03", "classe": "motorway", "bretelle": false, "ref": "A2", "surface": null, "lanes": null, "oneway": "yes", "bridge": "yes", "longueur_m": 88.1 }, "geometry": { "type": "LineString", "coordinates": [ [ 9.9476, 2.955435 ], [ 9.947745, 2.956219 ] ] } },
{ "type": "Feature", "properties": { "tg_type": "INF.ROUTE", "nom": "Autoroute Yaoundé - Douala", "source_id": "way/1173107728", "source": "OSM_OSMFR_2026-10-03", "statut": "IMPORTE", "date_source": "2026-10-03", "classe": "motorway", "bretelle": false, "ref": "A1", "surface": "asphalt", "lanes": "2", "oneway": "yes", "bridge": null, "longueur_m": 20863.6 }, "geometry": { "type": "LineString", "coordinates": [ [ 11.398456, 3.871814 ], [ 11.390813, 3.873022 ], [ 11.388936, 3.873069 ], [ 11.387872, 3.872889 ], [ 11.386242, 3.872408 ], [ 11.384754, 3.871643 ], [ 11.38302, 3.870524 ], [ 11.381761, 3.869965 ], [ 11.380095, 3.869549 ], [ 11.378447, 3.869503 ], [ 11.377285, 3.869639 ], [ 11.375757, 3.870113 ], [ 11.375048, 3.870414 ], [ 11.373808, 3.871151 ], [ 11.372003, 3.872525 ], [ 11.371251, 3.872968 ], [ 11.369869, 3.873536 ], [ 11.369119, 3.873725 ], [ 11.368126, 3.873876 ], [ 11.366895, 3.87392 ], [ 11.363495, 3.873487 ], [ 11.362782, 3.873481 ], [ 11.36153, 3.873647 ], [ 11.360501, 3.873962 ], [ 11.359054, 3.874687 ], [ 11.358437, 3.875165 ], [ 11.357583, 3.876133 ], [ 11.356105, 3.878268 ], [ 11.355421, 3.879068 ], [ 11.352344, 3.881614 ], [ 11.351728, 3.882278 ], [ 11.34979, 3.885158 ], [ 11.348449, 3.886541 ], [ 11.34715, 3.887485 ], [ 11.345873, 3.888173 ], [ 11.345059, 3.888449 ], [ 11.341382, 3.889261 ], [ 11.340086, 3.889649 ], [ 11.338637, 3.890261 ], [ 11.331515, 3.894348 ], [ 11.330212, 3.895048 ], [ 11.329032, 3.895558 ], [ 11.325258, 3.896786 ], [ 11.322986, 3.897274 ], [ 11.320495, 3.897427 ], [ 11.318125, 3.897352 ], [ 11.312695, 3.898124 ], [ 11.311101, 3.898187 ], [ 11.309449, 3.898032 ], [ 11.307061, 3.897604 ], [ 11.305629, 3.897449 ], [ 11.300569, 3.897293 ], [ 11.298763, 3.897052 ], [ 11.295877, 3.896271 ], [ 11.294594, 3.895747 ], [ 11.28989, 3.893729 ], [ 11.283252, 3.890602 ], [ 11.282213, 3.890239 ], [ 11.281006, 3.889982 ], [ 11.279773, 3.889602 ], [ 11.278614, 3.889073 ], [ 11.276924, 3.88782 ], [ 11.275953, 3.886926 ], [ 11.275052, 3.886327 ], [ 11.273946, 3.885754 ], [ 11.272863, 3.885412 ], [ 11.271549, 3.885155 ], [ 11.269881, 3.885061 ], [ 11.268368, 3.885224 ], [ 11.266657, 3.88577 ], [ 11.265745, 3.886182 ], [ 11.264741, 3.88683 ], [ 11.262515, 3.888735 ], [ 11.260713, 3.889779 ], [ 11.259538, 3.890266 ], [ 11.245848, 3.894532 ], [ 11.243954, 3.895575 ], [ 11.243193, 3.89618 ], [ 11.241991, 3.897576 ], [ 11.240066, 3.900027 ], [ 11.238618, 3.901264 ], [ 11.237805, 3.901807 ], [ 11.236954, 3.902227 ], [ 11.235855, 3.902619 ], [ 11.234794, 3.902872 ], [ 11.23389, 3.902988 ], [ 11.233133, 3.902984 ], [ 11.231855, 3.902829 ], [ 11.228751, 3.902099 ] ] } },
{ "type": "Feature", "properties": { "tg_type": "INF.ROUTE", "nom": "Autoroute Yaoundé - Douala", "source_id": "way/1173107729", "source": "OSM_OSMFR_2026-10-03", "statut": "IMPORTE", "date_source": "2026-10-03", "classe": "motorway", "bretelle": false, "ref": "A1", "surface": "asphalt", "lanes": "2", "oneway": "yes", "bridge": null, "longueur_m": 493.2 }, "geometry": { "type": "LineString", "coordinates": [ [ 11.228751, 3.902099 ], [ 11.224421, 3.901115 ] ] } },
{ "type": "Feature", "properties": { "tg_type": "INF.ROUTE", "nom": "Autoroute Yaoundé - Douala", "source_id": "way/1270721195", "source": "OSM_OSMFR_2026-10-03", "statut": "IMPORTE", "date_source": "2026-10-03", "classe": "motorway", "bretelle": false, "ref": "A1", "surface": "asphalt", "lanes": "2", "oneway": "yes", "bridge": null, "longueur_m": 1263.2 }, "geometry": { "type": "LineString", "coordinates": [ [ 11.40961, 3.871223 ], [ 11.408767, 3.871222 ], [ 11.407282, 3.870616 ], [ 11.406, 3.870592 ], [ 11.398456, 3.871814 ] ] } },
{ "type": "Feature", "properties": { "tg_type": "INF.ROUTE", "nom": "Autoroute Yaoundé - Douala", "source_id": "way/1270721196", "source": "OSM_OSMFR_2026-10-03", "statut": "IMPORTE", "date_source": "2026-10-03", "classe": "motorway", "bretelle": false, "ref": "A1", "surface": "asphalt", "lanes": "2", "oneway": "yes", "bridge": null, "longueur_m": 1262.8 }, "geometry": { "type": "LineString", "coordinates": [ [ 11.398415, 3.871617 ], [ 11.405981, 3.870453 ], [ 11.407316, 3.870473 ], [ 11.408473, 3.871023 ], [ 11.408799, 3.871103 ], [ 11.409558, 3.871065 ] ] } },
{ "type": "Feature", "properties": { "tg_type": "INF.ROUTE", "nom": "", "source_id": "way/1283477966", "source": "OSM_OSMFR_2026-10-03", "statut": "IMPORTE", "date_source": "2026-10-03", "classe": "motorway", "bretelle": true, "ref": null, "surface": "asphalt", "lanes": null, "oneway": "no", "bridge": null, "longueur_m": 315.4 }, "geometry": { "type": "LineString", "coordinates": [ [ 9.934838, 2.91139 ], [ 9.933926, 2.911614 ], [ 9.933529, 2.91155 ], [ 9.933261, 2.911336 ], [ 9.9331, 2.911079 ], [ 9.932992, 2.910789 ], [ 9.933014, 2.910248 ] ] } },
{ "type": "Feature", "properties": { "tg_type": "INF.ROUTE", "nom": "", "source_id": "way/1283477967", "source": "OSM_OSMFR_2026-10-03", "statut": "IMPORTE", "date_source": "2026-10-03", "classe": "motorway", "bretelle": true, "ref": null, "surface": "asphalt", "lanes": null, "oneway": "no", "bridge": "yes", "longueur_m": 58.5 }, "geometry": { "type": "LineString", "coordinates": [ [ 9.935328, 2.911196 ], [ 9.934838, 2.91139 ] ] } },
{ "type": "Feature", "properties": { "tg_type": "INF.ROUTE", "nom": "Autoroute Kribi Lolabé", "source_id": "way/1283479309", "source": "OSM_OSMFR_2026-10-03", "statut": "IMPORTE", "date_source": "2026-10-03", "classe": "motorway", "bretelle": false, "ref": "A2", "surface": null, "lanes": null, "oneway": "yes", "bridge": null, "longueur_m": 939.4 }, "geometry": { "type": "LineString", "coordinates": [ [ 9.948586, 2.964642 ], [ 9.947567, 2.95621 ] ] } },
{ "type": "Feature", "properties": { "tg_type": "INF.ROUTE", "nom": "Autoroute Kribi Lolabé", "source_id": "way/1283479310", "source": "OSM_OSMFR_2026-10-03", "statut": "IMPORTE", "date_source": "2026-10-03", "classe": "motorway", "bretelle": false, "ref": "A2", "surface": null, "lanes": null, "oneway": "yes", "bridge": "yes", "longueur_m": 126.5 }, "geometry": { "type": "LineString", "coordinates": [ [ 9.907424, 2.863918 ], [ 9.90672, 2.863019 ] ] } },
{ "type": "Feature", "properties": { "tg_type": "INF.ROUTE", "nom": "Autoroute Kribi Lolabé", "source_id": "way/1283479311", "source": "OSM_OSMFR_2026-10-03", "statut": "IMPORTE", "date_source": "2026-10-03", "classe": "motorway", "bretelle": false, "ref": "A2", "surface": null, "lanes": null, "oneway": "yes", "bridge": null, "longueur_m": 11368.1 }, "geometry": { "type": "LineString", "coordinates": [ [ 9.947431, 2.955552 ], [ 9.946436, 2.946875 ], [ 9.946273, 2.939125 ], [ 9.946389, 2.936271 ], [ 9.946418, 2.931917 ], [ 9.945811, 2.928803 ], [ 9.944656, 2.925205 ], [ 9.943964, 2.923418 ], [ 9.940816, 2.918516 ], [ 9.938348, 2.915445 ], [ 9.933562, 2.909211 ], [ 9.932076, 2.906954 ], [ 9.929362, 2.901811 ], [ 9.923825, 2.88873 ], [ 9.922151, 2.885413 ], [ 9.920418, 2.88253 ], [ 9.913229, 2.871926 ], [ 9.907424, 2.863918 ] ] } },
{ "type": "Feature", "properties": { "tg_type": "INF.ROUTE", "nom": "Autoroute Kribi Lolabé", "source_id": "way/1283479312", "source": "OSM_OSMFR_2026-10-03", "statut": "IMPORTE", "date_source": "2026-10-03", "classe": "motorway", "bretelle": false, "ref": "A2", "surface": null, "lanes": null, "oneway": "yes", "bridge": "yes", "longueur_m": 74.3 }, "geometry": { "type": "LineString", "coordinates": [ [ 9.947567, 2.95621 ], [ 9.947431, 2.955552 ] ] } },
{ "type": "Feature", "properties": { "tg_type": "INF.ROUTE", "nom": "Autoroute Kribi Lolabé", "source_id": "way/1283479313", "source": "OSM_OSMFR_2026-10-03", "statut": "IMPORTE", "date_source": "2026-10-03", "classe": "motorway", "bretelle": false, "ref": "A2", "surface": "asphalt", "lanes": null, "oneway": "yes", "bridge": null, "longueur_m": 1352.4 }, "geometry": { "type": "LineString", "coordinates": [ [ 9.95595, 2.980153 ], [ 9.953039, 2.976856 ], [ 9.951598, 2.974657 ], [ 9.950387, 2.972169 ], [ 9.94956, 2.969898 ] ] } },
{ "type": "Feature", "properties": { "tg_type": "INF.ROUTE", "nom": "Autoroute Kribi Lolabé", "source_id": "way/1283479314", "source": "OSM_OSMFR_2026-10-03", "statut": "IMPORTE", "date_source": "2026-10-03", "classe": "motorway", "bretelle": false, "ref": "A2", "surface": null, "lanes": null, "oneway": "yes", "bridge": null, "longueur_m": 19517.1 }, "geometry": { "type": "LineString", "coordinates": [ [ 9.90672, 2.863019 ], [ 9.904532, 2.859626 ], [ 9.903835, 2.858155 ], [ 9.902875, 2.855345 ], [ 9.902364, 2.85242 ], [ 9.902451, 2.849911 ], [ 9.902913, 2.846854 ], [ 9.90375, 2.844345 ], [ 9.905518, 2.841169 ], [ 9.908441, 2.837624 ], [ 9.93259, 2.810863 ], [ 9.933147, 2.81016 ], [ 9.934185, 2.808569 ], [ 9.934601, 2.807698 ], [ 9.935188, 2.805929 ], [ 9.935374, 2.804972 ], [ 9.935463, 2.803472 ], [ 9.935249, 2.801282 ], [ 9.934766, 2.799572 ], [ 9.934096, 2.798183 ], [ 9.933663, 2.797474 ], [ 9.932701, 2.796236 ], [ 9.931723, 2.795286 ], [ 9.931134, 2.794822 ], [ 9.929431, 2.793728 ], [ 9.917195, 2.786564 ], [ 9.91561, 2.785546 ], [ 9.914059, 2.784505 ], [ 9.906719, 2.778845 ], [ 9.903473, 2.776031 ], [ 9.901238, 2.773801 ], [ 9.898527, 2.770684 ], [ 9.897244, 2.769026 ], [ 9.895715, 2.766858 ], [ 9.893443, 2.763218 ], [ 9.891931, 2.760323 ], [ 9.891273, 2.758856 ], [ 9.887207, 2.748875 ], [ 9.883135, 2.738578 ], [ 9.8817, 2.734113 ], [ 9.880747, 2.73033 ], [ 9.880194, 2.727415 ], [ 9.879746, 2.724428 ], [ 9.879473, 2.721694 ] ] } },
{ "type": "Feature", "properties": { "tg_type": "INF.ROUTE", "nom": "", "source_id": "way/1301828151", "source": "OSM_OSMFR_2026-10-03", "statut": "IMPORTE", "date_source": "2026-10-03", "classe": "motorway", "bretelle": true, "ref": null, "surface": "asphalt", "lanes": null, "oneway": "no", "bridge": null, "longueur_m": 11.8 }, "geometry": { "type": "LineString", "coordinates": [ [ 11.541044, 3.716222 ], [ 11.541094, 3.716317 ] ] } },
{ "type": "Feature", "properties": { "tg_type": "INF.ROUTE", "nom": "", "source_id": "way/1301828153", "source": "OSM_OSMFR_2026-10-03", "statut": "IMPORTE", "date_source": "2026-10-03", "classe": "motorway", "bretelle": true, "ref": null, "surface": "asphalt", "lanes": "1", "oneway": "yes", "bridge": null, "longueur_m": 119.9 }, "geometry": { "type": "LineString", "coordinates": [ [ 11.501756, 3.794879 ], [ 11.502066, 3.795913 ] ] } },
{ "type": "Feature", "properties": { "tg_type": "INF.ROUTE", "nom": "Autoroute Yaoundé-Nsimalen", "source_id": "way/1301828154", "source": "OSM_OSMFR_2026-10-03", "statut": "IMPORTE", "date_source": "2026-10-03", "classe": "motorway", "bretelle": false, "ref": null, "surface": "asphalt", "lanes": "2", "oneway": "yes", "bridge": null, "longueur_m": 617.3 }, "geometry": { "type": "LineString", "coordinates": [ [ 11.508593, 3.777911 ], [ 11.507363, 3.779299 ], [ 11.505282, 3.78238 ] ] } },
{ "type": "Feature", "properties": { "tg_type": "INF.ROUTE", "nom": "", "source_id": "way/1301828155", "source": "OSM_OSMFR_2026-10-03", "statut": "IMPORTE", "date_source": "2026-10-03", "classe": "motorway", "bretelle": true, "ref": null, "surface": "asphalt", "lanes": null, "oneway": "yes", "bridge": null, "longueur_m": 87.8 }, "geometry": { "type": "LineString", "coordinates": [ [ 11.50642, 3.780863 ], [ 11.50603, 3.781553 ] ] } },
{ "type": "Feature", "properties": { "tg_type": "INF.ROUTE", "nom": "", "source_id": "way/1301828156", "source": "OSM_OSMFR_2026-10-03", "statut": "IMPORTE", "date_source": "2026-10-03", "classe": "motorway", "bretelle": true, "ref": null, "surface": "asphalt", "lanes": null, "oneway": "yes", "bridge": null, "longueur_m": 48.3 }, "geometry": { "type": "LineString", "coordinates": [ [ 11.508955, 3.77745 ], [ 11.508792, 3.777855 ] ] } },
{ "type": "Feature", "properties": { "tg_type": "INF.ROUTE", "nom": "Autoroute Yaoundé-Nsimalen", "source_id": "way/1301828157", "source": "OSM_OSMFR_2026-10-03", "statut": "IMPORTE", "date_source": "2026-10-03", "classe": "motorway", "bretelle": false, "ref": null, "surface": "asphalt", "lanes": "3", "oneway": "yes", "bridge": null, "longueur_m": 1294.8 }, "geometry": { "type": "LineString", "coordinates": [ [ 11.505282, 3.78238 ], [ 11.502951, 3.785641 ], [ 11.502397, 3.78657 ], [ 11.502013, 3.787455 ], [ 11.501759, 3.78832 ], [ 11.501615, 3.78926 ], [ 11.501604, 3.79305 ] ] } },
{ "type": "Feature", "properties": { "tg_type": "INF.ROUTE", "nom": "Autoroute Yaoundé-Nsimalen", "source_id": "way/1301828158", "source": "OSM_OSMFR_2026-10-03", "statut": "IMPORTE", "date_source": "2026-10-03", "classe": "motorway", "bretelle": false, "ref": null, "surface": "asphalt", "lanes": "2", "oneway": "yes", "bridge": null, "longueur_m": 294.5 }, "geometry": { "type": "LineString", "coordinates": [ [ 11.534577, 3.722847 ], [ 11.535802, 3.721958 ], [ 11.536586, 3.72113 ] ] } },
{ "type": "Feature", "properties": { "tg_type": "INF.ROUTE", "nom": "Autoroute Yaoundé-Nsimalen", "source_id": "way/1301828159", "source": "OSM_OSMFR_2026-10-03", "statut": "IMPORTE", "date_source": "2026-10-03", "classe": "motorway", "bretelle": false, "ref": null, "surface": "asphalt", "lanes": "2", "oneway": "yes", "bridge": null, "longueur_m": 335.9 }, "geometry": { "type": "LineString", "coordinates": [ [ 11.536656, 3.721196 ], [ 11.535675, 3.722211 ], [ 11.534343, 3.723124 ] ] } },
{ "type": "Feature", "properties": { "tg_type": "INF.ROUTE", "nom": "", "source_id": "way/1301828160", "source": "OSM_OSMFR_2026-10-03", "statut": "IMPORTE", "date_source": "2026-10-03", "classe": "motorway", "bretelle": true, "ref": null, "surface": "asphalt", "lanes": null, "oneway": "yes", "bridge": null, "longueur_m": 185.7 }, "geometry": { "type": "LineString", "coordinates": [ [ 11.539088, 3.717799 ], [ 11.538079, 3.719136 ] ] } },
{ "type": "Feature", "properties": { "tg_type": "INF.ROUTE", "nom": "Autoroute Kribi Lolabé", "source_id": "way/1353164220", "source": "OSM_OSMFR_2026-10-03", "statut": "IMPORTE", "date_source": "2026-10-03", "classe": "motorway", "bretelle": false, "ref": "A2", "surface": "asphalt", "lanes": null, "oneway": "yes", "bridge": "yes", "longueur_m": 39.2 }, "geometry": { "type": "LineString", "coordinates": [ [ 9.949682, 2.969596 ], [ 9.949773, 2.969939 ] ] } },
{ "type": "Feature", "properties": { "tg_type": "INF.ROUTE", "nom": "Autoroute Kribi Lolabé", "source_id": "way/1353164221", "source": "OSM_OSMFR_2026-10-03", "statut": "IMPORTE", "date_source": "2026-10-03", "classe": "motorway", "bretelle": false, "ref": "A2", "surface": "asphalt", "lanes": null, "oneway": "yes", "bridge": null, "longueur_m": 554.6 }, "geometry": { "type": "LineString", "coordinates": [ [ 9.948783, 2.964663 ], [ 9.949682, 2.969596 ] ] } },
{ "type": "Feature", "properties": { "tg_type": "INF.ROUTE", "nom": "Autoroute Kribi Lolabé", "source_id": "way/1353164222", "source": "OSM_OSMFR_2026-10-03", "statut": "IMPORTE", "date_source": "2026-10-03", "classe": "motorway", "bretelle": false, "ref": "A2", "surface": "asphalt", "lanes": null, "oneway": "yes", "bridge": null, "longueur_m": 555.0 }, "geometry": { "type": "LineString", "coordinates": [ [ 9.949463, 2.969583 ], [ 9.948586, 2.964642 ] ] } },
{ "type": "Feature", "properties": { "tg_type": "INF.ROUTE", "nom": "Autoroute Kribi Lolabé", "source_id": "way/1353164223", "source": "OSM_OSMFR_2026-10-03", "statut": "IMPORTE", "date_source": "2026-10-03", "classe": "motorway", "bretelle": false, "ref": "A2", "surface": "asphalt", "lanes": null, "oneway": "yes", "bridge": "yes", "longueur_m": 36.4 }, "geometry": { "type": "LineString", "coordinates": [ [ 9.94956, 2.969898 ], [ 9.949463, 2.969583 ] ] } },
{ "type": "Feature", "properties": { "tg_type": "INF.ROUTE", "nom": "", "source_id": "way/1366789826", "source": "OSM_OSMFR_2026-10-03", "statut": "IMPORTE", "date_source": "2026-10-03", "classe": "motorway", "bretelle": true, "ref": null, "surface": "asphalt", "lanes": null, "oneway": "no", "bridge": null, "longueur_m": 141.4 }, "geometry": { "type": "LineString", "coordinates": [ [ 9.936522, 2.910757 ], [ 9.935328, 2.911196 ] ] } },
{ "type": "Feature", "properties": { "tg_type": "INF.ROUTE", "nom": "Autoroute Yaoundé - Douala", "source_id": "way/1450297537", "source": "OSM_OSMFR_2026-10-03", "statut": "IMPORTE", "date_source": "2026-10-03", "classe": "motorway", "bretelle": false, "ref": "A1", "surface": "asphalt", "lanes": null, "oneway": "yes", "bridge": null, "longueur_m": 5897.9 }, "geometry": { "type": "LineString", "coordinates": [ [ 10.951025, 3.939477 ], [ 10.948638, 3.939316 ], [ 10.946477, 3.939405 ], [ 10.938636, 3.939849 ], [ 10.937488, 3.939975 ], [ 10.935999, 3.94029 ], [ 10.934146, 3.940924 ], [ 10.932633, 3.941644 ], [ 10.928733, 3.943967 ], [ 10.921054, 3.947518 ], [ 10.915802, 3.950092 ], [ 10.91467, 3.95044 ], [ 10.91386, 3.950587 ], [ 10.908751, 3.951133 ], [ 10.906272, 3.951556 ], [ 10.904566, 3.952083 ], [ 10.900727, 3.953544 ] ] } },
{ "type": "Feature", "properties": { "tg_type": "INF.ROUTE", "nom": "Autoroute Yaoundé - Douala", "source_id": "way/1450297538", "source": "OSM_OSMFR_2026-10-03", "statut": "IMPORTE", "date_source": "2026-10-03", "classe": "motorway", "bretelle": false, "ref": "A1", "surface": "asphalt", "lanes": null, "oneway": "yes", "bridge": "yes", "longueur_m": 64.8 }, "geometry": { "type": "LineString", "coordinates": [ [ 10.951603, 3.939557 ], [ 10.951025, 3.939477 ] ] } },
{ "type": "Feature", "properties": { "tg_type": "INF.ROUTE", "nom": "Autoroute Yaoundé - Douala", "source_id": "way/1547161180", "source": "OSM_OSMFR_2026-10-03", "statut": "IMPORTE", "date_source": "2026-10-03", "classe": "motorway", "bretelle": false, "ref": "A1", "surface": "asphalt", "lanes": null, "oneway": "yes", "bridge": null, "longueur_m": 1109.4 }, "geometry": { "type": "LineString", "coordinates": [ [ 11.214686, 3.898982 ], [ 11.215543, 3.898997 ], [ 11.217204, 3.899261 ], [ 11.224455, 3.90098 ] ] } },
{ "type": "Feature", "properties": { "tg_type": "INF.ROUTE", "nom": "Autoroute Yaoundé - Douala", "source_id": "way/1547161181", "source": "OSM_OSMFR_2026-10-03", "statut": "IMPORTE", "date_source": "2026-10-03", "classe": "motorway", "bretelle": false, "ref": "A1", "surface": "asphalt", "lanes": null, "oneway": "yes", "bridge": null, "longueur_m": 1106.9 }, "geometry": { "type": "LineString", "coordinates": [ [ 11.224421, 3.901115 ], [ 11.217177, 3.899397 ], [ 11.215517, 3.899162 ], [ 11.21467, 3.899158 ] ] } },
{ "type": "Feature", "properties": { "tg_type": "INF.ROUTE", "nom": "Autoroute Yaoundé - Douala", "source_id": "way/1547597535", "source": "OSM_OSMFR_2026-10-03", "statut": "IMPORTE", "date_source": "2026-10-03", "classe": "motorway", "bretelle": false, "ref": "A1", "surface": "asphalt", "lanes": null, "oneway": "yes", "bridge": null, "longueur_m": 31965.4 }, "geometry": { "type": "LineString", "coordinates": [ [ 10.951715, 3.939411 ], [ 10.952676, 3.939572 ], [ 10.967692, 3.943001 ], [ 10.969527, 3.943183 ], [ 10.976412, 3.942961 ], [ 10.978306, 3.943012 ], [ 10.979746, 3.943167 ], [ 10.98113, 3.943415 ], [ 10.988162, 3.945332 ], [ 10.989456, 3.945583 ], [ 10.992084, 3.945789 ], [ 10.993436, 3.945746 ], [ 10.995847, 3.945409 ], [ 10.997706, 3.944922 ], [ 10.998835, 3.944505 ], [ 11.001059, 3.943432 ], [ 11.003626, 3.941754 ], [ 11.005286, 3.940841 ], [ 11.007577, 3.939862 ], [ 11.0087, 3.939525 ], [ 11.010857, 3.939059 ], [ 11.013413, 3.938808 ], [ 11.01565, 3.938711 ], [ 11.01719, 3.938524 ], [ 11.018783, 3.938134 ], [ 11.019963, 3.937716 ], [ 11.021283, 3.937122 ], [ 11.022841, 3.936143 ], [ 11.024793, 3.934507 ], [ 11.026517, 3.932394 ], [ 11.028156, 3.92946 ], [ 11.030912, 3.924224 ], [ 11.031969, 3.922544 ], [ 11.033272, 3.920927 ], [ 11.034667, 3.919632 ], [ 11.036217, 3.918487 ], [ 11.038352, 3.917256 ], [ 11.040825, 3.916362 ], [ 11.043223, 3.915907 ], [ 11.046763, 3.915807 ], [ 11.054136, 3.915994 ], [ 11.05598, 3.915779 ], [ 11.058126, 3.915115 ], [ 11.062621, 3.913451 ], [ 11.063957, 3.912766 ], [ 11.065282, 3.911808 ], [ 11.073956, 3.905113 ], [ 11.075141, 3.90401 ], [ 11.078934, 3.899477 ], [ 11.07998, 3.898487 ], [ 11.081187, 3.897609 ], [ 11.085747, 3.895484 ], [ 11.087276, 3.894366 ], [ 11.088644, 3.89284 ], [ 11.089931, 3.891588 ], [ 11.091213, 3.890737 ], [ 11.092758, 3.890063 ], [ 11.094829, 3.889667 ], [ 11.099327, 3.889241 ], [ 11.101521, 3.889351 ], [ 11.103321, 3.88972 ], [ 11.107798, 3.891057 ], [ 11.111142, 3.892327 ], [ 11.112148, 3.892626 ], [ 11.113278, 3.892842 ], [ 11.114606, 3.892891 ], [ 11.118874, 3.892428 ], [ 11.1206, 3.892426 ], [ 11.122, 3.892571 ], [ 11.123306, 3.892862 ], [ 11.126707, 3.893951 ], [ 11.128292, 3.894369 ], [ 11.130529, 3.894609 ], [ 11.132661, 3.894545 ], [ 11.134501, 3.894253 ], [ 11.13676, 3.893531 ], [ 11.142655, 3.891366 ], [ 11.143634, 3.891101 ], [ 11.144857, 3.890908 ], [ 11.146161, 3.890916 ], [ 11.147786, 3.891152 ], [ 11.150402, 3.892102 ], [ 11.152067, 3.892535 ], [ 11.156166, 3.892899 ], [ 11.157432, 3.893178 ], [ 11.15902, 3.893836 ], [ 11.160441, 3.894676 ], [ 11.16183, 3.895383 ], [ 11.162839, 3.895755 ], [ 11.163778, 3.895982 ], [ 11.164623, 3.896084 ], [ 11.166342, 3.896127 ], [ 11.170698, 3.896758 ], [ 11.171953, 3.896806 ], [ 11.173321, 3.896726 ], [ 11.174324, 3.896563 ], [ 11.177157, 3.895862 ], [ 11.178484, 3.895712 ], [ 11.179732, 3.895682 ], [ 11.186276, 3.89591 ], [ 11.187424, 3.896044 ], [ 11.188408, 3.896282 ], [ 11.189455, 3.896659 ], [ 11.190452, 3.897135 ], [ 11.193231, 3.899207 ], [ 11.194454, 3.899841 ], [ 11.195766, 3.900317 ], [ 11.197118, 3.900579 ], [ 11.198322, 3.900617 ], [ 11.207684, 3.900406 ], [ 11.209027, 3.900186 ], [ 11.212114, 3.899308 ], [ 11.213359, 3.899063 ], [ 11.214686, 3.898982 ] ] } },
{ "type": "Feature", "properties": { "tg_type": "INF.ROUTE", "nom": "Autoroute Yaoundé - Douala", "source_id": "way/1547597536", "source": "OSM_OSMFR_2026-10-03", "statut": "IMPORTE", "date_source": "2026-10-03", "classe": "motorway", "bretelle": false, "ref": "A1", "surface": "asphalt", "lanes": null, "oneway": "yes", "bridge": "yes", "longueur_m": 65.5 }, "geometry": { "type": "LineString", "coordinates": [ [ 10.951132, 3.939319 ], [ 10.951715, 3.939411 ] ] } },
{ "type": "Feature", "properties": { "tg_type": "INF.ROUTE", "nom": "Autoroute Yaoundé - Douala", "source_id": "way/1547597537", "source": "OSM_OSMFR_2026-10-03", "statut": "IMPORTE", "date_source": "2026-10-03", "classe": "motorway", "bretelle": false, "ref": "A1", "surface": "asphalt", "lanes": null, "oneway": "yes", "bridge": null, "longueur_m": 5919.6 }, "geometry": { "type": "LineString", "coordinates": [ [ 10.900614, 3.953309 ], [ 10.904499, 3.951925 ], [ 10.906256, 3.951411 ], [ 10.907505, 3.951166 ], [ 10.913828, 3.950456 ], [ 10.915759, 3.949931 ], [ 10.916491, 3.94964 ], [ 10.920939, 3.947376 ], [ 10.927843, 3.94424 ], [ 10.929908, 3.943116 ], [ 10.932569, 3.94151 ], [ 10.934057, 3.940772 ], [ 10.93594, 3.940127 ], [ 10.937123, 3.939867 ], [ 10.938617, 3.939684 ], [ 10.946465, 3.939233 ], [ 10.948651, 3.93915 ], [ 10.951132, 3.939319 ] ] } }
]
}
